[{"position":{"lat":35.252119,"lng":-89.976042},"address":"\"4630 SUNNYBROOK ST\"","zip":"38127","state":"TN","city":"MEMPHIS","title":"\"4630 SUNNYBROOK ST\"","rcType":"Loan","icon":"white"},{"position":{"lat":34.841145,"lng":-89.993465},"address":"\"209 CROSS CREEK DR\"","zip":"38632","state":"MS","city":"HERNANDO","title":"\"209 CROSS CREEK DR\"","rcType":"Loan","icon":"blue"},{"position":{"lat":35.508178,"lng":-89.56381},"address":"\"610 SANFORD RD\"","zip":"38019","state":"TN","city":"COVINGTON","title":"\"610 SANFORD RD\"","rcType":"Loan","icon":"blue"},{"position":{"lat":34.884931,"lng":-89.853789},"address":"\"1687 WOOD LANE DR\"","zip":"38654","state":"MS","city":"\"OLIVE BRANCH\"","title":"\"1687 WOOD LANE DR\"","rcType":"Loan","icon":"blue"},{"position":{"lat":34.843186,"lng":-90.186444},"address":"\"11119 BLACK BEAR CV\"","zip":"38632","state":"MS","city":"HERNANDO","title":"\"11119 BLACK BEAR CV\"","rcType":"Loan","icon":"blue"},{"position":{"lat":35.436743,"lng":-89.775749},"address":"\"1102 ATOKA IDAVILLE RD\"","zip":"38004","state":"TN","city":"ATOKA","title":"\"1102 ATOKA IDAVILLE RD\"","rcType":"Loan","icon":"white"},{"position":{"lat":34.955068,"lng":-89.955662},"address":"\"1931 KINGS CASTLE DR\"","zip":"38671","state":"MS","city":"SOUTHAVEN","title":"\"1931 KINGS CASTLE DR\"","rcType":"Loan","icon":"blue"},{"position":{"lat":34.832086,"lng":-90.004016},"address":"\"1926 ROBERTSON RD\"","zip":"38632","state":"MS","city":"HERNANDO","title":"\"1926 ROBERTSON RD\"","rcType":"Loan","icon":"blue"},{"position":{"lat":34.856668,"lng":-89.945018},"address":"\"265 FOXWOOD CIR W\"","zip":"38632","state":"MS","city":"HERNANDO","title":"\"265 FOXWOOD CIR W\"","rcType":"Loan","icon":"blue"},{"position":{"lat":34.920231,"lng":-90.070939},"address":"\"4086 MISTY OAKS LN\"","zip":"38651","state":"MS","city":"NESBIT","title":"\"4086 MISTY OAKS LN\"","rcType":"Loan","icon":"blue"},{"position":{"lat":35.188328,"lng":-89.75462},"address":"\"2303 FOREST HILL IRENE RD N\"","zip":"38016","state":"TN","city":"CORDOVA","title":"\"2303 FOREST HILL IRENE RD N\"","rcType":"Loan","icon":"blue"},{"position":{"lat":35.112227,"lng":-89.889229},"address":"\"760 E BROOKHAVEN CIR\"","zip":"38117","state":"TN","city":"MEMPHIS","title":"\"760 E BROOKHAVEN CIR\"","rcType":"Loan","icon":"white"},{"position":{"lat":34.979374,"lng":-90.02715},"address":"\"2105 CARROLTON DR\"","zip":"38671","state":"MS","city":"SOUTHAVEN","title":"\"2105 CARROLTON DR\"","rcType":"Loan","icon":"blue"},{"position":{"lat":35.241167,"lng":-89.529573},"address":"\"120 SHADY PINES CV\"","zip":"38060","state":"TN","city":"OAKLAND","title":"\"120 SHADY PINES CV\"","rcType":"Loan","icon":"white"},{"position":{"lat":34.946293,"lng":-89.819146},"address":"\"5913 MICHAELSON DR\"","zip":"38654","state":"MS","city":"\"OLIVE BRANCH\"","title":"\"5913 MICHAELSON DR\"","rcType":"Loan","icon":"blue"},{"position":{"lat":35.021582,"lng":-89.715204},"address":"\"4653 PARK RIDGE PKWY\"","zip":"38017","state":"TN","city":"COLLIERVILLE","title":"\"4653 PARK RIDGE PKWY\"","rcType":"Loan","icon":"white"},{"position":{"lat":34.875356,"lng":-89.988866},"address":"\"1016 FRONIE DR\"","zip":"38651","state":"MS","city":"NESBIT","title":"\"1016 FRONIE DR\"","rcType":"Loan","icon":"blue"},{"position":{"lat":35.064369,"lng":-89.680101},"address":"\"912 BARBARA LYNN DR\"","zip":"38017","state":"TN","city":"COLLIERVILLE","title":"\"912 BARBARA LYNN DR\"","rcType":"Loan","icon":"blue"},{"position":{"lat":35.33184,"lng":-89.478726},"address":"\"6440 HIGHWAY 59\"","zip":"38068","state":"TN","city":"SOMERVILLE","title":"\"6440 HIGHWAY 59\"","rcType":"Loan","icon":"white"},{"position":{"lat":35.122178,"lng":-89.778609},"address":"\"8527 SHADY TRAIL CV\"","zip":"38018","state":"TN","city":"CORDOVA","title":"\"8527 SHADY TRAIL CV\"","rcType":"Loan","icon":"white"},{"position":{"lat":34.916929,"lng":-89.838509},"address":"\"8524 BELMOR LAKES DR\"","zip":"38654","state":"MS","city":"\"OLIVE BRANCH\"","title":"\"8524 BELMOR LAKES DR\"","rcType":"Loan","icon":"blue"},{"position":{"lat":34.913911,"lng":-89.961797},"address":"\"1586 MONTYS CIR N\"","zip":"38672","state":"MS","city":"SOUTHAVEN","title":"\"1586 MONTYS CIR N\"","rcType":"Loan","icon":"white"},{"position":{"lat":34.785459,"lng":-90.098322},"address":"\"6170 PLEASANT HILL DR\"","zip":"38632","state":"MS","city":"HERNANDO","title":"\"6170 PLEASANT HILL DR\"","rcType":"Loan","icon":"blue"},{"position":{"lat":35.014074,"lng":-90.027886},"address":"\"1081 MCCLURE RD\"","zip":"38116","state":"TN","city":"MEMPHIS","title":"\"1081 MCCLURE RD\"","rcType":"Loan","icon":"white"},{"position":{"lat":34.942722,"lng":-89.946354},"address":"\"2474 BAIRD DR\"","zip":"38672","state":"MS","city":"SOUTHAVEN","title":"\"2474 BAIRD DR\"","rcType":"Loan","icon":"blue"},{"position":{"lat":35.157636,"lng":-90.038927},"address":"\"599 GREENLAW PL\"","zip":"38107","state":"TN","city":"MEMPHIS","title":"\"599 GREENLAW PL\"","rcType":"Loan","icon":"blue"},{"position":{"lat":35.276128,"lng":-89.67777},"address":"\"5491 MILTON RIDGE DR\"","zip":"38002","state":"TN","city":"ARLINGTON","title":"\"5491 MILTON RIDGE DR\"","rcType":"Loan","icon":"white"},{"position":{"lat":34.616955,"lng":-89.833767},"address":"\"302 PATE RD\"","zip":"38668","state":"MS","city":"SENATOBIA","title":"\"302 PATE RD\"","rcType":"Loan","icon":"blue"},{"position":{"lat":34.965497,"lng":-89.955324},"address":"\"7205 PECAN RDG E\"","zip":"38671","state":"MS","city":"SOUTHAVEN","title":"\"7205 PECAN RDG E\"","rcType":"Loan","icon":"blue"},{"position":{"lat":34.924023,"lng":-89.881512},"address":"\"6915 OAK SHADOW\"","zip":"38654","state":"MS","city":"\"OLIVE BRANCH\"","title":"\"6915 OAK SHADOW\"","rcType":"Loan","icon":"blue"},{"position":{"lat":34.993904,"lng":-89.888068},"address":"\"5755 CEDAR RIDGE DR\"","zip":"38654","state":"MS","city":"\"OLIVE BRANCH\"","title":"\"5755 CEDAR RIDGE DR\"","rcType":"Loan","icon":"blue"},{"position":{"lat":35.170288,"lng":-89.801816},"address":"\"1602 E SOUTHFIELD CIR\"","zip":"38016","state":"TN","city":"CORDOVA","title":"\"1602 E SOUTHFIELD CIR\"","rcType":"Loan","icon":"white"},{"position":{"lat":34.96532,"lng":-89.912729},"address":"\"4471 STONE PARK BLVD\"","zip":"38654","state":"MS","city":"\"OLIVE BRANCH\"","title":"\"4471 STONE PARK BLVD\"","rcType":"Loan","icon":"blue"},{"position":{"lat":35.096114,"lng":-89.941256},"address":"\"1316 FOXCROFT ST\"","zip":"38111","state":"TN","city":"MEMPHIS","title":"\"1316 FOXCROFT ST\"","rcType":"Loan","icon":"white"},{"position":{"lat":34.939157,"lng":-90.010056},"address":"\"1157 MCGOWAN DR\"","zip":"38671","state":"MS","city":"SOUTHAVEN","title":"\"1157 MCGOWAN DR\"","rcType":"Loan","icon":"blue"},{"position":{"lat":35.09126,"lng":-89.957416},"address":"\"1476 GALVESTON ST\"","zip":"38114","state":"TN","city":"MEMPHIS","title":"\"1476 GALVESTON ST\"","rcType":"Loan","icon":"blue"},{"position":{"lat":34.950018,"lng":-89.820178},"address":"\"6154 CHICKASAW DR\"","zip":"38654","state":"MS","city":"\"OLIVE BRANCH\"","title":"\"6154 CHICKASAW DR\"","rcType":"Loan","icon":"white"},{"position":{"lat":35.194787,"lng":-89.209576},"address":"\"730 PITTMAN RD\"","zip":"38068","state":"TN","city":"SOMERVILLE","title":"\"730 PITTMAN RD\"","rcType":"Loan","icon":"white"},{"position":{"lat":34.956441,"lng":-89.866769},"address":"\"6952 SILVER CLOUD CV\"","zip":"38654","state":"MS","city":"\"OLIVE BRANCH\"","title":"\"6952 SILVER CLOUD CV\"","rcType":"Loan","icon":"white"},{"position":{"lat":35.243536,"lng":-89.721105},"address":"\"10234 OAK LEVEE DR\"","zip":"38002","state":"TN","city":"LAKELAND","title":"\"10234 OAK LEVEE DR\"","rcType":"Loan","icon":"white"},{"position":{"lat":35.134161,"lng":-89.949319},"address":"\"3367 NORTHWOOD DR\"","zip":"38111","state":"TN","city":"MEMPHIS","title":"\"3367 NORTHWOOD DR\"","rcType":"Loan","icon":"blue"},{"position":{"lat":35.111131,"lng":-89.942058},"address":"\"3609 CARNES AVE\"","zip":"38111","state":"TN","city":"MEMPHIS","title":"\"3609 CARNES AVE\"","rcType":"Loan","icon":"white"},{"position":{"lat":35.169554,"lng":-89.805063},"address":"\"7734 NESTING DOVE LN\"","zip":"38016","state":"TN","city":"CORDOVA","title":"\"7734 NESTING DOVE LN\"","rcType":"Loan","icon":"white"},{"position":{"lat":35.521902,"lng":-89.707163},"address":"\"758 LIBERTY CHURCH SMITH RD\"","zip":"38011","state":"TN","city":"BRIGHTON","title":"\"758 LIBERTY CHURCH SMITH RD\"","rcType":"Loan","icon":"blue"},{"position":{"lat":34.971056,"lng":-90.103466},"address":"\"7565 BROKEN HICKORY DR\"","zip":"38680","state":"MS","city":"WALLS","title":"\"7565 BROKEN HICKORY DR\"","rcType":"Loan","icon":"white"},{"position":{"lat":34.821344,"lng":-90.061366},"address":"\"2652 HORN LAKE RD\"","zip":"38632","state":"MS","city":"HERNANDO","title":"\"2652 HORN LAKE RD\"","rcType":"Loan","icon":"white"},{"position":{"lat":35.166003,"lng":-89.946016},"address":"\"3437 ROCKWOOD AVE\"","zip":"38122","state":"TN","city":"MEMPHIS","title":"\"3437 ROCKWOOD AVE\"","rcType":"Loan","icon":"white"},{"position":{"lat":35.206499,"lng":-89.88242},"address":"\"2955 RUSKIN RD\"","zip":"38134","state":"TN","city":"BARTLETT","title":"\"2955 RUSKIN RD\"","rcType":"Loan","icon":"white"},{"position":{"lat":34.96455,"lng":-89.904309},"address":"\"4861 STONE CROSS DR\"","zip":"38654","state":"MS","city":"\"OLIVE BRANCH\"","title":"\"4861 STONE CROSS DR\"","rcType":"Loan","icon":"white"},{"position":{"lat":35.157659,"lng":-89.398786},"address":"\"13950 HIGHWAY 193\"","zip":"38076","state":"TN","city":"WILLISTON","title":"\"13950 HIGHWAY 193\"","rcType":"Loan","icon":"blue"},{"position":{"lat":35.297268,"lng":-89.222133},"address":"\"3280 EASTSIDE DR\"","zip":"38068","state":"TN","city":"SOMERVILLE","title":"\"3280 EASTSIDE DR\"","rcType":"Loan","icon":"white"},{"position":{"lat":35.115747,"lng":-89.964249},"address":"\"2940 SOUTHERN AVE\"","zip":"38111","state":"TN","city":"MEMPHIS","title":"\"2940 SOUTHERN AVE\"","rcType":"Loan","icon":"white"},{"position":{"lat":35.015597,"lng":-90.000705},"address":"\"4867 DIANNE DR\"","zip":"38116","state":"TN","city":"MEMPHIS","title":"\"4867 DIANNE DR\"","rcType":"Loan","icon":"white"},{"position":{"lat":34.97178,"lng":-89.986237},"address":"\"7635 IRIS DR\"","zip":"38671","state":"MS","city":"SOUTHAVEN","title":"\"7635 IRIS DR\"","rcType":"Loan","icon":"white"},{"position":{"lat":34.968249,"lng":-90.091996},"address":"\"5767 REDBUD CV\"","zip":"38637","state":"MS","city":"\"HORN LAKE\"","title":"\"5767 REDBUD CV\"","rcType":"Loan","icon":"blue"},{"position":{"lat":35.433617,"lng":-89.904758},"address":"\"47 CARL MILLER DR\"","zip":"38023","state":"TN","city":"DRUMMONDS","title":"\"47 CARL MILLER DR\"","rcType":"Loan","icon":"white"},{"position":{"lat":34.81683,"lng":-90.013541},"address":"\"1370 W OAK GROVE RD\"","zip":"38632","state":"MS","city":"HERNANDO","title":"\"1370 W OAK GROVE RD\"","rcType":"Loan","icon":"blue"},{"position":{"lat":35.149542,"lng":-89.977168},"address":"\"513 N HOLLYWOOD ST\"","zip":"38112","state":"TN","city":"MEMPHIS","title":"\"513 N HOLLYWOOD ST\"","rcType":"Loan","icon":"blue"},{"position":{"lat":35.57138,"lng":-89.652643},"address":"\"720 LONG AVE\"","zip":"38019","state":"TN","city":"COVINGTON","title":"\"720 LONG AVE\"","rcType":"Loan","icon":"blue"},{"position":{"lat":34.798185,"lng":-89.855879},"address":"\"7304 ELIZABETH DR\"","zip":"38632","state":"MS","city":"HERNANDO","title":"\"7304 ELIZABETH DR\"","rcType":"Loan","icon":"blue"},{"position":{"lat":34.921527,"lng":-89.939109},"address":"\"4191 CHAUCER DR\"","zip":"38672","state":"MS","city":"SOUTHAVEN","title":"\"4191 CHAUCER DR\"","rcType":"Loan","icon":"white"},{"position":{"lat":35.098385,"lng":-89.794093},"address":"\"1844 RIVER VALLEY DR\"","zip":"38138","state":"TN","city":"GERMANTOWN","title":"\"1844 RIVER VALLEY DR\"","rcType":"Loan","icon":"white"},{"position":{"lat":35.112323,"lng":-89.707153},"address":"\"10710 CURTMAN DR N\"","zip":"38028","state":"TN","city":"EADS","title":"\"10710 CURTMAN DR N\"","rcType":"Loan","icon":"blue"},{"position":{"lat":34.920538,"lng":-90.00445},"address":"\"819 LAKEMONT DR\"","zip":"38672","state":"MS","city":"SOUTHAVEN","title":"\"819 LAKEMONT DR\"","rcType":"Loan","icon":"blue"},{"position":{"lat":35.084888,"lng":-89.759239},"address":"\"2349 FOREST HILL IRENE RD\"","zip":"38139","state":"TN","city":"GERMANTOWN","title":"\"2349 FOREST HILL IRENE RD\"","rcType":"Loan","icon":"blue"},{"position":{"lat":35.196137,"lng":-89.997273},"address":"\"1993 DUPONT AVE\"","zip":"38127","state":"TN","city":"MEMPHIS","title":"\"1993 DUPONT AVE\"","rcType":"Loan","icon":"white"},{"position":{"lat":34.947097,"lng":-90.053633},"address":"","zip":"38637","state":"MS","city":"\"HORN LAKE\"","title":"","rcType":"Loan","icon":"blue"},{"position":{"lat":35.053314,"lng":-89.719953},"address":"\"3505 BEAVER RUN DR\"","zip":"38017","state":"TN","city":"COLLIERVILLE","title":"\"3505 BEAVER RUN DR\"","rcType":"Loan","icon":"white"},{"position":{"lat":34.899504,"lng":-89.914528},"address":"\"4230 WINDERMERE RD N\"","zip":"38651","state":"MS","city":"NESBIT","title":"\"4230 WINDERMERE RD N\"","rcType":"Loan","icon":"white"},{"position":{"lat":34.881681,"lng":-89.911463},"address":"\"1480 CEDAR CV\"","zip":"38651","state":"MS","city":"NESBIT","title":"\"1480 CEDAR CV\"","rcType":"Loan","icon":"blue"},{"position":{"lat":35.133593,"lng":-89.873858},"address":"\"5645 BARFIELD RD\"","zip":"38120","state":"TN","city":"MEMPHIS","title":"\"5645 BARFIELD RD\"","rcType":"Loan","icon":"white"},{"position":{"lat":35.250437,"lng":-89.522186},"address":"\"60 LAUREL ST\"","zip":"38060","state":"TN","city":"OAKLAND","title":"\"60 LAUREL ST\"","rcType":"Loan","icon":"blue"},{"position":{"lat":34.856857,"lng":-90.023495},"address":"\"730 REED RD\"","zip":"38632","state":"MS","city":"HERNANDO","title":"\"730 REED RD\"","rcType":"Loan","icon":"blue"},{"position":{"lat":34.873396,"lng":-89.91685},"address":"\"900 MALONE RD N\"","zip":"38632","state":"MS","city":"HERNANDO","title":"\"900 MALONE RD N\"","rcType":"Loan","icon":"blue"},{"position":{"lat":35.09701,"lng":-89.781291},"address":"\"8445 MERCEDES BLVD\"","zip":"38139","state":"TN","city":"GERMANTOWN","title":"\"8445 MERCEDES BLVD\"","rcType":"Loan","icon":"white"},{"position":{"lat":34.837458,"lng":-89.984946},"address":"\"1561 PONTOTOC ST\"","zip":"38632","state":"MS","city":"HERNANDO","title":"\"1561 PONTOTOC ST\"","rcType":"Loan","icon":"white"},{"position":{"lat":35.00522,"lng":-89.76235},"address":"\"9017 E HOLMES RD\"","zip":"38125","state":"TN","city":"MEMPHIS","title":"\"9017 E HOLMES RD\"","rcType":"Loan","icon":"blue"},{"position":{"lat":35.166394,"lng":-89.791407},"address":"\"8130 SHALLOW GLEN TRL\"","zip":"38016","state":"TN","city":"CORDOVA","title":"\"8130 SHALLOW GLEN TRL\"","rcType":"Loan","icon":"white"},{"position":{"lat":34.818585,"lng":-89.964101},"address":"\"1448 VERNON DR S\"","zip":"38632","state":"MS","city":"HERNANDO","title":"\"1448 VERNON DR S\"","rcType":"Loan","icon":"white"},{"position":{"lat":35.098308,"lng":-89.744167},"address":"\"1856 DOGWOOD HOLLOW DR\"","zip":"38139","state":"TN","city":"GERMANTOWN","title":"\"1856 DOGWOOD HOLLOW DR\"","rcType":"Loan","icon":"blue"},{"position":{"lat":35.084983,"lng":-90.119736},"address":"\"2390 CHANNEL AVE\"","zip":"38113","state":"TN","city":"MEMPHIS","title":"\"2390 CHANNEL AVE\"","rcType":"Loan","icon":"white"},{"position":{"lat":35.09419,"lng":-89.77236},"address":"\"1960 ALDER BRANCH LN\"","zip":"38139","state":"TN","city":"GERMANTOWN","title":"\"1960 ALDER BRANCH LN\"","rcType":"Loan","icon":"blue"},{"position":{"lat":35.291919,"lng":-89.248885},"address":"\"800 EASTSIDE DR\"","zip":"38068","state":"TN","city":"SOMERVILLE","title":"\"800 EASTSIDE DR\"","rcType":"Loan","icon":"blue"},{"position":{"lat":34.836386,"lng":-89.969682},"address":"\"1150 MILAM CV\"","zip":"38632","state":"MS","city":"HERNANDO","title":"\"1150 MILAM CV\"","rcType":"Loan","icon":"white"},{"position":{"lat":34.956644,"lng":-89.826563},"address":"\"9227 MASON ST\"","zip":"38654","state":"MS","city":"\"OLIVE BRANCH\"","title":"\"9227 MASON ST\"","rcType":"Loan","icon":"white"},{"position":{"lat":35.150387,"lng":-89.829896},"address":"\"6995 PARKBROOK LN\"","zip":"38018","state":"TN","city":"CORDOVA","title":"\"6995 PARKBROOK LN\"","rcType":"Loan","icon":"white"},{"position":{"lat":35.129,"lng":-90.037441},"address":"\"660 MCKINLEY ST\"","zip":"38126","state":"TN","city":"MEMPHIS","title":"\"660 MCKINLEY ST\"","rcType":"Loan","icon":"white"},{"position":{"lat":35.092103,"lng":-89.794399},"address":"\"2085 THORNCROFT DR\"","zip":"38138","state":"TN","city":"GERMANTOWN","title":"\"2085 THORNCROFT DR\"","rcType":"Loan","icon":"blue"},{"position":{"lat":35.099286,"lng":-89.868449},"address":"\"1184 LYNNFIELD RD\"","zip":"38119","state":"TN","city":"MEMPHIS","title":"\"1184 LYNNFIELD RD\"","rcType":"Loan","icon":"white"},{"position":{"lat":35.167888,"lng":-89.774173},"address":"\"8665 CEDAR FARMS DR\"","zip":"38016","state":"TN","city":"CORDOVA","title":"\"8665 CEDAR FARMS DR\"","rcType":"Loan","icon":"blue"},{"position":{"lat":35.225247,"lng":-90.027947},"address":"\"1077 CARROLTON RD\"","zip":"38127","state":"TN","city":"MEMPHIS","title":"\"1077 CARROLTON RD\"","rcType":"Loan","icon":"white"},{"position":{"lat":35.088684,"lng":-89.754102},"address":"\"2207 GRANDBURY WAY\"","zip":"38139","state":"TN","city":"GERMANTOWN","title":"\"2207 GRANDBURY WAY\"","rcType":"Loan","icon":"blue"},{"position":{"lat":34.814956,"lng":-89.969972},"address":"\"1119 GREENWICH DR\"","zip":"38632","state":"MS","city":"HERNANDO","title":"\"1119 GREENWICH DR\"","rcType":"Loan","icon":"blue"},{"position":{"lat":35.185889,"lng":-89.844521},"address":"\"2219 BIRKEN DR\"","zip":"38134","state":"TN","city":"MEMPHIS","title":"\"2219 BIRKEN DR\"","rcType":"Loan","icon":"white"},{"position":{"lat":34.978846,"lng":-89.956886},"address":"\"8121 MARY PAYTON DR\"","zip":"38671","state":"MS","city":"SOUTHAVEN","title":"\"8121 MARY PAYTON DR\"","rcType":"Loan","icon":"blue"},{"position":{"lat":34.871281,"lng":-89.735113},"address":"\"727 FAIRVIEW TRL\"","zip":"38611","state":"MS","city":"BYHALIA","title":"\"727 FAIRVIEW TRL\"","rcType":"Loan","icon":"blue"},{"position":{"lat":34.939488,"lng":-90.15011},"address":"\"9060 LAKESIDE CIR S\"","zip":"38680","state":"MS","city":"WALLS","title":"\"9060 LAKESIDE CIR S\"","rcType":"Loan","icon":"white"},{"position":{"lat":35.055465,"lng":-90.032176},"address":"\"3415 W ROSITA CIR\"","zip":"38116","state":"TN","city":"MEMPHIS","title":"\"3415 W ROSITA CIR\"","rcType":"Loan","icon":"white"},{"position":{"lat":35.213123,"lng":-89.761448},"address":"\"9011 GANDY CV\"","zip":"38133","state":"TN","city":"BARTLETT","title":"\"9011 GANDY CV\"","rcType":"Loan","icon":"white"},{"position":{"lat":35.111542,"lng":-89.831182},"address":"\"1378 PECAN TREES DR\"","zip":"38138","state":"TN","city":"GERMANTOWN","title":"\"1378 PECAN TREES DR\"","rcType":"Loan","icon":"blue"},{"position":{"lat":34.917456,"lng":-89.83797},"address":"\"8561 WHITES CROSSING DR\"","zip":"38654","state":"MS","city":"\"OLIVE BRANCH\"","title":"\"8561 WHITES CROSSING DR\"","rcType":"Loan","icon":"blue"},{"position":{"lat":35.095607,"lng":-89.918293},"address":"\"4317 CHERRYDALE AVE\"","zip":"38111","state":"TN","city":"MEMPHIS","title":"\"4317 CHERRYDALE AVE\"","rcType":"Loan","icon":"blue"},{"position":{"lat":35.298894,"lng":-89.796691},"address":"\"8019 JACK BOND RD\"","zip":"38002","state":"TN","city":"ARLINGTON","title":"\"8019 JACK BOND RD\"","rcType":"Loan","icon":"blue"},{"position":{"lat":35.040611,"lng":-89.538164},"address":"\"65 COTTON BEND DR\"","zip":"38066","state":"TN","city":"ROSSVILLE","title":"\"65 COTTON BEND DR\"","rcType":"Loan","icon":"white"},{"position":{"lat":35.560606,"lng":-89.69225},"address":"\"2623 HIGHWAY 59 W\"","zip":"38019","state":"TN","city":"COVINGTON","title":"\"2623 HIGHWAY 59 W\"","rcType":"Loan","icon":"white"},{"position":{"lat":35.209905,"lng":-89.844696},"address":"\"3088 CHARLES BRYAN RD\"","zip":"38134","state":"TN","city":"BARTLETT","title":"\"3088 CHARLES BRYAN RD\"","rcType":"Loan","icon":"blue"},{"position":{"lat":35.271659,"lng":-89.355036},"address":"\"14960 HIGHWAY 76 N\"","zip":"38068","state":"TN","city":"SOMERVILLE","title":"\"14960 HIGHWAY 76 N\"","rcType":"Loan","icon":"blue"},{"position":{"lat":35.222019,"lng":-89.796721},"address":"\"3536 EARLYNN DR\"","zip":"38133","state":"TN","city":"BARTLETT","title":"\"3536 EARLYNN DR\"","rcType":"Loan","icon":"white"},{"position":{"lat":34.953264,"lng":-89.944453},"address":"\"2563 SOUTH ST\"","zip":"38672","state":"MS","city":"SOUTHAVEN","title":"\"2563 SOUTH ST\"","rcType":"Loan","icon":"blue"},{"position":{"lat":34.957952,"lng":-89.922243},"address":"\"3806 MEADOW LN\"","zip":"38672","state":"MS","city":"SOUTHAVEN","title":"\"3806 MEADOW LN\"","rcType":"Loan","icon":"blue"},{"position":{"lat":35.115606,"lng":-89.758608},"address":"\"340 BLUFF RIDGE CV\"","zip":"38018","state":"TN","city":"CORDOVA","title":"\"340 BLUFF RIDGE CV\"","rcType":"Loan","icon":"white"},{"position":{"lat":34.957961,"lng":-90.048676},"address":"\"6720 FORESTGATE RD\"","zip":"38637","state":"MS","city":"\"HORN LAKE\"","title":"\"6720 FORESTGATE RD\"","rcType":"Loan","icon":"white"},{"position":{"lat":34.950571,"lng":-90.088755},"address":"\"5547 RANCH VIEW CV\"","zip":"38637","state":"MS","city":"\"HORN LAKE\"","title":"\"5547 RANCH VIEW CV\"","rcType":"Loan","icon":"blue"},{"position":{"lat":35.023132,"lng":-89.805601},"address":"\"7717 BEACON POINT RD\"","zip":"38125","state":"TN","city":"MEMPHIS","title":"\"7717 BEACON POINT RD\"","rcType":"Loan","icon":"blue"},{"position":{"lat":35.123073,"lng":-89.992636},"address":"\"2086 EVELYN AVE\"","zip":"38104","state":"TN","city":"MEMPHIS","title":"\"2086 EVELYN AVE\"","rcType":"Loan","icon":"blue"},{"position":{"lat":34.817568,"lng":-89.977645},"address":"","zip":"38632","state":"MS","city":"HERNANDO","title":"","rcType":"Loan","icon":"white"},{"position":{"lat":35.134497,"lng":-89.873071},"address":"\"5665 RICH RD\"","zip":"38120","state":"TN","city":"MEMPHIS","title":"\"5665 RICH RD\"","rcType":"Loan","icon":"white"},{"position":{"lat":35.113545,"lng":-89.927755},"address":"\"647 WATSON ST\"","zip":"38111","state":"TN","city":"MEMPHIS","title":"\"647 WATSON ST\"","rcType":"Loan","icon":"white"},{"position":{"lat":35.237009,"lng":-89.796382},"address":"\"7998 US HIGHWAY 70\"","zip":"38133","state":"TN","city":"BARTLETT","title":"\"7998 US HIGHWAY 70\"","rcType":"Loan","icon":"white"},{"position":{"lat":35.186198,"lng":-89.821711},"address":"\"7243 HILLSHIRE DR\"","zip":"38133","state":"TN","city":"MEMPHIS","title":"\"7243 HILLSHIRE DR\"","rcType":"Loan","icon":"white"},{"position":{"lat":35.274221,"lng":-89.661549},"address":"\"5427 CAYLEY RIDGE LN\"","zip":"38002","state":"TN","city":"ARLINGTON","title":"\"5427 CAYLEY RIDGE LN\"","rcType":"Loan","icon":"blue"},{"position":{"lat":35.21944,"lng":-89.530413},"address":"\"20 CAMBRIDGE PASS\"","zip":"38060","state":"TN","city":"OAKLAND","title":"\"20 CAMBRIDGE PASS\"","rcType":"Loan","icon":"blue"},{"position":{"lat":35.187239,"lng":-89.928901},"address":"\"4119 JACKSON AVE\"","zip":"38128","state":"TN","city":"MEMPHIS","title":"\"4119 JACKSON AVE\"","rcType":"Loan","icon":"white"},{"position":{"lat":35.610526,"lng":-89.70475},"address":"\"2312 MT LEBANON RD\"","zip":"38019","state":"TN","city":"COVINGTON","title":"\"2312 MT LEBANON RD\"","rcType":"Loan","icon":"blue"},{"position":{"lat":35.12502,"lng":-89.927686},"address":"\"4024 BARONNE WAY\"","zip":"38117","state":"TN","city":"MEMPHIS","title":"\"4024 BARONNE WAY\"","rcType":"Loan","icon":"white"},{"position":{"lat":35.225113,"lng":-89.504023},"address":"\"245 GREEN VALLEY DR\"","zip":"38060","state":"TN","city":"OAKLAND","title":"\"245 GREEN VALLEY DR\"","rcType":"Loan","icon":"white"},{"position":{"lat":34.69046,"lng":-89.947167},"address":"\"225 GOLDEN POND DR\"","zip":"38618","state":"MS","city":"COLDWATER","title":"\"225 GOLDEN POND DR\"","rcType":"Loan","icon":"blue"},{"position":{"lat":35.27273,"lng":-89.48849},"address":"\"7335 FEATHERS CHAPEL DR\"","zip":"38068","state":"TN","city":"SOMERVILLE","title":"\"7335 FEATHERS CHAPEL DR\"","rcType":"Loan","icon":"blue"},{"position":{"lat":35.043911,"lng":-89.887845},"address":"\"5270 MENDENHALL PARK PL\"","zip":"38115","state":"TN","city":"MEMPHIS","title":"\"5270 MENDENHALL PARK PL\"","rcType":"Loan","icon":"white"},{"position":{"lat":35.068825,"lng":-89.917752},"address":"\"2930 CHERRY RD\"","zip":"38118","state":"TN","city":"MEMPHIS","title":"\"2930 CHERRY RD\"","rcType":"Loan","icon":"white"},{"position":{"lat":35.316879,"lng":-89.896193},"address":"\"6990 COLD SPRINGS LN\"","zip":"38053","state":"TN","city":"MILLINGTON","title":"\"6990 COLD SPRINGS LN\"","rcType":"Loan","icon":"blue"},{"position":{"lat":35.320727,"lng":-89.899499},"address":"\"4909 HALLBROOK DR\"","zip":"38053","state":"TN","city":"MILLINGTON","title":"\"4909 HALLBROOK DR\"","rcType":"Loan","icon":"blue"},{"position":{"lat":34.892419,"lng":-89.74997},"address":"\"2121 RED BANKS RD N\"","zip":"38611","state":"MS","city":"BYHALIA","title":"\"2121 RED BANKS RD N\"","rcType":"Loan","icon":"blue"},{"position":{"lat":35.247903,"lng":-89.563432},"address":"\"220 GLENN DR\"","zip":"38028","state":"TN","city":"EADS","title":"\"220 GLENN DR\"","rcType":"Loan","icon":"blue"},{"position":{"lat":35.099027,"lng":-89.905301},"address":"\"1196 DEARING RD\"","zip":"38117","state":"TN","city":"MEMPHIS","title":"\"1196 DEARING RD\"","rcType":"Loan","icon":"white"},{"position":{"lat":35.210034,"lng":-89.904067},"address":"\"3093 DARBY ST\"","zip":"38128","state":"TN","city":"MEMPHIS","title":"\"3093 DARBY ST\"","rcType":"Loan","icon":"blue"},{"position":{"lat":35.325163,"lng":-89.248759},"address":"\"8580 OLD JACKSON RD\"","zip":"38068","state":"TN","city":"SOMERVILLE","title":"\"8580 OLD JACKSON RD\"","rcType":"Loan","icon":"blue"},{"position":{"lat":34.921503,"lng":-89.928239},"address":"\"3535 BOP BLVD\"","zip":"38672","state":"MS","city":"SOUTHAVEN","title":"\"3535 BOP BLVD\"","rcType":"Loan","icon":"blue"},{"position":{"lat":35.107557,"lng":-89.948059},"address":"\"3433 PARK AVE\"","zip":"38111","state":"TN","city":"MEMPHIS","title":"\"3433 PARK AVE\"","rcType":"Loan","icon":"white"},{"position":{"lat":35.196262,"lng":-89.515921},"address":"\"85 CHESNUT SPRING CV\"","zip":"38060","state":"TN","city":"OAKLAND","title":"\"85 CHESNUT SPRING CV\"","rcType":"Loan","icon":"white"},{"position":{"lat":34.581775,"lng":-89.937447},"address":"\"312 COUNTRY CLUB DR\"","zip":"38668","state":"MS","city":"SENATOBIA","title":"\"312 COUNTRY CLUB DR\"","rcType":"Loan","icon":"blue"},{"position":{"lat":35.145575,"lng":-89.610761},"address":"\"LAKEVIEW DR\"","zip":"38017","state":"TN","city":"COLLIERVILLE","title":"\"LAKEVIEW DR\"","rcType":"Loan","icon":"white"},{"position":{"lat":34.900835,"lng":-89.906758},"address":"\"2790 BIRCH ISLAND DR\"","zip":"38651","state":"MS","city":"NESBIT","title":"\"2790 BIRCH ISLAND DR\"","rcType":"Loan","icon":"blue"},{"position":{"lat":34.900825,"lng":-89.82675},"address":"\"2785 PERCY DR\"","zip":"38654","state":"MS","city":"\"OLIVE BRANCH\"","title":"\"2785 PERCY DR\"","rcType":"Loan","icon":"white"},{"position":{"lat":35.121785,"lng":-89.853901},"address":"\"6275 SHADY GROVE RD E\"","zip":"38120","state":"TN","city":"MEMPHIS","title":"\"6275 SHADY GROVE RD E\"","rcType":"Loan","icon":"white"},{"position":{"lat":35.098662,"lng":-89.798336},"address":"\"7936 CLOVERBROOK LN\"","zip":"38138","state":"TN","city":"GERMANTOWN","title":"\"7936 CLOVERBROOK LN\"","rcType":"Loan","icon":"white"},{"position":{"lat":34.955781,"lng":-90.068682},"address":"\"4453 ANDOVER LN\"","zip":"38637","state":"MS","city":"\"HORN LAKE\"","title":"\"4453 ANDOVER LN\"","rcType":"Loan","icon":"white"},{"position":{"lat":34.823959,"lng":-89.997136},"address":"\"446 W COMMERCE ST\"","zip":"38632","state":"MS","city":"HERNANDO","title":"\"446 W COMMERCE ST\"","rcType":"Loan","icon":"blue"},{"position":{"lat":35.278258,"lng":-89.645026},"address":"\"5576 COZY WILLOW WAY\"","zip":"38002","state":"TN","city":"ARLINGTON","title":"\"5576 COZY WILLOW WAY\"","rcType":"Loan","icon":"white"},{"position":{"lat":35.047566,"lng":-89.845356},"address":"\"6536 WHITETAIL LN\"","zip":"38115","state":"TN","city":"MEMPHIS","title":"\"6536 WHITETAIL LN\"","rcType":"Loan","icon":"blue"},{"position":{"lat":35.141704,"lng":-89.775627},"address":"\"8621 HIGH COTTON CV\"","zip":"38018","state":"TN","city":"CORDOVA","title":"\"8621 HIGH COTTON CV\"","rcType":"Loan","icon":"white"},{"position":{"lat":35.063862,"lng":-89.825535},"address":"\"3107 SAINT REGIS CV\"","zip":"38119","state":"TN","city":"MEMPHIS","title":"\"3107 SAINT REGIS CV\"","rcType":"Loan","icon":"white"},{"position":{"lat":34.977259,"lng":-90.025505},"address":"\"7870 CHERRY VALLEY BLVD\"","zip":"38671","state":"MS","city":"SOUTHAVEN","title":"\"7870 CHERRY VALLEY BLVD\"","rcType":"Loan","icon":"blue"},{"position":{"lat":35.013358,"lng":-89.684748},"address":"\"489 ITAWAMBA RD\"","zip":"38017","state":"TN","city":"COLLIERVILLE","title":"\"489 ITAWAMBA RD\"","rcType":"Loan","icon":"white"},{"position":{"lat":34.891148,"lng":-90.095212},"address":"\"2100 FULLER RD\"","zip":"38641","state":"MS","city":"\"LAKE CORMORANT\"","title":"\"2100 FULLER RD\"","rcType":"Loan","icon":"blue"},{"position":{"lat":34.898395,"lng":-90.082195},"address":"\"2489 ANGLERS REST CV\"","zip":"38651","state":"MS","city":"NESBIT","title":"\"2489 ANGLERS REST CV\"","rcType":"Loan","icon":"blue"},{"position":{"lat":34.952206,"lng":-89.816525},"address":"\"9917 CHEROKEE DR\"","zip":"38654","state":"MS","city":"\"OLIVE BRANCH\"","title":"\"9917 CHEROKEE DR\"","rcType":"Loan","icon":"white"},{"position":{"lat":35.111766,"lng":-89.7584},"address":"\"496 WOLF VIEW CV\"","zip":"38018","state":"TN","city":"CORDOVA","title":"\"496 WOLF VIEW CV\"","rcType":"Loan","icon":"white"},{"position":{"lat":35.175422,"lng":-90.052659},"address":"\"128 ISLE CREEK DR\"","zip":"38103","state":"TN","city":"MEMPHIS","title":"\"128 ISLE CREEK DR\"","rcType":"Loan","icon":"white"},{"position":{"lat":34.780775,"lng":-89.808297},"address":"\"5460 HIGHWAY 305 S\"","zip":"38632","state":"MS","city":"HERNANDO","title":"\"5460 HIGHWAY 305 S\"","rcType":"Loan","icon":"white"},{"position":{"lat":34.669163,"lng":-89.853226},"address":"\"2544 POAGVILLE RD\"","zip":"38618","state":"MS","city":"COLDWATER","title":"\"2544 POAGVILLE RD\"","rcType":"Loan","icon":"blue"},{"position":{"lat":35.174561,"lng":-89.677447},"address":"\"1800 N REID HOOKER\"","zip":"38028","state":"TN","city":"EADS","title":"\"1800 N REID HOOKER\"","rcType":"Loan","icon":"blue"},{"position":{"lat":35.229926,"lng":-89.339466},"address":"\"JERNIGAN DR\"","zip":"38068","state":"TN","city":"SOMERVILLE","title":"\"JERNIGAN DR\"","rcType":"Loan","icon":"white"},{"position":{"lat":35.288546,"lng":-89.670194},"address":"\"5948 MARLEY ST\"","zip":"38002","state":"TN","city":"ARLINGTON","title":"\"5948 MARLEY ST\"","rcType":"Loan","icon":"blue"},{"position":{"lat":35.195742,"lng":-89.809182},"address":"\"2576 LAURELCREST DR\"","zip":"38133","state":"TN","city":"MEMPHIS","title":"\"2576 LAURELCREST DR\"","rcType":"Loan","icon":"white"},{"position":{"lat":35.157341,"lng":-89.696737},"address":"\"10981 MACON\"","zip":"38028","state":"TN","city":"EADS","title":"\"10981 MACON\"","rcType":"Loan","icon":"white"},{"position":{"lat":35.004371,"lng":-90.090595},"address":"\"5272 BLUE DIAMOND ST\"","zip":"38109","state":"TN","city":"MEMPHIS","title":"\"5272 BLUE DIAMOND ST\"","rcType":"Loan","icon":"white"},{"position":{"lat":35.068095,"lng":-89.841101},"address":"\"2961 PONDSIDE DR S\"","zip":"38119","state":"TN","city":"MEMPHIS","title":"\"2961 PONDSIDE DR S\"","rcType":"Loan","icon":"white"},{"position":{"lat":35.264778,"lng":-89.67747},"address":"\"5084 WELBOURNE CV\"","zip":"38002","state":"TN","city":"ARLINGTON","title":"\"5084 WELBOURNE CV\"","rcType":"Loan","icon":"blue"},{"position":{"lat":34.968154,"lng":-89.760519},"address":"\"7375 FOX CREEK DR\"","zip":"38654","state":"MS","city":"\"OLIVE BRANCH\"","title":"\"7375 FOX CREEK DR\"","rcType":"Loan","icon":"blue"},{"position":{"lat":35.262814,"lng":-89.852394},"address":"\"6310 PINEY RIVER RD\"","zip":"38135","state":"TN","city":"BARTLETT","title":"\"6310 PINEY RIVER RD\"","rcType":"Loan","icon":"white"},{"position":{"lat":34.953476,"lng":-89.809258},"address":"\"6532 FARLEY DR W\"","zip":"38654","state":"MS","city":"\"OLIVE BRANCH\"","title":"\"6532 FARLEY DR W\"","rcType":"Loan","icon":"blue"},{"position":{"lat":35.227391,"lng":-89.51777},"address":"\"65 MCCAULEY ST\"","zip":"38060","state":"TN","city":"OAKLAND","title":"\"65 MCCAULEY ST\"","rcType":"Loan","icon":"white"},{"position":{"lat":34.953592,"lng":-89.856174},"address":"\"7533 IRON LOOP\"","zip":"38654","state":"MS","city":"\"OLIVE BRANCH\"","title":"\"7533 IRON LOOP\"","rcType":"Loan","icon":"blue"},{"position":{"lat":35.133798,"lng":-89.932856},"address":"\"80 EASTLAND DR\"","zip":"38111","state":"TN","city":"MEMPHIS","title":"\"80 EASTLAND DR\"","rcType":"Loan","icon":"white"},{"position":{"lat":35.430307,"lng":-89.782517},"address":"\"26 JESSIE CV\"","zip":"38004","state":"TN","city":"ATOKA","title":"\"26 JESSIE CV\"","rcType":"Loan","icon":"blue"},{"position":{"lat":34.814657,"lng":-89.98866},"address":"\"3111 LOGANS LOOP\"","zip":"38632","state":"MS","city":"HERNANDO","title":"\"3111 LOGANS LOOP\"","rcType":"Loan","icon":"blue"},{"position":{"lat":34.89524,"lng":-89.835167},"address":"\"8745 THOMAS LN\"","zip":"38654","state":"MS","city":"\"OLIVE BRANCH\"","title":"\"8745 THOMAS LN\"","rcType":"Loan","icon":"white"},{"position":{"lat":34.808899,"lng":-89.959034},"address":"\"1724 EDGEWOOD BLVD\"","zip":"38632","state":"MS","city":"HERNANDO","title":"\"1724 EDGEWOOD BLVD\"","rcType":"Loan","icon":"white"},{"position":{"lat":35.473797,"lng":-89.701496},"address":"\"112 WINDWARD PL\"","zip":"38011","state":"TN","city":"BRIGHTON","title":"\"112 WINDWARD PL\"","rcType":"Loan","icon":"white"},{"position":{"lat":35.079359,"lng":-90.01294},"address":"\"1501 WHITMORE RD\"","zip":"38106","state":"TN","city":"MEMPHIS","title":"\"1501 WHITMORE RD\"","rcType":"Loan","icon":"white"},{"position":{"lat":35.325803,"lng":-89.7529},"address":"\"9270 OSBORN RD\"","zip":"38002","state":"TN","city":"ARLINGTON","title":"\"9270 OSBORN RD\"","rcType":"Loan","icon":"white"},{"position":{"lat":35.026411,"lng":-90.000464},"address":"\"4483 TAMMY LN\"","zip":"38116","state":"TN","city":"MEMPHIS","title":"\"4483 TAMMY LN\"","rcType":"Loan","icon":"blue"},{"position":{"lat":35.164372,"lng":-89.877381},"address":"\"1414 BARTLETT RD\"","zip":"38134","state":"TN","city":"MEMPHIS","title":"\"1414 BARTLETT RD\"","rcType":"Loan","icon":"white"},{"position":{"lat":35.476917,"lng":-89.72022},"address":"\"102 KELLY CV\"","zip":"38011","state":"TN","city":"BRIGHTON","title":"\"102 KELLY CV\"","rcType":"Loan","icon":"blue"},{"position":{"lat":35.225582,"lng":-89.506628},"address":"\"65 MOSSY SPRINGS CV\"","zip":"38060","state":"TN","city":"OAKLAND","title":"\"65 MOSSY SPRINGS CV\"","rcType":"Loan","icon":"blue"},{"position":{"lat":35.297641,"lng":-89.645905},"address":"\"6281 DAWSON CREEK LN\"","zip":"38002","state":"TN","city":"ARLINGTON","title":"\"6281 DAWSON CREEK LN\"","rcType":"Loan","icon":"blue"},{"position":{"lat":35.503586,"lng":-89.834679},"address":"\"5371 MUNFORD GILTEDGE RD\"","zip":"38011","state":"TN","city":"BRIGHTON","title":"\"5371 MUNFORD GILTEDGE RD\"","rcType":"Loan","icon":"white"},{"position":{"lat":35.25409,"lng":-89.518649},"address":"\"705 BLACKANKLE DR\"","zip":"38060","state":"TN","city":"OAKLAND","title":"\"705 BLACKANKLE DR\"","rcType":"Loan","icon":"blue"},{"position":{"lat":35.542228,"lng":-89.671594},"address":"\"193 HOLLY GROVE RD\"","zip":"38019","state":"TN","city":"COVINGTON","title":"\"193 HOLLY GROVE RD\"","rcType":"Loan","icon":"blue"},{"position":{"lat":35.272445,"lng":-89.49455},"address":"\"FEATHERS CHAPEL DR\"","zip":"38068","state":"TN","city":"SOMERVILLE","title":"\"FEATHERS CHAPEL DR\"","rcType":"Loan","icon":"blue"},{"position":{"lat":35.166114,"lng":-89.812691},"address":"\"1490 CIDER HOUSE LN\"","zip":"38016","state":"TN","city":"CORDOVA","title":"\"1490 CIDER HOUSE LN\"","rcType":"Loan","icon":"white"},{"position":{"lat":35.035716,"lng":-89.710276},"address":"\"1137 OAK TIMBER CIR\"","zip":"38017","state":"TN","city":"COLLIERVILLE","title":"\"1137 OAK TIMBER CIR\"","rcType":"Loan","icon":"blue"},{"position":{"lat":34.75315,"lng":-89.762265},"address":"\"204 CLOVER CV\"","zip":"38618","state":"MS","city":"COLDWATER","title":"\"204 CLOVER CV\"","rcType":"Loan","icon":"white"},{"position":{"lat":35.23976,"lng":-89.352254},"address":"\"412 S SOMERVILLE ST\"","zip":"38068","state":"TN","city":"SOMERVILLE","title":"\"412 S SOMERVILLE ST\"","rcType":"Loan","icon":"white"},{"position":{"lat":34.61368,"lng":-89.735261},"address":"\"4150 STEWARD RD\"","zip":"38668","state":"MS","city":"SENATOBIA","title":"\"4150 STEWARD RD\"","rcType":"Loan","icon":"white"},{"position":{"lat":35.277791,"lng":-89.662992},"address":"\"5558 HAYES CREST CIR W\"","zip":"38002","state":"TN","city":"ARLINGTON","title":"\"5558 HAYES CREST CIR W\"","rcType":"Loan","icon":"white"},{"position":{"lat":35.118905,"lng":-89.887394},"address":"\"444 S WHITE STATION RD\"","zip":"38117","state":"TN","city":"MEMPHIS","title":"\"444 S WHITE STATION RD\"","rcType":"Loan","icon":"white"},{"position":{"lat":35.265414,"lng":-89.845439},"address":"\"6540 RANER CREEK DR\"","zip":"38002","state":"TN","city":"BARTLETT","title":"\"6540 RANER CREEK DR\"","rcType":"Loan","icon":"white"},{"position":{"lat":35.095545,"lng":-89.365061},"address":"\"475 SIDES DR\"","zip":"38057","state":"TN","city":"MOSCOW","title":"\"475 SIDES DR\"","rcType":"Loan","icon":"white"},{"position":{"lat":34.922207,"lng":-89.83999},"address":"\"4245 MITCHELL PL\"","zip":"38654","state":"MS","city":"\"OLIVE BRANCH\"","title":"\"4245 MITCHELL PL\"","rcType":"Loan","icon":"white"},{"position":{"lat":35.237572,"lng":-89.623852},"address":"\"70 TALFORD CV\"","zip":"38028","state":"TN","city":"EADS","title":"\"70 TALFORD CV\"","rcType":"Loan","icon":"blue"},{"position":{"lat":34.998204,"lng":-89.82004},"address":"\"5501 PATSY CIR W\"","zip":"38125","state":"TN","city":"MEMPHIS","title":"\"5501 PATSY CIR W\"","rcType":"Loan","icon":"white"},{"position":{"lat":35.037099,"lng":-89.819385},"address":"\"7324 BARNSTABLE RD\"","zip":"38125","state":"TN","city":"MEMPHIS","title":"\"7324 BARNSTABLE RD\"","rcType":"Loan","icon":"blue"},{"position":{"lat":35.256186,"lng":-89.516445},"address":"\"185 SNOWBELL CV\"","zip":"38060","state":"TN","city":"OAKLAND","title":"\"185 SNOWBELL CV\"","rcType":"Loan","icon":"blue"},{"position":{"lat":34.900617,"lng":-89.912423},"address":"\"2771 BEAVER HEAD DR\"","zip":"38651","state":"MS","city":"NESBIT","title":"\"2771 BEAVER HEAD DR\"","rcType":"Loan","icon":"blue"},{"position":{"lat":34.85779,"lng":-89.739382},"address":"\"190 BYHALIA CREEK FARMS RD W\"","zip":"38611","state":"MS","city":"BYHALIA","title":"\"190 BYHALIA CREEK FARMS RD W\"","rcType":"Loan","icon":"white"},{"position":{"lat":34.988894,"lng":-89.831529},"address":"\"8855 GERMANTOWN RD\"","zip":"38654","state":"MS","city":"\"OLIVE BRANCH\"","title":"\"8855 GERMANTOWN RD\"","rcType":"Loan","icon":"white"},{"position":{"lat":34.851113,"lng":-89.926344},"address":"\"885 STEELE RD\"","zip":"38632","state":"MS","city":"HERNANDO","title":"\"885 STEELE RD\"","rcType":"Loan","icon":"blue"},{"position":{"lat":35.024417,"lng":-89.823518},"address":"\"4543 PORT ROYAL CV\"","zip":"38125","state":"TN","city":"MEMPHIS","title":"\"4543 PORT ROYAL CV\"","rcType":"Loan","icon":"blue"},{"position":{"lat":35.261255,"lng":-89.650059},"address":"\"4948 BENDING CREEK CV\"","zip":"38002","state":"TN","city":"ARLINGTON","title":"\"4948 BENDING CREEK CV\"","rcType":"Loan","icon":"white"},{"position":{"lat":35.179252,"lng":-89.51611},"address":"\"620 CHARLOTTE DR\"","zip":"38060","state":"TN","city":"OAKLAND","title":"\"620 CHARLOTTE DR\"","rcType":"Loan","icon":"blue"},{"position":{"lat":35.153539,"lng":-89.918118},"address":"\"810 ESTRIDGE DR\"","zip":"38122","state":"TN","city":"MEMPHIS","title":"\"810 ESTRIDGE DR\"","rcType":"Loan","icon":"white"},{"position":{"lat":35.288275,"lng":-89.636796},"address":"\"5935 WINDSOR FALLS LOOP\"","zip":"38002","state":"TN","city":"ARLINGTON","title":"\"5935 WINDSOR FALLS LOOP\"","rcType":"Loan","icon":"blue"},{"position":{"lat":35.167787,"lng":-89.349996},"address":"\"1445 EBENEZER LOOP\"","zip":"38068","state":"TN","city":"SOMERVILLE","title":"\"1445 EBENEZER LOOP\"","rcType":"Loan","icon":"white"},{"position":{"lat":35.131374,"lng":-90.017679},"address":"\"1323 CARR AVE\"","zip":"38104","state":"TN","city":"MEMPHIS","title":"\"1323 CARR AVE\"","rcType":"Loan","icon":"white"},{"position":{"lat":35.557256,"lng":-89.643183},"address":"\"707 S TIPTON ST\"","zip":"38019","state":"TN","city":"COVINGTON","title":"\"707 S TIPTON ST\"","rcType":"Loan","icon":"white"},{"position":{"lat":35.110958,"lng":-89.93212},"address":"\"744 BUCK ST\"","zip":"38111","state":"TN","city":"MEMPHIS","title":"\"744 BUCK ST\"","rcType":"Loan","icon":"white"},{"position":{"lat":34.975322,"lng":-89.963154},"address":"\"7873 PARK VALLEY DR\"","zip":"38671","state":"MS","city":"SOUTHAVEN","title":"\"7873 PARK VALLEY DR\"","rcType":"Loan","icon":"white"},{"position":{"lat":35.143398,"lng":-89.349051},"address":"\"3565 EBENEZER LOOP\"","zip":"38068","state":"TN","city":"SOMERVILLE","title":"\"3565 EBENEZER LOOP\"","rcType":"Loan","icon":"blue"},{"position":{"lat":35.242446,"lng":-89.527426},"address":"\"560 OAKRIDGE DR\"","zip":"38060","state":"TN","city":"OAKLAND","title":"\"560 OAKRIDGE DR\"","rcType":"Loan","icon":"white"},{"position":{"lat":35.102933,"lng":-89.8014},"address":"\"1684 EXETER RD\"","zip":"38138","state":"TN","city":"GERMANTOWN","title":"\"1684 EXETER RD\"","rcType":"Loan","icon":"blue"},{"position":{"lat":35.378953,"lng":-89.95883},"address":"\"3116 BASS RD\"","zip":"38053","state":"TN","city":"MILLINGTON","title":"\"3116 BASS RD\"","rcType":"Loan","icon":"blue"},{"position":{"lat":35.016576,"lng":-89.681489},"address":"\"1083 OLD HEARTHSTONE CIR E\"","zip":"38017","state":"TN","city":"COLLIERVILLE","title":"\"1083 OLD HEARTHSTONE CIR E\"","rcType":"Loan","icon":"blue"},{"position":{"lat":34.686735,"lng":-89.970237},"address":"\"636 WOODS ST\"","zip":"38618","state":"MS","city":"COLDWATER","title":"\"636 WOODS ST\"","rcType":"Loan","icon":"white"},{"position":{"lat":34.928515,"lng":-89.75999},"address":"\"12930 MEADOW VIEW DR\"","zip":"38654","state":"MS","city":"\"OLIVE BRANCH\"","title":"\"12930 MEADOW VIEW DR\"","rcType":"Loan","icon":"blue"},{"position":{"lat":34.96025,"lng":-89.814841},"address":"\"6868 MAURY DR\"","zip":"38654","state":"MS","city":"\"OLIVE BRANCH\"","title":"\"6868 MAURY DR\"","rcType":"Loan","icon":"blue"},{"position":{"lat":35.54078,"lng":-89.71046},"address":"\"755 DEEN RD\"","zip":"38011","state":"TN","city":"BRIGHTON","title":"\"755 DEEN RD\"","rcType":"Loan","icon":"blue"},{"position":{"lat":35.022342,"lng":-89.855858},"address":"\"6223 BERRYPICK LN\"","zip":"38141","state":"TN","city":"MEMPHIS","title":"\"6223 BERRYPICK LN\"","rcType":"Loan","icon":"white"},{"position":{"lat":34.579067,"lng":-89.941638},"address":"\"195 COUNTRY CLUB LN\"","zip":"38668","state":"MS","city":"SENATOBIA","title":"\"195 COUNTRY CLUB LN\"","rcType":"Loan","icon":"white"},{"position":{"lat":34.947106,"lng":-90.054161},"address":"\"3641 NAIL RD W\"","zip":"38637","state":"MS","city":"\"HORN LAKE\"","title":"\"3641 NAIL RD W\"","rcType":"Loan","icon":"blue"},{"position":{"lat":35.115558,"lng":-89.570029},"address":"\"3620 JENKINS DR\"","zip":"38066","state":"TN","city":"ROSSVILLE","title":"\"3620 JENKINS DR\"","rcType":"Loan","icon":"blue"},{"position":{"lat":35.596447,"lng":-89.635454},"address":"\"317 SUNSET AVE\"","zip":"38019","state":"TN","city":"COVINGTON","title":"\"317 SUNSET AVE\"","rcType":"Loan","icon":"white"},{"position":{"lat":34.676522,"lng":-90.034722},"address":"\"116 CHERRYDALE LOOP\"","zip":"38618","state":"MS","city":"COLDWATER","title":"\"116 CHERRYDALE LOOP\"","rcType":"Loan","icon":"white"},{"position":{"lat":34.921326,"lng":-89.976},"address":"\"4117 SWINNEA RD\"","zip":"38672","state":"MS","city":"SOUTHAVEN","title":"\"4117 SWINNEA RD\"","rcType":"Loan","icon":"white"},{"position":{"lat":35.252472,"lng":-89.930598},"address":"\"3990 LINDA SUE CV\"","zip":"38128","state":"TN","city":"MEMPHIS","title":"\"3990 LINDA SUE CV\"","rcType":"Loan","icon":"white"},{"position":{"lat":34.835111,"lng":-89.859259},"address":"\"7373 E CRAFT RD\"","zip":"38632","state":"MS","city":"HERNANDO","title":"\"7373 E CRAFT RD\"","rcType":"Loan","icon":"white"},{"position":{"lat":34.968381,"lng":-89.904449},"address":"\"4878 N TERRACE STONE DR\"","zip":"38654","state":"MS","city":"\"OLIVE BRANCH\"","title":"\"4878 N TERRACE STONE DR\"","rcType":"Loan","icon":"blue"},{"position":{"lat":34.783,"lng":-89.951284},"address":"\"5322 GRAYS VALLEY DR\"","zip":"38632","state":"MS","city":"HERNANDO","title":"\"5322 GRAYS VALLEY DR\"","rcType":"Loan","icon":"white"},{"position":{"lat":34.883901,"lng":-89.866339},"address":"\"1603 CRAFT RD\"","zip":"38654","state":"MS","city":"\"OLIVE BRANCH\"","title":"\"1603 CRAFT RD\"","rcType":"Loan","icon":"blue"},{"position":{"lat":35.556677,"lng":-89.653157},"address":"\"515 TERRACE DR\"","zip":"38019","state":"TN","city":"COVINGTON","title":"\"515 TERRACE DR\"","rcType":"Loan","icon":"white"},{"position":{"lat":34.837238,"lng":-89.983783},"address":"\"1575 MOUNT PLEASANT RD\"","zip":"38632","state":"MS","city":"HERNANDO","title":"\"1575 MOUNT PLEASANT RD\"","rcType":"Loan","icon":"blue"},{"position":{"lat":35.150857,"lng":-90.000715},"address":"\"1760 GALLOWAY AVE\"","zip":"38112","state":"TN","city":"MEMPHIS","title":"\"1760 GALLOWAY AVE\"","rcType":"Loan","icon":"blue"},{"position":{"lat":34.959121,"lng":-89.758255},"address":"\"13080 SANDBOURNE CROSS\"","zip":"38654","state":"MS","city":"\"OLIVE BRANCH\"","title":"\"13080 SANDBOURNE CROSS\"","rcType":"Loan","icon":"blue"},{"position":{"lat":35.019626,"lng":-89.810391},"address":"\"7522 RINCON CV\"","zip":"38125","state":"TN","city":"MEMPHIS","title":"\"7522 RINCON CV\"","rcType":"Loan","icon":"white"},{"position":{"lat":35.135087,"lng":-90.059088},"address":"\"421 S MAIN ST\"","zip":"38103","state":"TN","city":"MEMPHIS","title":"\"421 S MAIN ST\"","rcType":"Loan","icon":"white"},{"position":{"lat":35.42465,"lng":-89.700413},"address":"\"132 MCQUISTON RD\"","zip":"38011","state":"TN","city":"BRIGHTON","title":"\"132 MCQUISTON RD\"","rcType":"Loan","icon":"blue"},{"position":{"lat":35.109837,"lng":-90.038459},"address":"\"721 ROANOKE AVE\"","zip":"38106","state":"TN","city":"MEMPHIS","title":"\"721 ROANOKE AVE\"","rcType":"Loan","icon":"white"},{"position":{"lat":34.833833,"lng":-89.956868},"address":"\"1867 TRAPPER DR\"","zip":"38632","state":"MS","city":"HERNANDO","title":"\"1867 TRAPPER DR\"","rcType":"Loan","icon":"blue"},{"position":{"lat":34.943575,"lng":-89.984834},"address":"\"275 RIVER BIRCH TRAIL DR\"","zip":"38671","state":"MS","city":"SOUTHAVEN","title":"\"275 RIVER BIRCH TRAIL DR\"","rcType":"Loan","icon":"white"},{"position":{"lat":35.204416,"lng":-89.870562},"address":"\"5782 STAGE RD\"","zip":"38134","state":"TN","city":"BARTLETT","title":"\"5782 STAGE RD\"","rcType":"Loan","icon":"white"},{"position":{"lat":35.161981,"lng":-90.045009},"address":"\"649 N 2ND ST\"","zip":"38107","state":"TN","city":"MEMPHIS","title":"\"649 N 2ND ST\"","rcType":"Loan","icon":"white"},{"position":{"lat":35.171889,"lng":-89.977311},"address":"\"2395 NORMAN AVE\"","zip":"38108","state":"TN","city":"MEMPHIS","title":"\"2395 NORMAN AVE\"","rcType":"Loan","icon":"blue"},{"position":{"lat":35.423444,"lng":-89.692593},"address":"\"1515 NELSON DR\"","zip":"38011","state":"TN","city":"BRIGHTON","title":"\"1515 NELSON DR\"","rcType":"Loan","icon":"blue"},{"position":{"lat":35.150673,"lng":-90.009815},"address":"\"449 STONEWALL ST\"","zip":"38112","state":"TN","city":"MEMPHIS","title":"\"449 STONEWALL ST\"","rcType":"Loan","icon":"white"},{"position":{"lat":35.107529,"lng":-89.829903},"address":"\"7000 WESTMINSTER LN\"","zip":"38138","state":"TN","city":"GERMANTOWN","title":"\"7000 WESTMINSTER LN\"","rcType":"Loan","icon":"white"},{"position":{"lat":35.115023,"lng":-90.047359},"address":"\"1181 S WELLINGTON ST\"","zip":"38106","state":"TN","city":"MEMPHIS","title":"\"1181 S WELLINGTON ST\"","rcType":"Loan","icon":"blue"},{"position":{"lat":34.9701,"lng":-90.086718},"address":"\"5465 HOLLY RIDGE DR\"","zip":"38637","state":"MS","city":"\"HORN LAKE\"","title":"\"5465 HOLLY RIDGE DR\"","rcType":"Loan","icon":"blue"},{"position":{"lat":34.623982,"lng":-90.003187},"address":"\"304 STAGE RD\"","zip":"38668","state":"MS","city":"SENATOBIA","title":"\"304 STAGE RD\"","rcType":"Loan","icon":"white"},{"position":{"lat":34.830801,"lng":-89.984946},"address":"\"2010 MOUNT PLEASANT RD\"","zip":"38632","state":"MS","city":"HERNANDO","title":"\"2010 MOUNT PLEASANT RD\"","rcType":"Loan","icon":"white"},{"position":{"lat":35.019964,"lng":-89.618741},"address":"\"1595 HIGHWAY 196 S\"","zip":"38017","state":"TN","city":"PIPERTON","title":"\"1595 HIGHWAY 196 S\"","rcType":"Loan","icon":"white"},{"position":{"lat":34.824961,"lng":-89.989846},"address":"\"17 W VALLEY ST\"","zip":"38632","state":"MS","city":"HERNANDO","title":"\"17 W VALLEY ST\"","rcType":"Loan","icon":"white"},{"position":{"lat":35.042269,"lng":-90.015021},"address":"\"3901 GRACELAND DR\"","zip":"38116","state":"TN","city":"MEMPHIS","title":"\"3901 GRACELAND DR\"","rcType":"Loan","icon":"white"},{"position":{"lat":35.125184,"lng":-90.042559},"address":"\"799 MISSISSIPPI BLVD\"","zip":"38126","state":"TN","city":"MEMPHIS","title":"\"799 MISSISSIPPI BLVD\"","rcType":"Loan","icon":"white"},{"position":{"lat":35.170516,"lng":-89.755364},"address":"\"1658 GRANGEWOOD CV\"","zip":"38016","state":"TN","city":"CORDOVA","title":"\"1658 GRANGEWOOD CV\"","rcType":"Loan","icon":"white"},{"position":{"lat":35.349059,"lng":-89.954784},"address":"\"8165 SHAKERAG RD\"","zip":"38053","state":"TN","city":"MILLINGTON","title":"\"8165 SHAKERAG RD\"","rcType":"Loan","icon":"white"},{"position":{"lat":34.927264,"lng":-89.849631},"address":"\"7900 JONES CV\"","zip":"38654","state":"MS","city":"\"OLIVE BRANCH\"","title":"\"7900 JONES CV\"","rcType":"Loan","icon":"blue"},{"position":{"lat":34.979052,"lng":-90.024127},"address":"\"8135 WHITEHEAD DR\"","zip":"38671","state":"MS","city":"SOUTHAVEN","title":"\"8135 WHITEHEAD DR\"","rcType":"Loan","icon":"white"},{"position":{"lat":34.976295,"lng":-89.959133},"address":"\"1735 CENTRAL TRAILS DR\"","zip":"38671","state":"MS","city":"SOUTHAVEN","title":"\"1735 CENTRAL TRAILS DR\"","rcType":"Loan","icon":"blue"},{"position":{"lat":34.979912,"lng":-89.924459},"address":"\"8200 SUMMERWOOD CIR\"","zip":"38654","state":"MS","city":"\"OLIVE BRANCH\"","title":"\"8200 SUMMERWOOD CIR\"","rcType":"Loan","icon":"blue"},{"position":{"lat":34.895427,"lng":-89.72877},"address":"\"2310 PIGEON ROOST RD\"","zip":"38611","state":"MS","city":"BYHALIA","title":"\"2310 PIGEON ROOST RD\"","rcType":"Loan","icon":"white"},{"position":{"lat":34.843256,"lng":-89.996156},"address":"\"369 BEACON HILL DR\"","zip":"38632","state":"MS","city":"HERNANDO","title":"\"369 BEACON HILL DR\"","rcType":"Loan","icon":"blue"},{"position":{"lat":35.472365,"lng":-89.601014},"address":"\"635 ROBERTSON RD\"","zip":"38049","state":"TN","city":"MASON","title":"\"635 ROBERTSON RD\"","rcType":"Loan","icon":"blue"},{"position":{"lat":35.562231,"lng":-89.767839},"address":"\"6958 HIGHWAY 59 W\"","zip":"38015","state":"TN","city":"BURLISON","title":"\"6958 HIGHWAY 59 W\"","rcType":"Loan","icon":"blue"},{"position":{"lat":35.106631,"lng":-90.047666},"address":"\"1486 SHADOWLAWN BLVD\"","zip":"38106","state":"TN","city":"MEMPHIS","title":"\"1486 SHADOWLAWN BLVD\"","rcType":"Loan","icon":"white"},{"position":{"lat":34.942996,"lng":-89.820743},"address":"\"5714 SPARROW RUN\"","zip":"38654","state":"MS","city":"\"OLIVE BRANCH\"","title":"\"5714 SPARROW RUN\"","rcType":"Loan","icon":"blue"},{"position":{"lat":35.530869,"lng":-89.689997},"address":"\"127 DAWN LN\"","zip":"38011","state":"TN","city":"BRIGHTON","title":"\"127 DAWN LN\"","rcType":"Loan","icon":"blue"},{"position":{"lat":34.865445,"lng":-89.924828},"address":"\"290 DOUGLAS RD\"","zip":"38632","state":"MS","city":"HERNANDO","title":"\"290 DOUGLAS RD\"","rcType":"Loan","icon":"white"},{"position":{"lat":35.02238,"lng":-89.804491},"address":"\"7757 DRISCOLL ST\"","zip":"38125","state":"TN","city":"MEMPHIS","title":"\"7757 DRISCOLL ST\"","rcType":"Loan","icon":"white"},{"position":{"lat":34.812405,"lng":-89.925004},"address":"\"3288 MCKENNA WAY\"","zip":"38632","state":"MS","city":"HERNANDO","title":"\"3288 MCKENNA WAY\"","rcType":"Loan","icon":"blue"},{"position":{"lat":34.960808,"lng":-89.962592},"address":"\"1535 SHERWOOD LN\"","zip":"38671","state":"MS","city":"SOUTHAVEN","title":"\"1535 SHERWOOD LN\"","rcType":"Loan","icon":"blue"},{"position":{"lat":35.058336,"lng":-89.67341},"address":"\"685 FORESTDALE DR\"","zip":"38017","state":"TN","city":"COLLIERVILLE","title":"\"685 FORESTDALE DR\"","rcType":"Loan","icon":"white"},{"position":{"lat":34.841045,"lng":-89.998141},"address":"\"523 HOWELL WAY\"","zip":"38632","state":"MS","city":"HERNANDO","title":"\"523 HOWELL WAY\"","rcType":"Loan","icon":"blue"},{"position":{"lat":35.166588,"lng":-89.71757},"address":"\"1513 HAMILTON HILL DR\"","zip":"38016","state":"TN","city":"CORDOVA","title":"\"1513 HAMILTON HILL DR\"","rcType":"Loan","icon":"blue"},{"position":{"lat":34.92649,"lng":-89.831097},"address":"\"8947 BELL RIDGE DR\"","zip":"38654","state":"MS","city":"\"OLIVE BRANCH\"","title":"\"8947 BELL RIDGE DR\"","rcType":"Loan","icon":"white"},{"position":{"lat":34.974124,"lng":-89.949681},"address":"\"2228 PLUM POINT CV S\"","zip":"38672","state":"MS","city":"SOUTHAVEN","title":"\"2228 PLUM POINT CV S\"","rcType":"Loan","icon":"blue"},{"position":{"lat":34.797003,"lng":-90.028365},"address":"\"4185 GREEN HILL DR\"","zip":"38632","state":"MS","city":"HERNANDO","title":"\"4185 GREEN HILL DR\"","rcType":"Loan","icon":"blue"},{"position":{"lat":34.603795,"lng":-89.858049},"address":"\"604 SILVER HILLS DR\"","zip":"38668","state":"MS","city":"SENATOBIA","title":"\"604 SILVER HILLS DR\"","rcType":"Loan","icon":"white"},{"position":{"lat":35.290427,"lng":-89.475866},"address":"\"1505 SPRINGER RD\"","zip":"38068","state":"TN","city":"SOMERVILLE","title":"\"1505 SPRINGER RD\"","rcType":"Loan","icon":"white"},{"position":{"lat":35.209525,"lng":-89.826836},"address":"\"3076 AMBER REBECCA CV\"","zip":"38133","state":"TN","city":"BARTLETT","title":"\"3076 AMBER REBECCA CV\"","rcType":"Loan","icon":"blue"},{"position":{"lat":35.040811,"lng":-89.841441},"address":"\"6651 BIRCH RUN LN\"","zip":"38115","state":"TN","city":"MEMPHIS","title":"\"6651 BIRCH RUN LN\"","rcType":"Loan","icon":"white"},{"position":{"lat":35.247364,"lng":-89.902208},"address":"\"4461 WALDEN GLEN CV\"","zip":"38128","state":"TN","city":"MEMPHIS","title":"\"4461 WALDEN GLEN CV\"","rcType":"Loan","icon":"white"},{"position":{"lat":35.17968,"lng":-89.77006},"address":"\"1979 HAMBURG CV\"","zip":"38016","state":"TN","city":"CORDOVA","title":"\"1979 HAMBURG CV\"","rcType":"Loan","icon":"blue"},{"position":{"lat":34.957285,"lng":-89.905431},"address":"\"4832 WEDGEWOOD DR\"","zip":"38654","state":"MS","city":"\"OLIVE BRANCH\"","title":"\"4832 WEDGEWOOD DR\"","rcType":"Loan","icon":"blue"},{"position":{"lat":35.03691,"lng":-90.030107},"address":"\"1022 S WHITEHAVEN PARK CIR\"","zip":"38116","state":"TN","city":"MEMPHIS","title":"\"1022 S WHITEHAVEN PARK CIR\"","rcType":"Loan","icon":"white"},{"position":{"lat":35.227161,"lng":-90.029935},"address":"\"1016 CRESTON AVE\"","zip":"38127","state":"TN","city":"MEMPHIS","title":"\"1016 CRESTON AVE\"","rcType":"Loan","icon":"white"},{"position":{"lat":34.981064,"lng":-89.963113},"address":"\"8275 GRAYCE DR\"","zip":"38671","state":"MS","city":"SOUTHAVEN","title":"\"8275 GRAYCE DR\"","rcType":"Loan","icon":"blue"},{"position":{"lat":35.542984,"lng":-89.824356},"address":"\"8555 MUNFORD GILTEDGE RD\"","zip":"38015","state":"TN","city":"BURLISON","title":"\"8555 MUNFORD GILTEDGE RD\"","rcType":"Loan","icon":"blue"},{"position":{"lat":34.962005,"lng":-89.801832},"address":"\"10590 LOBLOLLY ST\"","zip":"38654","state":"MS","city":"\"OLIVE BRANCH\"","title":"\"10590 LOBLOLLY ST\"","rcType":"Loan","icon":"blue"},{"position":{"lat":34.806941,"lng":-90.016005},"address":"\"1531 CLAIR CIR S\"","zip":"38632","state":"MS","city":"HERNANDO","title":"\"1531 CLAIR CIR S\"","rcType":"Loan","icon":"white"},{"position":{"lat":34.990349,"lng":-90.016746},"address":"\"8897 WHITWORTH ST\"","zip":"38671","state":"MS","city":"SOUTHAVEN","title":"\"8897 WHITWORTH ST\"","rcType":"Loan","icon":"blue"},{"position":{"lat":35.242738,"lng":-89.624387},"address":"\"585 ASTON CROSS DR\"","zip":"38028","state":"TN","city":"EADS","title":"\"585 ASTON CROSS DR\"","rcType":"Loan","icon":"white"},{"position":{"lat":35.244004,"lng":-89.525627},"address":"\"225 COLE CREEK CV\"","zip":"38060","state":"TN","city":"OAKLAND","title":"\"225 COLE CREEK CV\"","rcType":"Loan","icon":"white"},{"position":{"lat":35.129998,"lng":-90.000101},"address":"\"1849 VINTON AVE\"","zip":"38104","state":"TN","city":"MEMPHIS","title":"\"1849 VINTON AVE\"","rcType":"Loan","icon":"white"},{"position":{"lat":34.81072,"lng":-89.998706},"address":"\"549 OLD GIN PL\"","zip":"38632","state":"MS","city":"HERNANDO","title":"\"549 OLD GIN PL\"","rcType":"Loan","icon":"blue"},{"position":{"lat":34.951149,"lng":-89.868678},"address":"\"6759 MOONDANCE DR\"","zip":"38654","state":"MS","city":"\"OLIVE BRANCH\"","title":"\"6759 MOONDANCE DR\"","rcType":"Loan","icon":"blue"},{"position":{"lat":34.929557,"lng":-89.931788},"address":"\"4745 BRIARTON DR\"","zip":"38672","state":"MS","city":"SOUTHAVEN","title":"\"4745 BRIARTON DR\"","rcType":"Loan","icon":"blue"},{"position":{"lat":35.291991,"lng":-89.6549},"address":"\"6075 EWING BLVD\"","zip":"38002","state":"TN","city":"ARLINGTON","title":"\"6075 EWING BLVD\"","rcType":"Loan","icon":"blue"},{"position":{"lat":35.248427,"lng":-89.52852},"address":"\"40 JOSEPH CT\"","zip":"38060","state":"TN","city":"OAKLAND","title":"\"40 JOSEPH CT\"","rcType":"Loan","icon":"white"},{"position":{"lat":34.992548,"lng":-89.849677},"address":"\"7947 HUNTERS VIEW DR\"","zip":"38654","state":"MS","city":"\"OLIVE BRANCH\"","title":"\"7947 HUNTERS VIEW DR\"","rcType":"Loan","icon":"blue"},{"position":{"lat":34.815712,"lng":-89.927247},"address":"\"3071 FOSSIL HILL DR\"","zip":"38632","state":"MS","city":"HERNANDO","title":"\"3071 FOSSIL HILL DR\"","rcType":"Loan","icon":"blue"},{"position":{"lat":35.097095,"lng":-89.955197},"address":"\"3225 STANDARD DR\"","zip":"38111","state":"TN","city":"MEMPHIS","title":"\"3225 STANDARD DR\"","rcType":"Loan","icon":"white"},{"position":{"lat":35.104666,"lng":-89.791775},"address":"\"8128 MISTYWOOD LN\"","zip":"38138","state":"TN","city":"GERMANTOWN","title":"\"8128 MISTYWOOD LN\"","rcType":"Loan","icon":"blue"},{"position":{"lat":35.296834,"lng":-89.66021},"address":"\"12062 FORREST ST\"","zip":"38002","state":"TN","city":"ARLINGTON","title":"\"12062 FORREST ST\"","rcType":"Loan","icon":"white"},{"position":{"lat":34.798349,"lng":-89.988182},"address":"\"62 VINSON RD\"","zip":"38632","state":"MS","city":"HERNANDO","title":"\"62 VINSON RD\"","rcType":"Loan","icon":"white"},{"position":{"lat":35.268598,"lng":-89.71332},"address":"\"5235 SAFFRON SPRING DR\"","zip":"38002","state":"TN","city":"LAKELAND","title":"\"5235 SAFFRON SPRING DR\"","rcType":"Loan","icon":"blue"},{"position":{"lat":35.054622,"lng":-89.648185},"address":"\"650 FLETCHER RD\"","zip":"38017","state":"TN","city":"COLLIERVILLE","title":"\"650 FLETCHER RD\"","rcType":"Loan","icon":"blue"},{"position":{"lat":34.97655,"lng":-89.890352},"address":"\"5592 DREW GLAZER DR\"","zip":"38654","state":"MS","city":"\"OLIVE BRANCH\"","title":"\"5592 DREW GLAZER DR\"","rcType":"Loan","icon":"blue"},{"position":{"lat":34.960003,"lng":-89.802753},"address":"\"6670 IRONWOOD DR\"","zip":"38654","state":"MS","city":"\"OLIVE BRANCH\"","title":"\"6670 IRONWOOD DR\"","rcType":"Loan","icon":"white"},{"position":{"lat":35.082902,"lng":-89.827555},"address":"\"7066 ALLELON CIR N\"","zip":"38138","state":"TN","city":"GERMANTOWN","title":"\"7066 ALLELON CIR N\"","rcType":"Loan","icon":"blue"},{"position":{"lat":35.537938,"lng":-89.738204},"address":"\"2077 MCWILLIAMS RD\"","zip":"38019","state":"TN","city":"COVINGTON","title":"\"2077 MCWILLIAMS RD\"","rcType":"Loan","icon":"white"},{"position":{"lat":35.259201,"lng":-89.711178},"address":"\"10538 RILEY RIVER RD\"","zip":"38002","state":"TN","city":"LAKELAND","title":"\"10538 RILEY RIVER RD\"","rcType":"Loan","icon":"blue"},{"position":{"lat":35.122635,"lng":-89.773652},"address":"\"8668 RHONDA CIR S\"","zip":"38018","state":"TN","city":"CORDOVA","title":"\"8668 RHONDA CIR S\"","rcType":"Loan","icon":"white"},{"position":{"lat":34.92906,"lng":-89.911978},"address":"\"4318 PILAND PARK CV\"","zip":"38654","state":"MS","city":"\"OLIVE BRANCH\"","title":"\"4318 PILAND PARK CV\"","rcType":"Loan","icon":"white"},{"position":{"lat":35.061532,"lng":-89.690324},"address":"\"806 MEADOW RIDGE DR\"","zip":"38017","state":"TN","city":"COLLIERVILLE","title":"\"806 MEADOW RIDGE DR\"","rcType":"Loan","icon":"white"},{"position":{"lat":34.975638,"lng":-89.984418},"address":"\"7803 STACEY DR\"","zip":"38671","state":"MS","city":"SOUTHAVEN","title":"\"7803 STACEY DR\"","rcType":"Loan","icon":"white"},{"position":{"lat":35.220471,"lng":-90.024801},"address":"\"1170 KNOX AVE\"","zip":"38127","state":"TN","city":"MEMPHIS","title":"\"1170 KNOX AVE\"","rcType":"Loan","icon":"blue"},{"position":{"lat":35.41752,"lng":-89.53795},"address":"\"11698 MAIN ST\"","zip":"38049","state":"TN","city":"MASON","title":"\"11698 MAIN ST\"","rcType":"Loan","icon":"blue"},{"position":{"lat":35.222307,"lng":-89.620979},"address":"\"150 WOODWIND CV\"","zip":"38028","state":"TN","city":"EADS","title":"\"150 WOODWIND CV\"","rcType":"Loan","icon":"white"},{"position":{"lat":34.842279,"lng":-90.127068},"address":"\"2225 MISTY WOODS RD\"","zip":"38641","state":"MS","city":"\"LAKE CORMORANT\"","title":"\"2225 MISTY WOODS RD\"","rcType":"Loan","icon":"white"},{"position":{"lat":35.150309,"lng":-89.903758},"address":"\"4713 TUTWILER AVE\"","zip":"38122","state":"TN","city":"MEMPHIS","title":"\"4713 TUTWILER AVE\"","rcType":"Loan","icon":"white"},{"position":{"lat":35.211091,"lng":-89.958915},"address":"\"3123 KIRKCALDY RD\"","zip":"38128","state":"TN","city":"MEMPHIS","title":"\"3123 KIRKCALDY RD\"","rcType":"Loan","icon":"white"},{"position":{"lat":35.216022,"lng":-89.524473},"address":"\"65 BROOKWOOD CIR\"","zip":"38060","state":"TN","city":"OAKLAND","title":"\"65 BROOKWOOD CIR\"","rcType":"Loan","icon":"blue"},{"position":{"lat":35.14484,"lng":-89.945477},"address":"\"475 N HIGHLAND ST\"","zip":"38122","state":"TN","city":"MEMPHIS","title":"\"475 N HIGHLAND ST\"","rcType":"Loan","icon":"white"},{"position":{"lat":35.145662,"lng":-89.929485},"address":"\"511 MEADE CIR\"","zip":"38122","state":"TN","city":"MEMPHIS","title":"\"511 MEADE CIR\"","rcType":"Loan","icon":"white"},{"position":{"lat":35.231139,"lng":-89.88566},"address":"\"5327 MAIDEN GRASS DR\"","zip":"38135","state":"TN","city":"MEMPHIS","title":"\"5327 MAIDEN GRASS DR\"","rcType":"Loan","icon":"blue"},{"position":{"lat":35.009249,"lng":-89.678548},"address":"\"276 ESTANAULA RD\"","zip":"38017","state":"TN","city":"COLLIERVILLE","title":"\"276 ESTANAULA RD\"","rcType":"Loan","icon":"blue"},{"position":{"lat":35.253069,"lng":-89.846916},"address":"\"6480 WELLS GROVE DR\"","zip":"38135","state":"TN","city":"BARTLETT","title":"\"6480 WELLS GROVE DR\"","rcType":"Loan","icon":"blue"},{"position":{"lat":34.946922,"lng":-89.813639},"address":"\"5959 WHITE RIDGE CIR E\"","zip":"38654","state":"MS","city":"\"OLIVE BRANCH\"","title":"\"5959 WHITE RIDGE CIR E\"","rcType":"Loan","icon":"white"},{"position":{"lat":34.943771,"lng":-89.818492},"address":"\"5754 MICHAELSON DR\"","zip":"38654","state":"MS","city":"\"OLIVE BRANCH\"","title":"\"5754 MICHAELSON DR\"","rcType":"Loan","icon":"blue"},{"position":{"lat":35.295017,"lng":-89.663362},"address":"\"11965 WALKER ST\"","zip":"38002","state":"TN","city":"ARLINGTON","title":"\"11965 WALKER ST\"","rcType":"Loan","icon":"blue"},{"position":{"lat":34.856812,"lng":-89.97939},"address":"\"265 COUNTRY CLUB DR\"","zip":"38632","state":"MS","city":"HERNANDO","title":"\"265 COUNTRY CLUB DR\"","rcType":"Loan","icon":"white"},{"position":{"lat":35.160042,"lng":-90.029997},"address":"\"722 N DUNLAP ST\"","zip":"38107","state":"TN","city":"MEMPHIS","title":"\"722 N DUNLAP ST\"","rcType":"Loan","icon":"white"},{"position":{"lat":35.211636,"lng":-89.83153},"address":"\"3140 BRIARLY LN\"","zip":"38135","state":"TN","city":"BARTLETT","title":"\"3140 BRIARLY LN\"","rcType":"Loan","icon":"white"},{"position":{"lat":35.038307,"lng":-89.533417},"address":"\"215 SAUNDERS CREEK DR\"","zip":"38066","state":"TN","city":"ROSSVILLE","title":"\"215 SAUNDERS CREEK DR\"","rcType":"Loan","icon":"blue"},{"position":{"lat":34.834973,"lng":-89.984862},"address":"\"1735 MOUNT PLEASANT RD\"","zip":"38632","state":"MS","city":"HERNANDO","title":"\"1735 MOUNT PLEASANT RD\"","rcType":"Loan","icon":"blue"},{"position":{"lat":34.975849,"lng":-89.958283},"address":"\"7914 NATURE WALK DR\"","zip":"38671","state":"MS","city":"SOUTHAVEN","title":"\"7914 NATURE WALK DR\"","rcType":"Loan","icon":"blue"},{"position":{"lat":34.957142,"lng":-90.03573},"address":"\"2555 FAIRBROOK CV\"","zip":"38637","state":"MS","city":"\"HORN LAKE\"","title":"\"2555 FAIRBROOK CV\"","rcType":"Loan","icon":"blue"},{"position":{"lat":35.084846,"lng":-89.854583},"address":"\"2354 CULLODEN CV\"","zip":"38119","state":"TN","city":"MEMPHIS","title":"\"2354 CULLODEN CV\"","rcType":"Loan","icon":"white"},{"position":{"lat":35.220932,"lng":-89.902082},"address":"\"4838 ARMS AVE\"","zip":"38128","state":"TN","city":"MEMPHIS","title":"\"4838 ARMS AVE\"","rcType":"Loan","icon":"white"},{"position":{"lat":34.922253,"lng":-89.93842},"address":"\"4236 SAINT ANNE CV\"","zip":"38672","state":"MS","city":"SOUTHAVEN","title":"\"4236 SAINT ANNE CV\"","rcType":"Loan","icon":"blue"},{"position":{"lat":35.556426,"lng":-89.709043},"address":"\"3597 HIGHWAY 59 W\"","zip":"38019","state":"TN","city":"COVINGTON","title":"\"3597 HIGHWAY 59 W\"","rcType":"Loan","icon":"blue"},{"position":{"lat":34.688018,"lng":-90.185203},"address":"\"2328 FRANKS RD\"","zip":"38618","state":"MS","city":"COLDWATER","title":"\"2328 FRANKS RD\"","rcType":"Loan","icon":"white"},{"position":{"lat":35.071282,"lng":-89.661819},"address":"\"195 GREEN GARDEN CV\"","zip":"38017","state":"TN","city":"COLLIERVILLE","title":"\"195 GREEN GARDEN CV\"","rcType":"Loan","icon":"blue"},{"position":{"lat":35.061411,"lng":-89.701642},"address":"\"1213 HEATHER RIDGE CV\"","zip":"38017","state":"TN","city":"COLLIERVILLE","title":"\"1213 HEATHER RIDGE CV\"","rcType":"Loan","icon":"blue"},{"position":{"lat":35.138236,"lng":-89.986256},"address":"\"2243 JEFFERSON AVE\"","zip":"38104","state":"TN","city":"MEMPHIS","title":"\"2243 JEFFERSON AVE\"","rcType":"Loan","icon":"blue"},{"position":{"lat":35.024161,"lng":-90.025728},"address":"\"4561 ELVIS PRESLEY BLVD\"","zip":"38116","state":"TN","city":"MEMPHIS","title":"\"4561 ELVIS PRESLEY BLVD\"","rcType":"Loan","icon":"white"},{"position":{"lat":35.232289,"lng":-89.448576},"address":"\"55 CREEK SIDE DR\"","zip":"38068","state":"TN","city":"SOMERVILLE","title":"\"55 CREEK SIDE DR\"","rcType":"Loan","icon":"white"},{"position":{"lat":34.919556,"lng":-89.927966},"address":"\"3570 COLLEGE RD\"","zip":"38672","state":"MS","city":"SOUTHAVEN","title":"\"3570 COLLEGE RD\"","rcType":"Loan","icon":"blue"},{"position":{"lat":34.896335,"lng":-89.809644},"address":"\"10232 LAZY CREEK DR\"","zip":"38654","state":"MS","city":"\"OLIVE BRANCH\"","title":"\"10232 LAZY CREEK DR\"","rcType":"Loan","icon":"white"},{"position":{"lat":35.197994,"lng":-89.994323},"address":"\"2083 ADDERLEY LN\"","zip":"38127","state":"TN","city":"MEMPHIS","title":"\"2083 ADDERLEY LN\"","rcType":"Loan","icon":"white"},{"position":{"lat":35.198834,"lng":-89.99151},"address":"\"2161 ADDERLEY LN\"","zip":"38127","state":"TN","city":"MEMPHIS","title":"\"2161 ADDERLEY LN\"","rcType":"Loan","icon":"white"},{"position":{"lat":34.596807,"lng":-89.881755},"address":"\"1022 GRAVEL SPRINGS RD\"","zip":"38668","state":"MS","city":"SENATOBIA","title":"\"1022 GRAVEL SPRINGS RD\"","rcType":"Loan","icon":"blue"},{"position":{"lat":34.999786,"lng":-89.820952},"address":"\"5439 MILLERS GLEN LN\"","zip":"38125","state":"TN","city":"MEMPHIS","title":"\"5439 MILLERS GLEN LN\"","rcType":"Loan","icon":"white"},{"position":{"lat":35.24317,"lng":-89.749829},"address":"\"4321 CANABRIDGE CV\"","zip":"38002","state":"TN","city":"LAKELAND","title":"\"4321 CANABRIDGE CV\"","rcType":"Loan","icon":"blue"},{"position":{"lat":34.860106,"lng":-89.995834},"address":"\"23 HIGHWAY 51 S\"","zip":"38632","state":"MS","city":"HERNANDO","title":"\"23 HIGHWAY 51 S\"","rcType":"Loan","icon":"white"},{"position":{"lat":35.21241,"lng":-89.529519},"address":"\"150 JAMES CV\"","zip":"38060","state":"TN","city":"OAKLAND","title":"\"150 JAMES CV\"","rcType":"Loan","icon":"white"},{"position":{"lat":35.241234,"lng":-89.530035},"address":"\"120 MISTY BIRCH LN\"","zip":"38060","state":"TN","city":"OAKLAND","title":"\"120 MISTY BIRCH LN\"","rcType":"Loan","icon":"white"},{"position":{"lat":35.211896,"lng":-89.958922},"address":"\"3129 WHITNEY AVE\"","zip":"38128","state":"TN","city":"MEMPHIS","title":"\"3129 WHITNEY AVE\"","rcType":"Loan","icon":"white"},{"position":{"lat":35.581082,"lng":-89.764714},"address":"\"982 KELLEYS CHAPEL RD\"","zip":"38015","state":"TN","city":"BURLISON","title":"\"982 KELLEYS CHAPEL RD\"","rcType":"Loan","icon":"blue"},{"position":{"lat":35.553701,"lng":-89.651721},"address":"\"543 PAYNE AVE\"","zip":"38019","state":"TN","city":"COVINGTON","title":"\"543 PAYNE AVE\"","rcType":"Loan","icon":"blue"},{"position":{"lat":34.99669,"lng":-90.06567},"address":"\"55 W GRAND HEIGHTS DR\"","zip":"38109","state":"TN","city":"MEMPHIS","title":"\"55 W GRAND HEIGHTS DR\"","rcType":"Loan","icon":"white"},{"position":{"lat":35.095394,"lng":-89.915678},"address":"\"4388 QUINCE RD\"","zip":"38117","state":"TN","city":"MEMPHIS","title":"\"4388 QUINCE RD\"","rcType":"Loan","icon":"blue"},{"position":{"lat":34.953067,"lng":-90.055971},"address":"\"6335 SANDHURST RD\"","zip":"38637","state":"MS","city":"\"HORN LAKE\"","title":"\"6335 SANDHURST RD\"","rcType":"Loan","icon":"blue"},{"position":{"lat":35.079766,"lng":-89.689918},"address":"\"840 SHELTON RD\"","zip":"38017","state":"TN","city":"COLLIERVILLE","title":"\"840 SHELTON RD\"","rcType":"Loan","icon":"blue"},{"position":{"lat":35.063932,"lng":-89.760863},"address":"\"9057 VALLEY CREST LN\"","zip":"38138","state":"TN","city":"GERMANTOWN","title":"\"9057 VALLEY CREST LN\"","rcType":"Loan","icon":"white"},{"position":{"lat":34.985842,"lng":-89.828508},"address":"\"9107 LAKEVIEW CV\"","zip":"38654","state":"MS","city":"\"OLIVE BRANCH\"","title":"\"9107 LAKEVIEW CV\"","rcType":"Loan","icon":"white"},{"position":{"lat":35.075518,"lng":-89.675305},"address":"\"1311 GREY WOLF DR\"","zip":"38017","state":"TN","city":"COLLIERVILLE","title":"\"1311 GREY WOLF DR\"","rcType":"Loan","icon":"blue"},{"position":{"lat":35.059725,"lng":-89.645224},"address":"\"741 LAKE MEADOW DR\"","zip":"38017","state":"TN","city":"COLLIERVILLE","title":"\"741 LAKE MEADOW DR\"","rcType":"Loan","icon":"blue"},{"position":{"lat":35.239126,"lng":-89.496053},"address":"\"270 SEAWOOD DR\"","zip":"38060","state":"TN","city":"OAKLAND","title":"\"270 SEAWOOD DR\"","rcType":"Loan","icon":"white"},{"position":{"lat":34.990951,"lng":-90.047832},"address":"\"8940 JOYCE DR\"","zip":"38671","state":"MS","city":"SOUTHAVEN","title":"\"8940 JOYCE DR\"","rcType":"Loan","icon":"blue"},{"position":{"lat":34.830608,"lng":-89.969978},"address":"\"1096 THOUSAND OAKS DR\"","zip":"38632","state":"MS","city":"HERNANDO","title":"\"1096 THOUSAND OAKS DR\"","rcType":"Loan","icon":"white"},{"position":{"lat":34.944209,"lng":-90.075036},"address":"\"5743 TUCKER LANDING DR\"","zip":"38637","state":"MS","city":"\"HORN LAKE\"","title":"\"5743 TUCKER LANDING DR\"","rcType":"Loan","icon":"white"},{"position":{"lat":34.942794,"lng":-90.074799},"address":"\"5651 TUCKER LANDING DR\"","zip":"38637","state":"MS","city":"\"HORN LAKE\"","title":"\"5651 TUCKER LANDING DR\"","rcType":"Loan","icon":"white"},{"position":{"lat":35.135343,"lng":-89.749033},"address":"\"416 GREYWOOD LN\"","zip":"38018","state":"TN","city":"CORDOVA","title":"\"416 GREYWOOD LN\"","rcType":"Loan","icon":"blue"},{"position":{"lat":35.218846,"lng":-89.915162},"address":"\"4455 RICHE RD\"","zip":"38128","state":"TN","city":"MEMPHIS","title":"\"4455 RICHE RD\"","rcType":"Loan","icon":"white"},{"position":{"lat":34.849215,"lng":-89.988424},"address":"\"768 RUNNING DOE CV\"","zip":"38632","state":"MS","city":"HERNANDO","title":"\"768 RUNNING DOE CV\"","rcType":"Loan","icon":"blue"},{"position":{"lat":34.973313,"lng":-90.021685},"address":"\"1793 SPRINGFIELD CV\"","zip":"38671","state":"MS","city":"SOUTHAVEN","title":"\"1793 SPRINGFIELD CV\"","rcType":"Loan","icon":"blue"},{"position":{"lat":35.220187,"lng":-89.923241},"address":"\"4205 YALE RD\"","zip":"38128","state":"TN","city":"MEMPHIS","title":"\"4205 YALE RD\"","rcType":"Loan","icon":"white"},{"position":{"lat":35.065409,"lng":-89.924576},"address":"\"4165 ARROWOOD AVE\"","zip":"38118","state":"TN","city":"MEMPHIS","title":"\"4165 ARROWOOD AVE\"","rcType":"Loan","icon":"white"},{"position":{"lat":34.817774,"lng":-90.087323},"address":"\"5630 W OAK GROVE RD\"","zip":"38632","state":"MS","city":"HERNANDO","title":"\"5630 W OAK GROVE RD\"","rcType":"Loan","icon":"blue"},{"position":{"lat":34.907042,"lng":-89.84072},"address":"\"8455 DUNN LN E\"","zip":"38654","state":"MS","city":"\"OLIVE BRANCH\"","title":"\"8455 DUNN LN E\"","rcType":"Loan","icon":"blue"},{"position":{"lat":35.236841,"lng":-89.742343},"address":"\"9606 BLUE SPRUCE DR\"","zip":"38002","state":"TN","city":"LAKELAND","title":"\"9606 BLUE SPRUCE DR\"","rcType":"Loan","icon":"white"},{"position":{"lat":34.860656,"lng":-90.008186},"address":"\"1 BOONE DR N\"","zip":"38632","state":"MS","city":"HERNANDO","title":"\"1 BOONE DR N\"","rcType":"Loan","icon":"blue"},{"position":{"lat":34.950538,"lng":-89.90851},"address":"\"6175 FAIRLAWN CV\"","zip":"38654","state":"MS","city":"\"OLIVE BRANCH\"","title":"\"6175 FAIRLAWN CV\"","rcType":"Loan","icon":"white"},{"position":{"lat":35.060952,"lng":-89.649648},"address":"\"775 SILVERMAN DR\"","zip":"38017","state":"TN","city":"COLLIERVILLE","title":"\"775 SILVERMAN DR\"","rcType":"Loan","icon":"white"},{"position":{"lat":34.976607,"lng":-90.031977},"address":"\"2404 COLONIAL HILLS DR\"","zip":"38671","state":"MS","city":"SOUTHAVEN","title":"\"2404 COLONIAL HILLS DR\"","rcType":"Loan","icon":"white"},{"position":{"lat":35.324273,"lng":-89.899533},"address":"\"7264 RENDA ST\"","zip":"38053","state":"TN","city":"MILLINGTON","title":"\"7264 RENDA ST\"","rcType":"Loan","icon":"white"},{"position":{"lat":34.947072,"lng":-89.917914},"address":"\"4071 NAIL RD\"","zip":"38654","state":"MS","city":"\"OLIVE BRANCH\"","title":"\"4071 NAIL RD\"","rcType":"Loan","icon":"blue"},{"position":{"lat":35.420442,"lng":-89.705161},"address":"\"375 LYNDSEY DR\"","zip":"38011","state":"TN","city":"BRIGHTON","title":"\"375 LYNDSEY DR\"","rcType":"Loan","icon":"white"},{"position":{"lat":35.130782,"lng":-89.914655},"address":"\"4411 WALNUT GROVE RD\"","zip":"38117","state":"TN","city":"MEMPHIS","title":"\"4411 WALNUT GROVE RD\"","rcType":"Loan","icon":"blue"},{"position":{"lat":35.205152,"lng":-89.845723},"address":"\"6520 STAGE RD\"","zip":"38134","state":"TN","city":"BARTLETT","title":"\"6520 STAGE RD\"","rcType":"Loan","icon":"white"},{"position":{"lat":34.722638,"lng":-89.777219},"address":"\"3073 SYCAMORE RD\"","zip":"38618","state":"MS","city":"COLDWATER","title":"\"3073 SYCAMORE RD\"","rcType":"Loan","icon":"white"},{"position":{"lat":35.162295,"lng":-89.995206},"address":"\"909 KENSINGTON PL\"","zip":"38107","state":"TN","city":"MEMPHIS","title":"\"909 KENSINGTON PL\"","rcType":"Loan","icon":"white"},{"position":{"lat":35.241658,"lng":-89.522079},"address":"\"75 LAUREL WOOD LN\"","zip":"38060","state":"TN","city":"OAKLAND","title":"\"75 LAUREL WOOD LN\"","rcType":"Loan","icon":"white"},{"position":{"lat":35.242352,"lng":-89.521321},"address":"\"50 LAUREL WOOD LN\"","zip":"38060","state":"TN","city":"OAKLAND","title":"\"50 LAUREL WOOD LN\"","rcType":"Loan","icon":"blue"},{"position":{"lat":34.835006,"lng":-90.002374},"address":"\"1815 NORTHWOOD WEST DR\"","zip":"38632","state":"MS","city":"HERNANDO","title":"\"1815 NORTHWOOD WEST DR\"","rcType":"Loan","icon":"blue"},{"position":{"lat":35.219965,"lng":-89.798416},"address":"\"7932 IVY LAKE LN\"","zip":"38133","state":"TN","city":"BARTLETT","title":"\"7932 IVY LAKE LN\"","rcType":"Loan","icon":"white"},{"position":{"lat":34.921718,"lng":-89.942547},"address":"\"2680 MARKSTON CV\"","zip":"38672","state":"MS","city":"SOUTHAVEN","title":"\"2680 MARKSTON CV\"","rcType":"Loan","icon":"white"},{"position":{"lat":34.89318,"lng":-89.940033},"address":"\"2830 GROVE MEADOW DR\"","zip":"38651","state":"MS","city":"NESBIT","title":"\"2830 GROVE MEADOW DR\"","rcType":"Loan","icon":"blue"},{"position":{"lat":34.959306,"lng":-89.860405},"address":"\"7307 CARA BND\"","zip":"38654","state":"MS","city":"\"OLIVE BRANCH\"","title":"\"7307 CARA BND\"","rcType":"Loan","icon":"blue"},{"position":{"lat":35.115122,"lng":-89.960896},"address":"\"3045 SOUTHERN AVE\"","zip":"38111","state":"TN","city":"MEMPHIS","title":"\"3045 SOUTHERN AVE\"","rcType":"Loan","icon":"white"},{"position":{"lat":35.244985,"lng":-89.509703},"address":"\"135 PINEHURST DR\"","zip":"38060","state":"TN","city":"OAKLAND","title":"\"135 PINEHURST DR\"","rcType":"Loan","icon":"white"},{"position":{"lat":35.339329,"lng":-89.88654},"address":"\"7804 W NAVY CIR\"","zip":"38053","state":"TN","city":"MILLINGTON","title":"\"7804 W NAVY CIR\"","rcType":"Loan","icon":"white"},{"position":{"lat":35.067655,"lng":-89.785938},"address":"\"8314 HONEY HILL CV\"","zip":"38138","state":"TN","city":"GERMANTOWN","title":"\"8314 HONEY HILL CV\"","rcType":"Loan","icon":"blue"},{"position":{"lat":35.075444,"lng":-89.722027},"address":"\"2686 BURTON BRIAR CIR\"","zip":"38017","state":"TN","city":"COLLIERVILLE","title":"\"2686 BURTON BRIAR CIR\"","rcType":"Loan","icon":"white"},{"position":{"lat":35.139731,"lng":-89.677468},"address":"\"520 REID HOOKER N\"","zip":"38028","state":"TN","city":"EADS","title":"\"520 REID HOOKER N\"","rcType":"Loan","icon":"blue"},{"position":{"lat":35.052024,"lng":-89.663835},"address":"\"75 HINTON CV\"","zip":"38017","state":"TN","city":"COLLIERVILLE","title":"\"75 HINTON CV\"","rcType":"Loan","icon":"white"},{"position":{"lat":34.730793,"lng":-90.011471},"address":"\"1153 THUNDERBIRD DR S\"","zip":"38632","state":"MS","city":"HERNANDO","title":"\"1153 THUNDERBIRD DR S\"","rcType":"Loan","icon":"blue"},{"position":{"lat":34.84814,"lng":-89.958983},"address":"\"875 CEDAR RIDGE CV\"","zip":"38632","state":"MS","city":"HERNANDO","title":"\"875 CEDAR RIDGE CV\"","rcType":"Loan","icon":"blue"},{"position":{"lat":35.181051,"lng":-89.509588},"address":"\"460 CROOKED CREEK DR\"","zip":"38060","state":"TN","city":"OAKLAND","title":"\"460 CROOKED CREEK DR\"","rcType":"Loan","icon":"blue"},{"position":{"lat":35.011972,"lng":-89.963061},"address":"\"3020 GREENBRANCH DR\"","zip":"38118","state":"TN","city":"MEMPHIS","title":"\"3020 GREENBRANCH DR\"","rcType":"Loan","icon":"white"},{"position":{"lat":34.958988,"lng":-89.805135},"address":"\"10397 YATES DR\"","zip":"38654","state":"MS","city":"\"OLIVE BRANCH\"","title":"\"10397 YATES DR\"","rcType":"Loan","icon":"white"},{"position":{"lat":35.43288,"lng":-89.825612},"address":"\"72 MARGARET PL\"","zip":"38058","state":"TN","city":"MUNFORD","title":"\"72 MARGARET PL\"","rcType":"Loan","icon":"blue"},{"position":{"lat":35.118404,"lng":-89.775413},"address":"\"420 CHERRY HOLLOW CV\"","zip":"38018","state":"TN","city":"CORDOVA","title":"\"420 CHERRY HOLLOW CV\"","rcType":"Loan","icon":"blue"},{"position":{"lat":34.77157,"lng":-89.954988},"address":"\"1945 STABLE RD\"","zip":"38632","state":"MS","city":"HERNANDO","title":"\"1945 STABLE RD\"","rcType":"Loan","icon":"blue"},{"position":{"lat":35.323591,"lng":-89.904272},"address":"\"4765 WAYCROSS AVE\"","zip":"38053","state":"TN","city":"MILLINGTON","title":"\"4765 WAYCROSS AVE\"","rcType":"Loan","icon":"blue"},{"position":{"lat":34.969024,"lng":-90.13006},"address":"\"7927 DELTA LAKES BLVD\"","zip":"38680","state":"MS","city":"WALLS","title":"\"7927 DELTA LAKES BLVD\"","rcType":"Loan","icon":"white"},{"position":{"lat":35.416217,"lng":-89.774647},"address":"\"64 JERRY CIR\"","zip":"38004","state":"TN","city":"ATOKA","title":"\"64 JERRY CIR\"","rcType":"Loan","icon":"blue"},{"position":{"lat":34.826287,"lng":-89.984466},"address":"\"2334 MOUNT PLEASANT RD\"","zip":"38632","state":"MS","city":"HERNANDO","title":"\"2334 MOUNT PLEASANT RD\"","rcType":"Loan","icon":"blue"},{"position":{"lat":35.074833,"lng":-89.834044},"address":"\"6867 KELMSCOTT DR\"","zip":"38119","state":"TN","city":"MEMPHIS","title":"\"6867 KELMSCOTT DR\"","rcType":"Loan","icon":"white"},{"position":{"lat":35.233903,"lng":-89.308279},"address":"\"855 BEECH LOOP\"","zip":"38068","state":"TN","city":"SOMERVILLE","title":"\"855 BEECH LOOP\"","rcType":"Loan","icon":"white"},{"position":{"lat":34.964487,"lng":-89.875204},"address":"\"6430 GOODMAN RD\"","zip":"38654","state":"MS","city":"\"OLIVE BRANCH\"","title":"\"6430 GOODMAN RD\"","rcType":"Loan","icon":"white"},{"position":{"lat":34.973928,"lng":-89.853333},"address":"\"7885 SHAHKOKA DR\"","zip":"38654","state":"MS","city":"\"OLIVE BRANCH\"","title":"\"7885 SHAHKOKA DR\"","rcType":"Loan","icon":"blue"},{"position":{"lat":34.968345,"lng":-89.795794},"address":"\"7417 HACKS CROSS RD\"","zip":"38654","state":"MS","city":"\"OLIVE BRANCH\"","title":"\"7417 HACKS CROSS RD\"","rcType":"Loan","icon":"white"},{"position":{"lat":34.854309,"lng":-89.795491},"address":"\"10990 BYHALIA RD\"","zip":"38654","state":"MS","city":"\"OLIVE BRANCH\"","title":"\"10990 BYHALIA RD\"","rcType":"Loan","icon":"blue"},{"position":{"lat":35.237903,"lng":-89.878316},"address":"\"4120 ANGELACE DR N\"","zip":"38135","state":"TN","city":"MEMPHIS","title":"\"4120 ANGELACE DR N\"","rcType":"Loan","icon":"white"},{"position":{"lat":35.162901,"lng":-89.787968},"address":"\"1371 HARDWOOD TRL\"","zip":"38016","state":"TN","city":"CORDOVA","title":"\"1371 HARDWOOD TRL\"","rcType":"Loan","icon":"white"},{"position":{"lat":35.157504,"lng":-89.415617},"address":"\"13020 HIGHWAY 193\"","zip":"38076","state":"TN","city":"WILLISTON","title":"\"13020 HIGHWAY 193\"","rcType":"Loan","icon":"blue"},{"position":{"lat":35.17475,"lng":-89.732764},"address":"\"1810 N HOUSTON LEVEE RD\"","zip":"38016","state":"TN","city":"CORDOVA","title":"\"1810 N HOUSTON LEVEE RD\"","rcType":"Loan","icon":"white"},{"position":{"lat":35.07055,"lng":-89.921655},"address":"\"4255 NAVAHO AVE\"","zip":"38118","state":"TN","city":"MEMPHIS","title":"\"4255 NAVAHO AVE\"","rcType":"Loan","icon":"blue"},{"position":{"lat":34.956971,"lng":-89.814834},"address":"\"6642 KIMBERLY DR\"","zip":"38654","state":"MS","city":"\"OLIVE BRANCH\"","title":"\"6642 KIMBERLY DR\"","rcType":"Loan","icon":"blue"},{"position":{"lat":35.239675,"lng":-89.798785},"address":"\"4173 STRAWBRIDGE DR\"","zip":"38135","state":"TN","city":"BARTLETT","title":"\"4173 STRAWBRIDGE DR\"","rcType":"Loan","icon":"blue"},{"position":{"lat":34.633132,"lng":-89.837873},"address":"\"3009 LOOXAHOMA CIR\"","zip":"38668","state":"MS","city":"SENATOBIA","title":"\"3009 LOOXAHOMA CIR\"","rcType":"Loan","icon":"white"},{"position":{"lat":35.256389,"lng":-89.585312},"address":"\"30 CEDAR TRACE DR N\"","zip":"38002","state":"TN","city":"ARLINGTON","title":"\"30 CEDAR TRACE DR N\"","rcType":"Loan","icon":"blue"},{"position":{"lat":35.174955,"lng":-89.796564},"address":"\"1813 WOODCHASE GLEN DR\"","zip":"38016","state":"TN","city":"CORDOVA","title":"\"1813 WOODCHASE GLEN DR\"","rcType":"Loan","icon":"blue"},{"position":{"lat":34.965352,"lng":-89.954765},"address":"\"7200 PECAN RDG E\"","zip":"38671","state":"MS","city":"SOUTHAVEN","title":"\"7200 PECAN RDG E\"","rcType":"Loan","icon":"blue"},{"position":{"lat":35.24323,"lng":-89.624588},"address":"\"655 ASTON CROSS DR\"","zip":"38028","state":"TN","city":"EADS","title":"\"655 ASTON CROSS DR\"","rcType":"Loan","icon":"white"},{"position":{"lat":34.880715,"lng":-89.833355},"address":"\"8811 COLE RD\"","zip":"38654","state":"MS","city":"\"OLIVE BRANCH\"","title":"\"8811 COLE RD\"","rcType":"Loan","icon":"white"},{"position":{"lat":35.016956,"lng":-90.032187},"address":"\"4820 FAIRFIELD RD\"","zip":"38116","state":"TN","city":"MEMPHIS","title":"\"4820 FAIRFIELD RD\"","rcType":"Loan","icon":"white"},{"position":{"lat":35.12226,"lng":-89.891817},"address":"\"5097 COLE RD\"","zip":"38117","state":"TN","city":"MEMPHIS","title":"\"5097 COLE RD\"","rcType":"Loan","icon":"white"},{"position":{"lat":35.229812,"lng":-89.835155},"address":"\"6837 SILVER HILL LN\"","zip":"38135","state":"TN","city":"BARTLETT","title":"\"6837 SILVER HILL LN\"","rcType":"Loan","icon":"white"},{"position":{"lat":34.954466,"lng":-90.0479},"address":"\"6545 YORKSHIRE RD\"","zip":"38637","state":"MS","city":"\"HORN LAKE\"","title":"\"6545 YORKSHIRE RD\"","rcType":"Loan","icon":"white"},{"position":{"lat":34.860334,"lng":-89.900924},"address":"\"20 LAUGHTER RD S\"","zip":"38632","state":"MS","city":"HERNANDO","title":"\"20 LAUGHTER RD S\"","rcType":"Loan","icon":"blue"},{"position":{"lat":35.171343,"lng":-89.755396},"address":"\"9227 TAMHAVEN DR\"","zip":"38016","state":"TN","city":"CORDOVA","title":"\"9227 TAMHAVEN DR\"","rcType":"Loan","icon":"white"},{"position":{"lat":34.969411,"lng":-89.905875},"address":"\"4794 PLEASANT BREEZE DR\"","zip":"38654","state":"MS","city":"\"OLIVE BRANCH\"","title":"\"4794 PLEASANT BREEZE DR\"","rcType":"Loan","icon":"blue"},{"position":{"lat":34.939683,"lng":-89.921703},"address":"\"5438 E POINTE DR\"","zip":"38672","state":"MS","city":"SOUTHAVEN","title":"\"5438 E POINTE DR\"","rcType":"Loan","icon":"blue"},{"position":{"lat":34.915948,"lng":-89.826211},"address":"\"9236 FARM POND CIR\"","zip":"38654","state":"MS","city":"\"OLIVE BRANCH\"","title":"\"9236 FARM POND CIR\"","rcType":"Loan","icon":"blue"},{"position":{"lat":35.065334,"lng":-89.775751},"address":"\"3063 SHANNON OAKS CV\"","zip":"38138","state":"TN","city":"GERMANTOWN","title":"\"3063 SHANNON OAKS CV\"","rcType":"Loan","icon":"blue"},{"position":{"lat":34.88342,"lng":-90.013521},"address":"\"1616 GILL RD\"","zip":"38651","state":"MS","city":"NESBIT","title":"\"1616 GILL RD\"","rcType":"Loan","icon":"blue"},{"position":{"lat":34.928764,"lng":-89.946426},"address":"\"2425 CHRISTIAN LN\"","zip":"38671","state":"MS","city":"SOUTHAVEN","title":"\"2425 CHRISTIAN LN\"","rcType":"Loan","icon":"white"},{"position":{"lat":35.027123,"lng":-90.045064},"address":"\"4457 WHITEPINE CV\"","zip":"38109","state":"TN","city":"MEMPHIS","title":"\"4457 WHITEPINE CV\"","rcType":"Loan","icon":"white"},{"position":{"lat":35.050809,"lng":-89.708415},"address":"\"153 DUBRAY CREEK CV\"","zip":"38017","state":"TN","city":"COLLIERVILLE","title":"\"153 DUBRAY CREEK CV\"","rcType":"Loan","icon":"blue"},{"position":{"lat":34.965833,"lng":-89.91286},"address":"\"4466 STONE PARK BLVD\"","zip":"38654","state":"MS","city":"\"OLIVE BRANCH\"","title":"\"4466 STONE PARK BLVD\"","rcType":"Loan","icon":"blue"},{"position":{"lat":34.964994,"lng":-89.756346},"address":"\"7182 CARRIEBROOK DR\"","zip":"38654","state":"MS","city":"\"OLIVE BRANCH\"","title":"\"7182 CARRIEBROOK DR\"","rcType":"Loan","icon":"blue"},{"position":{"lat":34.891699,"lng":-89.986826},"address":"\"154 BANKSTON RD\"","zip":"38651","state":"MS","city":"NESBIT","title":"\"154 BANKSTON RD\"","rcType":"Loan","icon":"blue"},{"position":{"lat":35.185031,"lng":-89.416771},"address":"\"3425 TEAGUE STORE RD\"","zip":"38068","state":"TN","city":"SOMERVILLE","title":"\"3425 TEAGUE STORE RD\"","rcType":"Loan","icon":"blue"},{"position":{"lat":35.086642,"lng":-89.86407},"address":"\"2285 SUTHERLAND DR\"","zip":"38119","state":"TN","city":"MEMPHIS","title":"\"2285 SUTHERLAND DR\"","rcType":"Loan","icon":"blue"},{"position":{"lat":34.962627,"lng":-89.814144},"address":"\"9930 GOODMAN RD\"","zip":"38654","state":"MS","city":"\"OLIVE BRANCH\"","title":"\"9930 GOODMAN RD\"","rcType":"Loan","icon":"white"},{"position":{"lat":34.942114,"lng":-90.034512},"address":"\"2522 WINWOOD CV\"","zip":"38637","state":"MS","city":"\"HORN LAKE\"","title":"\"2522 WINWOOD CV\"","rcType":"Loan","icon":"blue"},{"position":{"lat":34.825548,"lng":-89.989792},"address":"\"10 W VALLEY ST\"","zip":"38632","state":"MS","city":"HERNANDO","title":"\"10 W VALLEY ST\"","rcType":"Loan","icon":"blue"},{"position":{"lat":34.986859,"lng":-89.791357},"address":"\"11222 GREEN VALLEY DR\"","zip":"38654","state":"MS","city":"\"OLIVE BRANCH\"","title":"\"11222 GREEN VALLEY DR\"","rcType":"Loan","icon":"white"},{"position":{"lat":35.315349,"lng":-89.931574},"address":"\"3964 CRENSHAW RD\"","zip":"38053","state":"TN","city":"MILLINGTON","title":"\"3964 CRENSHAW RD\"","rcType":"Loan","icon":"blue"},{"position":{"lat":35.143995,"lng":-89.936796},"address":"\"3729 SHIRLWOOD AVE\"","zip":"38122","state":"TN","city":"MEMPHIS","title":"\"3729 SHIRLWOOD AVE\"","rcType":"Loan","icon":"white"},{"position":{"lat":35.057926,"lng":-89.679893},"address":"\"530 QUAIL CREST DR\"","zip":"38017","state":"TN","city":"COLLIERVILLE","title":"\"530 QUAIL CREST DR\"","rcType":"Loan","icon":"blue"},{"position":{"lat":34.954268,"lng":-89.804706},"address":"\"10447 MAPLEBROOK LN\"","zip":"38654","state":"MS","city":"\"OLIVE BRANCH\"","title":"\"10447 MAPLEBROOK LN\"","rcType":"Loan","icon":"white"},{"position":{"lat":35.031629,"lng":-90.048331},"address":"\"473 SHOFNER DR\"","zip":"38109","state":"TN","city":"MEMPHIS","title":"\"473 SHOFNER DR\"","rcType":"Loan","icon":"white"},{"position":{"lat":35.256793,"lng":-89.516629},"address":"\"190 SNOWBELL CV\"","zip":"38060","state":"TN","city":"OAKLAND","title":"\"190 SNOWBELL CV\"","rcType":"Loan","icon":"white"},{"position":{"lat":34.841882,"lng":-89.959442},"address":"\"1702 NOTTING HILL DR\"","zip":"38632","state":"MS","city":"HERNANDO","title":"\"1702 NOTTING HILL DR\"","rcType":"Loan","icon":"blue"},{"position":{"lat":35.346267,"lng":-89.900561},"address":"\"4883 2ND AVE\"","zip":"38053","state":"TN","city":"MILLINGTON","title":"\"4883 2ND AVE\"","rcType":"Loan","icon":"white"},{"position":{"lat":34.941505,"lng":-90.074184},"address":"\"5560 TUCKER LANDING DR\"","zip":"38637","state":"MS","city":"\"HORN LAKE\"","title":"\"5560 TUCKER LANDING DR\"","rcType":"Loan","icon":"white"},{"position":{"lat":34.90824,"lng":-89.977009},"address":"\"725 CHATEAU POINTE BLVD\"","zip":"38672","state":"MS","city":"SOUTHAVEN","title":"\"725 CHATEAU POINTE BLVD\"","rcType":"Loan","icon":"white"},{"position":{"lat":35.187136,"lng":-89.75677},"address":"\"2258 FOUNTAIN BROOK LN\"","zip":"38016","state":"TN","city":"CORDOVA","title":"\"2258 FOUNTAIN BROOK LN\"","rcType":"Loan","icon":"blue"},{"position":{"lat":35.150723,"lng":-90.014568},"address":"\"1349 AUTUMN AVE\"","zip":"38104","state":"TN","city":"MEMPHIS","title":"\"1349 AUTUMN AVE\"","rcType":"Loan","icon":"white"},{"position":{"lat":34.881967,"lng":-89.838297},"address":"\"8663 COLE RD\"","zip":"38654","state":"MS","city":"\"OLIVE BRANCH\"","title":"\"8663 COLE RD\"","rcType":"Loan","icon":"blue"},{"position":{"lat":34.879962,"lng":-89.838112},"address":"\"8711 COLE RD\"","zip":"38654","state":"MS","city":"\"OLIVE BRANCH\"","title":"\"8711 COLE RD\"","rcType":"Loan","icon":"blue"},{"position":{"lat":34.816354,"lng":-90.184888},"address":"","zip":"38632","state":"MS","city":"HERNANDO","title":"","rcType":"Loan","icon":"white"},{"position":{"lat":35.201782,"lng":-89.736386},"address":"\"2795 MAGGIE WOODS PL\"","zip":"38002","state":"TN","city":"ARLINGTON","title":"\"2795 MAGGIE WOODS PL\"","rcType":"Loan","icon":"white"},{"position":{"lat":35.214306,"lng":-89.717369},"address":"\"10353 BENTBROOKE DR\"","zip":"38002","state":"TN","city":"LAKELAND","title":"\"10353 BENTBROOKE DR\"","rcType":"Loan","icon":"blue"},{"position":{"lat":35.486439,"lng":-89.725732},"address":"\"405 E WOODLAWN AVE\"","zip":"38011","state":"TN","city":"BRIGHTON","title":"\"405 E WOODLAWN AVE\"","rcType":"Loan","icon":"blue"},{"position":{"lat":35.052737,"lng":-89.67594},"address":"\"461 DOVE VALLEY RD\"","zip":"38017","state":"TN","city":"COLLIERVILLE","title":"\"461 DOVE VALLEY RD\"","rcType":"Loan","icon":"white"},{"position":{"lat":35.092666,"lng":-89.914933},"address":"\"1435 FLAMINGO RD\"","zip":"38117","state":"TN","city":"MEMPHIS","title":"\"1435 FLAMINGO RD\"","rcType":"Loan","icon":"white"},{"position":{"lat":34.826912,"lng":-89.953445},"address":"\"2320 JAYBIRD RD\"","zip":"38632","state":"MS","city":"HERNANDO","title":"\"2320 JAYBIRD RD\"","rcType":"Loan","icon":"blue"},{"position":{"lat":35.147837,"lng":-89.405189},"address":"\"6900 MCKINSTRY RD\"","zip":"38057","state":"TN","city":"MOSCOW","title":"\"6900 MCKINSTRY RD\"","rcType":"Loan","icon":"white"},{"position":{"lat":34.845871,"lng":-89.991067},"address":"\"81 LINDSEY DR\"","zip":"38632","state":"MS","city":"HERNANDO","title":"\"81 LINDSEY DR\"","rcType":"Loan","icon":"blue"},{"position":{"lat":34.928627,"lng":-89.910565},"address":"\"4698 PARISH ROW\"","zip":"38654","state":"MS","city":"\"OLIVE BRANCH\"","title":"\"4698 PARISH ROW\"","rcType":"Loan","icon":"white"},{"position":{"lat":35.056626,"lng":-89.856921},"address":"\"6191 RIDGELINE DR\"","zip":"38115","state":"TN","city":"MEMPHIS","title":"\"6191 RIDGELINE DR\"","rcType":"Loan","icon":"white"},{"position":{"lat":35.233665,"lng":-89.883961},"address":"\"3956 SUNSET LAKE CV\"","zip":"38135","state":"TN","city":"MEMPHIS","title":"\"3956 SUNSET LAKE CV\"","rcType":"Loan","icon":"blue"},{"position":{"lat":35.105924,"lng":-89.652053},"address":"\"12310 FOX LAIR DR\"","zip":"38017","state":"TN","city":"COLLIERVILLE","title":"\"12310 FOX LAIR DR\"","rcType":"Loan","icon":"blue"},{"position":{"lat":34.697949,"lng":-89.845173},"address":"\"822 BOWMANTOWN RD\"","zip":"38618","state":"MS","city":"COLDWATER","title":"\"822 BOWMANTOWN RD\"","rcType":"Loan","icon":"white"},{"position":{"lat":35.06184,"lng":-89.691807},"address":"\"896 STONE HEDGE CV\"","zip":"38017","state":"TN","city":"COLLIERVILLE","title":"\"896 STONE HEDGE CV\"","rcType":"Loan","icon":"white"},{"position":{"lat":35.160629,"lng":-90.00857},"address":"\"800 N MCNEIL ST\"","zip":"38107","state":"TN","city":"MEMPHIS","title":"\"800 N MCNEIL ST\"","rcType":"Loan","icon":"white"},{"position":{"lat":34.946786,"lng":-89.941504},"address":"\"5906 TOMMY JOE DR\"","zip":"38672","state":"MS","city":"SOUTHAVEN","title":"\"5906 TOMMY JOE DR\"","rcType":"Loan","icon":"white"},{"position":{"lat":35.044491,"lng":-89.666116},"address":"\"166 WALNUT ST\"","zip":"38017","state":"TN","city":"COLLIERVILLE","title":"\"166 WALNUT ST\"","rcType":"Loan","icon":"white"},{"position":{"lat":35.426749,"lng":-89.82036},"address":"\"1569 TIPTON RD\"","zip":"38058","state":"TN","city":"MUNFORD","title":"\"1569 TIPTON RD\"","rcType":"Loan","icon":"blue"},{"position":{"lat":34.993945,"lng":-90.06272},"address":"\"9151 BENTLEY WOODS DR\"","zip":"38671","state":"MS","city":"SOUTHAVEN","title":"\"9151 BENTLEY WOODS DR\"","rcType":"Loan","icon":"white"},{"position":{"lat":35.160284,"lng":-89.94502},"address":"\"1034 PEACHTREE ST\"","zip":"38122","state":"TN","city":"MEMPHIS","title":"\"1034 PEACHTREE ST\"","rcType":"Loan","icon":"white"},{"position":{"lat":35.171244,"lng":-89.736139},"address":"\"1678 FARKLEBERRY DR\"","zip":"38016","state":"TN","city":"CORDOVA","title":"\"1678 FARKLEBERRY DR\"","rcType":"Loan","icon":"blue"},{"position":{"lat":34.92307,"lng":-89.915309},"address":"\"4283 LUNDY BND W\"","zip":"38654","state":"MS","city":"\"OLIVE BRANCH\"","title":"\"4283 LUNDY BND W\"","rcType":"Loan","icon":"white"},{"position":{"lat":34.737224,"lng":-90.019424},"address":"","zip":"38632","state":"MS","city":"HERNANDO","title":"","rcType":"Loan","icon":"blue"},{"position":{"lat":35.159853,"lng":-89.723523},"address":"\"10159 MACON RD\"","zip":"38016","state":"TN","city":"CORDOVA","title":"\"10159 MACON RD\"","rcType":"Loan","icon":"white"},{"position":{"lat":34.833731,"lng":-90.038373},"address":"\"2740 LAMAR PL N\"","zip":"38632","state":"MS","city":"HERNANDO","title":"\"2740 LAMAR PL N\"","rcType":"Loan","icon":"blue"},{"position":{"lat":35.05078,"lng":-90.074025},"address":"\"296 GLENCOE RD\"","zip":"38109","state":"TN","city":"MEMPHIS","title":"\"296 GLENCOE RD\"","rcType":"Loan","icon":"white"},{"position":{"lat":34.795267,"lng":-90.07813},"address":"\"4441 FOGG RD S\"","zip":"38632","state":"MS","city":"HERNANDO","title":"\"4441 FOGG RD S\"","rcType":"Loan","icon":"white"},{"position":{"lat":34.978901,"lng":-89.91455},"address":"\"8138 JUANITA DR\"","zip":"38654","state":"MS","city":"\"OLIVE BRANCH\"","title":"\"8138 JUANITA DR\"","rcType":"Loan","icon":"blue"},{"position":{"lat":34.797027,"lng":-89.97574},"address":"\"4309 PRICE CV\"","zip":"38632","state":"MS","city":"HERNANDO","title":"\"4309 PRICE CV\"","rcType":"Loan","icon":"blue"},{"position":{"lat":35.216035,"lng":-89.849573},"address":"\"6408 RICHFIELD DR\"","zip":"38134","state":"TN","city":"BARTLETT","title":"\"6408 RICHFIELD DR\"","rcType":"Loan","icon":"white"},{"position":{"lat":34.861345,"lng":-89.946096},"address":"\"2600 BYHALIA RD\"","zip":"38632","state":"MS","city":"HERNANDO","title":"\"2600 BYHALIA RD\"","rcType":"Loan","icon":"blue"},{"position":{"lat":35.558344,"lng":-89.689382},"address":"\"353 BLANKENSHIP RD\"","zip":"38019","state":"TN","city":"COVINGTON","title":"\"353 BLANKENSHIP RD\"","rcType":"Loan","icon":"blue"},{"position":{"lat":34.961489,"lng":-89.8795},"address":"\"6942 AUTUMN OAKS DR\"","zip":"38654","state":"MS","city":"\"OLIVE BRANCH\"","title":"\"6942 AUTUMN OAKS DR\"","rcType":"Loan","icon":"white"},{"position":{"lat":35.241231,"lng":-89.348499},"address":"\"308 N EAST ST\"","zip":"38068","state":"TN","city":"SOMERVILLE","title":"\"308 N EAST ST\"","rcType":"Loan","icon":"blue"},{"position":{"lat":35.523439,"lng":-89.578052},"address":"\"4212 HIGHWAY 179\"","zip":"38019","state":"TN","city":"COVINGTON","title":"\"4212 HIGHWAY 179\"","rcType":"Loan","icon":"blue"},{"position":{"lat":35.051343,"lng":-89.648238},"address":"\"579 LANDING PARTY LN\"","zip":"38017","state":"TN","city":"COLLIERVILLE","title":"\"579 LANDING PARTY LN\"","rcType":"Loan","icon":"blue"},{"position":{"lat":35.237592,"lng":-89.756895},"address":"\"9200 HADLEY CV\"","zip":"38002","state":"TN","city":"LAKELAND","title":"\"9200 HADLEY CV\"","rcType":"Loan","icon":"blue"},{"position":{"lat":35.556185,"lng":-89.655623},"address":"\"839 HIGHWAY 51 S\"","zip":"38019","state":"TN","city":"COVINGTON","title":"\"839 HIGHWAY 51 S\"","rcType":"Loan","icon":"white"},{"position":{"lat":34.935105,"lng":-89.778618},"address":"\"5165 POLK LN\"","zip":"38654","state":"MS","city":"\"OLIVE BRANCH\"","title":"\"5165 POLK LN\"","rcType":"Loan","icon":"blue"},{"position":{"lat":34.958931,"lng":-90.034513},"address":"\"6750 EMBASSY CIR\"","zip":"38637","state":"MS","city":"\"HORN LAKE\"","title":"\"6750 EMBASSY CIR\"","rcType":"Loan","icon":"blue"},{"position":{"lat":35.133883,"lng":-89.951953},"address":"\"75 N CENTURY ST\"","zip":"38111","state":"TN","city":"MEMPHIS","title":"\"75 N CENTURY ST\"","rcType":"Loan","icon":"blue"},{"position":{"lat":34.952122,"lng":-89.872885},"address":"\"6345 ACREE WOODS DR\"","zip":"38654","state":"MS","city":"\"OLIVE BRANCH\"","title":"\"6345 ACREE WOODS DR\"","rcType":"Loan","icon":"blue"},{"position":{"lat":35.065606,"lng":-89.744733},"address":"\"3077 CHAPEL WOODS CV\"","zip":"38139","state":"TN","city":"GERMANTOWN","title":"\"3077 CHAPEL WOODS CV\"","rcType":"Loan","icon":"white"},{"position":{"lat":34.9365,"lng":-89.802646},"address":"\"10450 LOFTIN DR\"","zip":"38654","state":"MS","city":"\"OLIVE BRANCH\"","title":"\"10450 LOFTIN DR\"","rcType":"Loan","icon":"white"},{"position":{"lat":35.153905,"lng":-89.952055},"address":"\"796 ATLANTIC ST\"","zip":"38112","state":"TN","city":"MEMPHIS","title":"\"796 ATLANTIC ST\"","rcType":"Loan","icon":"blue"},{"position":{"lat":35.04038,"lng":-89.699289},"address":"\"123 CRESCENT DR\"","zip":"38017","state":"TN","city":"COLLIERVILLE","title":"\"123 CRESCENT DR\"","rcType":"Loan","icon":"white"},{"position":{"lat":34.842232,"lng":-89.970198},"address":"\"1110 MIDDLE BUSTER RD\"","zip":"38632","state":"MS","city":"HERNANDO","title":"\"1110 MIDDLE BUSTER RD\"","rcType":"Loan","icon":"blue"},{"position":{"lat":34.976314,"lng":-89.835754},"address":"\"8706 COLLINSWOOD DR\"","zip":"38654","state":"MS","city":"\"OLIVE BRANCH\"","title":"\"8706 COLLINSWOOD DR\"","rcType":"Loan","icon":"white"},{"position":{"lat":35.272881,"lng":-89.648718},"address":"\"5367 SCARLET RIDGE DR\"","zip":"38002","state":"TN","city":"ARLINGTON","title":"\"5367 SCARLET RIDGE DR\"","rcType":"Loan","icon":"blue"},{"position":{"lat":35.543013,"lng":-89.823489},"address":"\"8557 MUNFORD GILTEDGE RD\"","zip":"38015","state":"TN","city":"BURLISON","title":"\"8557 MUNFORD GILTEDGE RD\"","rcType":"Loan","icon":"white"},{"position":{"lat":35.200094,"lng":-89.514962},"address":"\"95 WHISPERING CREEK DR\"","zip":"38060","state":"TN","city":"OAKLAND","title":"\"95 WHISPERING CREEK DR\"","rcType":"Loan","icon":"blue"},{"position":{"lat":34.843513,"lng":-89.972635},"address":"\"1150 MARTIN CIR S\"","zip":"38632","state":"MS","city":"HERNANDO","title":"\"1150 MARTIN CIR S\"","rcType":"Loan","icon":"white"},{"position":{"lat":35.165946,"lng":-89.945867},"address":"\"3443 ROCKWOOD AVE\"","zip":"38122","state":"TN","city":"MEMPHIS","title":"\"3443 ROCKWOOD AVE\"","rcType":"Loan","icon":"white"},{"position":{"lat":35.081024,"lng":-89.772656},"address":"\"2488 OAK TRAIL DR\"","zip":"38139","state":"TN","city":"GERMANTOWN","title":"\"2488 OAK TRAIL DR\"","rcType":"Loan","icon":"blue"},{"position":{"lat":35.017066,"lng":-89.742942},"address":"\"9623 MALLARD LAKE RD\"","zip":"38017","state":"TN","city":"COLLIERVILLE","title":"\"9623 MALLARD LAKE RD\"","rcType":"Loan","icon":"blue"},{"position":{"lat":34.844973,"lng":-89.764972},"address":"\"12694 PEBBLE RIDGE DR\"","zip":"38611","state":"MS","city":"BYHALIA","title":"\"12694 PEBBLE RIDGE DR\"","rcType":"Loan","icon":"white"},{"position":{"lat":35.063921,"lng":-89.726361},"address":"\"3104 COUNTRY PLACE DR E\"","zip":"38017","state":"TN","city":"COLLIERVILLE","title":"\"3104 COUNTRY PLACE DR E\"","rcType":"Loan","icon":"blue"},{"position":{"lat":34.958647,"lng":-89.809625},"address":"\"10176 STEPHENSON LN\"","zip":"38654","state":"MS","city":"\"OLIVE BRANCH\"","title":"\"10176 STEPHENSON LN\"","rcType":"Loan","icon":"blue"},{"position":{"lat":34.622084,"lng":-89.918402},"address":"\"220 SUNNYBROOK DR\"","zip":"38668","state":"MS","city":"SENATOBIA","title":"\"220 SUNNYBROOK DR\"","rcType":"Loan","icon":"blue"},{"position":{"lat":34.964428,"lng":-89.99052},"address":"\"7125 AIRWAYS BLVD\"","zip":"38671","state":"MS","city":"SOUTHAVEN","title":"\"7125 AIRWAYS BLVD\"","rcType":"Loan","icon":"white"},{"position":{"lat":34.98177,"lng":-89.906186},"address":"\"4711 DAVIS GROVE BLVD\"","zip":"38654","state":"MS","city":"\"OLIVE BRANCH\"","title":"\"4711 DAVIS GROVE BLVD\"","rcType":"Loan","icon":"white"},{"position":{"lat":34.734113,"lng":-89.99839},"address":"\"8692 BOBWHITE DR\"","zip":"38632","state":"MS","city":"HERNANDO","title":"\"8692 BOBWHITE DR\"","rcType":"Loan","icon":"blue"},{"position":{"lat":35.149522,"lng":-89.775615},"address":"\"877 RADIANCE DR\"","zip":"38018","state":"TN","city":"CORDOVA","title":"\"877 RADIANCE DR\"","rcType":"Loan","icon":"white"},{"position":{"lat":35.232135,"lng":-89.967687},"address":"\"3905 FERDIE CV\"","zip":"38127","state":"TN","city":"MEMPHIS","title":"\"3905 FERDIE CV\"","rcType":"Loan","icon":"white"},{"position":{"lat":35.093701,"lng":-89.781494},"address":"\"8440 TILDEN CT\"","zip":"38139","state":"TN","city":"GERMANTOWN","title":"\"8440 TILDEN CT\"","rcType":"Loan","icon":"white"},{"position":{"lat":34.914589,"lng":-89.879511},"address":"\"6230 SPRING HILL DR\"","zip":"38654","state":"MS","city":"\"OLIVE BRANCH\"","title":"\"6230 SPRING HILL DR\"","rcType":"Loan","icon":"blue"},{"position":{"lat":35.22651,"lng":-89.749886},"address":"\"9380 ZORRO CV\"","zip":"38133","state":"TN","city":"BARTLETT","title":"\"9380 ZORRO CV\"","rcType":"Loan","icon":"blue"},{"position":{"lat":35.020034,"lng":-89.813557},"address":"\"4710 SPENCE CV\"","zip":"38125","state":"TN","city":"MEMPHIS","title":"\"4710 SPENCE CV\"","rcType":"Loan","icon":"white"},{"position":{"lat":34.89825,"lng":-89.906253},"address":"\"2601 BIENVILLE RD\"","zip":"38651","state":"MS","city":"NESBIT","title":"\"2601 BIENVILLE RD\"","rcType":"Loan","icon":"white"},{"position":{"lat":35.162859,"lng":-89.519907},"address":"\"PAYNE RD\"","zip":"38060","state":"TN","city":"OAKLAND","title":"\"PAYNE RD\"","rcType":"Loan","icon":"white"},{"position":{"lat":34.955463,"lng":-90.046451},"address":"\"3205 MAYFAIR DR\"","zip":"38637","state":"MS","city":"\"HORN LAKE\"","title":"\"3205 MAYFAIR DR\"","rcType":"Loan","icon":"blue"},{"position":{"lat":35.506468,"lng":-89.663007},"address":"\"782 MORRIS RD\"","zip":"38019","state":"TN","city":"COVINGTON","title":"\"782 MORRIS RD\"","rcType":"Loan","icon":"blue"},{"position":{"lat":34.611835,"lng":-89.986522},"address":"\"1028 BROWNSFERRY RD\"","zip":"38668","state":"MS","city":"SENATOBIA","title":"\"1028 BROWNSFERRY RD\"","rcType":"Loan","icon":"white"},{"position":{"lat":34.963063,"lng":-90.048157},"address":"\"3102 GOODMAN RD W\"","zip":"38637","state":"MS","city":"\"HORN LAKE\"","title":"\"3102 GOODMAN RD W\"","rcType":"Loan","icon":"white"},{"position":{"lat":35.196886,"lng":-89.85722},"address":"\"2613 ELMORE PARK RD\"","zip":"38134","state":"TN","city":"BARTLETT","title":"\"2613 ELMORE PARK RD\"","rcType":"Loan","icon":"blue"},{"position":{"lat":34.812686,"lng":-89.985151},"address":"\"3249 MAGNOLIA LEAF DR\"","zip":"38632","state":"MS","city":"HERNANDO","title":"\"3249 MAGNOLIA LEAF DR\"","rcType":"Loan","icon":"white"},{"position":{"lat":34.812159,"lng":-89.98542},"address":"\"236 MAGNOLIA BLOSSOM DR\"","zip":"38632","state":"MS","city":"HERNANDO","title":"\"236 MAGNOLIA BLOSSOM DR\"","rcType":"Loan","icon":"blue"},{"position":{"lat":35.085076,"lng":-89.861373},"address":"\"2348 SYON DR\"","zip":"38119","state":"TN","city":"MEMPHIS","title":"\"2348 SYON DR\"","rcType":"Loan","icon":"white"},{"position":{"lat":34.818443,"lng":-89.923125},"address":"\"3744 FOSSIL HILL DR N\"","zip":"38632","state":"MS","city":"HERNANDO","title":"\"3744 FOSSIL HILL DR N\"","rcType":"Loan","icon":"blue"},{"position":{"lat":34.927252,"lng":-89.893214},"address":"\"4601 W SANDIDGE RD\"","zip":"38654","state":"MS","city":"\"OLIVE BRANCH\"","title":"\"4601 W SANDIDGE RD\"","rcType":"Loan","icon":"blue"},{"position":{"lat":35.10923,"lng":-89.969179},"address":"\"835 JOSEPHINE ST\"","zip":"38114","state":"TN","city":"MEMPHIS","title":"\"835 JOSEPHINE ST\"","rcType":"Loan","icon":"white"},{"position":{"lat":35.083854,"lng":-89.774668},"address":"\"2382 REDBUD TRAIL DR\"","zip":"38139","state":"TN","city":"GERMANTOWN","title":"\"2382 REDBUD TRAIL DR\"","rcType":"Loan","icon":"blue"},{"position":{"lat":35.150086,"lng":-89.828324},"address":"\"7043 PARKBROOK LN\"","zip":"38018","state":"TN","city":"CORDOVA","title":"\"7043 PARKBROOK LN\"","rcType":"Loan","icon":"white"},{"position":{"lat":34.987417,"lng":-90.023231},"address":"\"1884 SOUTHAVEN CIR N\"","zip":"38671","state":"MS","city":"SOUTHAVEN","title":"\"1884 SOUTHAVEN CIR N\"","rcType":"Loan","icon":"white"},{"position":{"lat":35.130897,"lng":-89.648271},"address":"\"226 JAMERSON FARM RD\"","zip":"38017","state":"TN","city":"COLLIERVILLE","title":"\"226 JAMERSON FARM RD\"","rcType":"Loan","icon":"blue"},{"position":{"lat":34.979369,"lng":-89.843232},"address":"","zip":"38654","state":"MS","city":"\"OLIVE BRANCH\"","title":"","rcType":"Loan","icon":"white"},{"position":{"lat":35.196732,"lng":-89.597137},"address":"\"990 BIG BELL LOOP\"","zip":"38028","state":"TN","city":"EADS","title":"\"990 BIG BELL LOOP\"","rcType":"Loan","icon":"white"},{"position":{"lat":35.034371,"lng":-89.821016},"address":"\"7263 N BAY CV\"","zip":"38125","state":"TN","city":"MEMPHIS","title":"\"7263 N BAY CV\"","rcType":"Loan","icon":"blue"},{"position":{"lat":35.178226,"lng":-89.791341},"address":"\"8149 CREEKSIDE CIR S\"","zip":"38016","state":"TN","city":"CORDOVA","title":"\"8149 CREEKSIDE CIR S\"","rcType":"Loan","icon":"blue"},{"position":{"lat":35.128205,"lng":-89.912405},"address":"\"135 GROVE PARK CIR\"","zip":"38117","state":"TN","city":"MEMPHIS","title":"\"135 GROVE PARK CIR\"","rcType":"Loan","icon":"white"},{"position":{"lat":35.121186,"lng":-89.776427},"address":"\"308 MYSEN DR\"","zip":"38018","state":"TN","city":"CORDOVA","title":"\"308 MYSEN DR\"","rcType":"Loan","icon":"white"},{"position":{"lat":34.979929,"lng":-89.942389},"address":"\"2683 BLUE RIDGE DR\"","zip":"38672","state":"MS","city":"SOUTHAVEN","title":"\"2683 BLUE RIDGE DR\"","rcType":"Loan","icon":"blue"},{"position":{"lat":35.062112,"lng":-90.070624},"address":"\"198 RADAR RD\"","zip":"38109","state":"TN","city":"MEMPHIS","title":"\"198 RADAR RD\"","rcType":"Loan","icon":"white"},{"position":{"lat":34.969631,"lng":-90.110993},"address":"\"6835 RANCH RIDGE CV E\"","zip":"38680","state":"MS","city":"WALLS","title":"\"6835 RANCH RIDGE CV E\"","rcType":"Loan","icon":"blue"},{"position":{"lat":35.134656,"lng":-89.650975},"address":"\"350 MONTEREY MILLS RD\"","zip":"38017","state":"TN","city":"COLLIERVILLE","title":"\"350 MONTEREY MILLS RD\"","rcType":"Loan","icon":"blue"},{"position":{"lat":35.09937,"lng":-89.801609},"address":"\"1823 BOULINWOOD LN\"","zip":"38138","state":"TN","city":"GERMANTOWN","title":"\"1823 BOULINWOOD LN\"","rcType":"Loan","icon":"blue"},{"position":{"lat":34.968444,"lng":-90.042428},"address":"\"7151 HAMPTON DR\"","zip":"38637","state":"MS","city":"\"HORN LAKE\"","title":"\"7151 HAMPTON DR\"","rcType":"Loan","icon":"white"},{"position":{"lat":35.081842,"lng":-89.753188},"address":"\"9292 GWYNN HOLLOW CV\"","zip":"38139","state":"TN","city":"GERMANTOWN","title":"\"9292 GWYNN HOLLOW CV\"","rcType":"Loan","icon":"white"},{"position":{"lat":35.241704,"lng":-89.749513},"address":"\"9392 LAKE BRIDGE DR\"","zip":"38002","state":"TN","city":"LAKELAND","title":"\"9392 LAKE BRIDGE DR\"","rcType":"Loan","icon":"blue"},{"position":{"lat":34.961722,"lng":-89.804634},"address":"\"6960 AMANDA DR N\"","zip":"38654","state":"MS","city":"\"OLIVE BRANCH\"","title":"\"6960 AMANDA DR N\"","rcType":"Loan","icon":"blue"},{"position":{"lat":35.209744,"lng":-89.929188},"address":"\"4024 BEECHDALE CV\"","zip":"38128","state":"TN","city":"MEMPHIS","title":"\"4024 BEECHDALE CV\"","rcType":"Loan","icon":"blue"},{"position":{"lat":35.403682,"lng":-89.787498},"address":"\"55 QUAIL HOLLOW CV\"","zip":"38004","state":"TN","city":"ATOKA","title":"\"55 QUAIL HOLLOW CV\"","rcType":"Loan","icon":"white"},{"position":{"lat":35.153476,"lng":-89.371405},"address":"\"HIGHWAY 76\"","zip":"38068","state":"TN","city":"SOMERVILLE","title":"\"HIGHWAY 76\"","rcType":"Loan","icon":"white"},{"position":{"lat":34.957221,"lng":-89.826261},"address":"\"9236 MASON ST\"","zip":"38654","state":"MS","city":"\"OLIVE BRANCH\"","title":"\"9236 MASON ST\"","rcType":"Loan","icon":"blue"},{"position":{"lat":35.335784,"lng":-89.838706},"address":"\"6731 TOMMIE LN\"","zip":"38053","state":"TN","city":"MILLINGTON","title":"\"6731 TOMMIE LN\"","rcType":"Loan","icon":"white"},{"position":{"lat":34.813758,"lng":-89.998534},"address":"\"524 SILO TRCE\"","zip":"38632","state":"MS","city":"HERNANDO","title":"\"524 SILO TRCE\"","rcType":"Loan","icon":"white"},{"position":{"lat":34.926899,"lng":-89.898666},"address":"\"4596 SUMMERS PLACE DR\"","zip":"38654","state":"MS","city":"\"OLIVE BRANCH\"","title":"\"4596 SUMMERS PLACE DR\"","rcType":"Loan","icon":"white"},{"position":{"lat":34.991235,"lng":-89.989146},"address":"\"8960 AIRWAYS BLVD\"","zip":"38671","state":"MS","city":"SOUTHAVEN","title":"\"8960 AIRWAYS BLVD\"","rcType":"Loan","icon":"white"},{"position":{"lat":35.144341,"lng":-89.765083},"address":"\"710 SANGA CREEK RD\"","zip":"38018","state":"TN","city":"CORDOVA","title":"\"710 SANGA CREEK RD\"","rcType":"Loan","icon":"white"},{"position":{"lat":35.208337,"lng":-89.771891},"address":"\"3032 WILTSHIRE CV\"","zip":"38133","state":"TN","city":"BARTLETT","title":"\"3032 WILTSHIRE CV\"","rcType":"Loan","icon":"white"},{"position":{"lat":34.941436,"lng":-90.040322},"address":"\"2855 WINDSOR CV\"","zip":"38637","state":"MS","city":"\"HORN LAKE\"","title":"\"2855 WINDSOR CV\"","rcType":"Loan","icon":"blue"},{"position":{"lat":35.099662,"lng":-89.950379},"address":"\"1173 RAILTON RD\"","zip":"38111","state":"TN","city":"MEMPHIS","title":"\"1173 RAILTON RD\"","rcType":"Loan","icon":"white"},{"position":{"lat":35.228894,"lng":-89.448424},"address":"\"280 CREEK SIDE DR\"","zip":"38068","state":"TN","city":"SOMERVILLE","title":"\"280 CREEK SIDE DR\"","rcType":"Loan","icon":"white"},{"position":{"lat":35.229978,"lng":-89.446057},"address":"\"435 CREEK SIDE DR\"","zip":"38068","state":"TN","city":"SOMERVILLE","title":"\"435 CREEK SIDE DR\"","rcType":"Loan","icon":"blue"},{"position":{"lat":34.82067,"lng":-90.03959},"address":"\"2845 OAK MANOR DR\"","zip":"38632","state":"MS","city":"HERNANDO","title":"\"2845 OAK MANOR DR\"","rcType":"Loan","icon":"blue"},{"position":{"lat":34.913162,"lng":-89.94312},"address":"\"2646 CHERRY TREE DR\"","zip":"38672","state":"MS","city":"SOUTHAVEN","title":"\"2646 CHERRY TREE DR\"","rcType":"Loan","icon":"blue"},{"position":{"lat":34.976168,"lng":-90.031005},"address":"\"2353 COLONIAL HILLS DR\"","zip":"38671","state":"MS","city":"SOUTHAVEN","title":"\"2353 COLONIAL HILLS DR\"","rcType":"Loan","icon":"blue"},{"position":{"lat":35.263874,"lng":-89.612953},"address":"\"1975 ORR RD\"","zip":"38002","state":"TN","city":"ARLINGTON","title":"\"1975 ORR RD\"","rcType":"Loan","icon":"blue"},{"position":{"lat":35.028022,"lng":-90.047541},"address":"\"4426 WHITEVILLE CV\"","zip":"38109","state":"TN","city":"MEMPHIS","title":"\"4426 WHITEVILLE CV\"","rcType":"Loan","icon":"white"},{"position":{"lat":35.126724,"lng":-90.003587},"address":"\"1742 CENTRAL AVE\"","zip":"38104","state":"TN","city":"MEMPHIS","title":"\"1742 CENTRAL AVE\"","rcType":"Loan","icon":"white"},{"position":{"lat":35.198581,"lng":-89.722686},"address":"\"10201 TALL HICKORY DR\"","zip":"38016","state":"TN","city":"CORDOVA","title":"\"10201 TALL HICKORY DR\"","rcType":"Loan","icon":"blue"},{"position":{"lat":34.956107,"lng":-90.071034},"address":"\"4591 PECAN AVE\"","zip":"38637","state":"MS","city":"\"HORN LAKE\"","title":"\"4591 PECAN AVE\"","rcType":"Loan","icon":"white"},{"position":{"lat":35.218195,"lng":-89.44897},"address":"\"215 EMMA RD\"","zip":"38060","state":"TN","city":"OAKLAND","title":"\"215 EMMA RD\"","rcType":"Loan","icon":"white"},{"position":{"lat":34.876493,"lng":-89.867006},"address":"\"1089 MERLOUN DR\"","zip":"38654","state":"MS","city":"\"OLIVE BRANCH\"","title":"\"1089 MERLOUN DR\"","rcType":"Loan","icon":"blue"},{"position":{"lat":34.605596,"lng":-89.791206},"address":"\"1872 CROCKETT RD\"","zip":"38668","state":"MS","city":"SENATOBIA","title":"\"1872 CROCKETT RD\"","rcType":"Loan","icon":"white"},{"position":{"lat":35.610183,"lng":-89.704374},"address":"\"2300 MT LEBANON RD\"","zip":"38019","state":"TN","city":"COVINGTON","title":"\"2300 MT LEBANON RD\"","rcType":"Loan","icon":"blue"},{"position":{"lat":34.840811,"lng":-89.986544},"address":"\"1327 TARA DR\"","zip":"38632","state":"MS","city":"HERNANDO","title":"\"1327 TARA DR\"","rcType":"Loan","icon":"blue"},{"position":{"lat":34.93565,"lng":-90.043449},"address":"\"5143 TULANE RD\"","zip":"38637","state":"MS","city":"\"HORN LAKE\"","title":"\"5143 TULANE RD\"","rcType":"Loan","icon":"white"},{"position":{"lat":34.947611,"lng":-90.077811},"address":"\"4960 PORT NICOLE DR\"","zip":"38637","state":"MS","city":"\"HORN LAKE\"","title":"\"4960 PORT NICOLE DR\"","rcType":"Loan","icon":"white"},{"position":{"lat":34.835849,"lng":-89.96477},"address":"\"1425 MILAM LN\"","zip":"38632","state":"MS","city":"HERNANDO","title":"\"1425 MILAM LN\"","rcType":"Loan","icon":"blue"},{"position":{"lat":35.159691,"lng":-89.763198},"address":"\"8981 RIVER KNOLL DR\"","zip":"38016","state":"TN","city":"CORDOVA","title":"\"8981 RIVER KNOLL DR\"","rcType":"Loan","icon":"white"},{"position":{"lat":34.979414,"lng":-90.01746},"address":"\"1610 COLONIAL HILLS DR\"","zip":"38671","state":"MS","city":"SOUTHAVEN","title":"\"1610 COLONIAL HILLS DR\"","rcType":"Loan","icon":"white"},{"position":{"lat":35.164148,"lng":-89.812113},"address":"\"7519 PAR VIEW CV\"","zip":"38016","state":"TN","city":"CORDOVA","title":"\"7519 PAR VIEW CV\"","rcType":"Loan","icon":"white"},{"position":{"lat":34.612803,"lng":-90.198458},"address":"\"268 MCMASTER RD\"","zip":"38665","state":"MS","city":"SARAH","title":"\"268 MCMASTER RD\"","rcType":"Loan","icon":"white"},{"position":{"lat":35.18256,"lng":-89.515287},"address":"\"60 BONNIE RD\"","zip":"38060","state":"TN","city":"OAKLAND","title":"\"60 BONNIE RD\"","rcType":"Loan","icon":"white"},{"position":{"lat":34.928112,"lng":-89.833939},"address":"\"4655 BELL RIDGE CV\"","zip":"38654","state":"MS","city":"\"OLIVE BRANCH\"","title":"\"4655 BELL RIDGE CV\"","rcType":"Loan","icon":"white"},{"position":{"lat":35.103811,"lng":-89.807637},"address":"\"1653 HAPANO DR\"","zip":"38138","state":"TN","city":"GERMANTOWN","title":"\"1653 HAPANO DR\"","rcType":"Loan","icon":"blue"},{"position":{"lat":35.163743,"lng":-89.378891},"address":"\"345 ALLEN RD\"","zip":"38076","state":"TN","city":"WILLISTON","title":"\"345 ALLEN RD\"","rcType":"Loan","icon":"white"},{"position":{"lat":34.913006,"lng":-89.828589},"address":"\"9100 MITCHELLS FARM CV\"","zip":"38654","state":"MS","city":"\"OLIVE BRANCH\"","title":"\"9100 MITCHELLS FARM CV\"","rcType":"Loan","icon":"blue"},{"position":{"lat":35.387574,"lng":-89.955097},"address":"\"3220 RAST RD\"","zip":"38053","state":"TN","city":"MILLINGTON","title":"\"3220 RAST RD\"","rcType":"Loan","icon":"white"},{"position":{"lat":35.52938,"lng":-89.688429},"address":"\"218 STACEY LN\"","zip":"38011","state":"TN","city":"BRIGHTON","title":"\"218 STACEY LN\"","rcType":"Loan","icon":"white"},{"position":{"lat":34.781458,"lng":-89.810042},"address":"\"10120 FOX GATE DR\"","zip":"38632","state":"MS","city":"HERNANDO","title":"\"10120 FOX GATE DR\"","rcType":"Loan","icon":"blue"},{"position":{"lat":34.937989,"lng":-89.922468},"address":"\"5322 MEADOW POINTE DR\"","zip":"38672","state":"MS","city":"SOUTHAVEN","title":"\"5322 MEADOW POINTE DR\"","rcType":"Loan","icon":"blue"},{"position":{"lat":34.97039,"lng":-89.860745},"address":"\"7261 BUCKBOARD CV\"","zip":"38654","state":"MS","city":"\"OLIVE BRANCH\"","title":"\"7261 BUCKBOARD CV\"","rcType":"Loan","icon":"blue"},{"position":{"lat":35.251773,"lng":-89.388276},"address":"\"1135 FEATHERS CHAPEL DR\"","zip":"38068","state":"TN","city":"SOMERVILLE","title":"\"1135 FEATHERS CHAPEL DR\"","rcType":"Loan","icon":"blue"},{"position":{"lat":34.844616,"lng":-89.97383},"address":"\"910 CARDINAL LN\"","zip":"38632","state":"MS","city":"HERNANDO","title":"\"910 CARDINAL LN\"","rcType":"Loan","icon":"white"},{"position":{"lat":34.822961,"lng":-90.003172},"address":"\"787 W COMMERCE ST\"","zip":"38632","state":"MS","city":"HERNANDO","title":"\"787 W COMMERCE ST\"","rcType":"Loan","icon":"white"},{"position":{"lat":34.930232,"lng":-89.873109},"address":"\"6620 ROLLING HILLS DR\"","zip":"38654","state":"MS","city":"\"OLIVE BRANCH\"","title":"\"6620 ROLLING HILLS DR\"","rcType":"Loan","icon":"blue"},{"position":{"lat":35.116336,"lng":-89.474158},"address":"\"225 BELLE FARMS DR\"","zip":"38076","state":"TN","city":"WILLISTON","title":"\"225 BELLE FARMS DR\"","rcType":"Loan","icon":"white"},{"position":{"lat":35.23882,"lng":-89.820008},"address":"\"7293 LOUELLA AVE\"","zip":"38002","state":"TN","city":"BARTLETT","title":"\"7293 LOUELLA AVE\"","rcType":"Loan","icon":"blue"},{"position":{"lat":34.974467,"lng":-90.031326},"address":"\"7802 COTTON LANE DR\"","zip":"38671","state":"MS","city":"SOUTHAVEN","title":"\"7802 COTTON LANE DR\"","rcType":"Loan","icon":"white"},{"position":{"lat":34.908624,"lng":-89.795876},"address":"\"3329 BETHEL RD\"","zip":"38654","state":"MS","city":"\"OLIVE BRANCH\"","title":"\"3329 BETHEL RD\"","rcType":"Loan","icon":"blue"},{"position":{"lat":35.333233,"lng":-89.725574},"address":"\"10085 MILLINGTON ARLINGTON RD\"","zip":"38002","state":"TN","city":"ARLINGTON","title":"\"10085 MILLINGTON ARLINGTON RD\"","rcType":"Loan","icon":"white"},{"position":{"lat":34.911659,"lng":-89.883223},"address":"\"3601 COLLEGE BLF\"","zip":"38654","state":"MS","city":"\"OLIVE BRANCH\"","title":"\"3601 COLLEGE BLF\"","rcType":"Loan","icon":"blue"},{"position":{"lat":35.047611,"lng":-89.731973},"address":"\"3694 S HOUSTON LEVEE RD\"","zip":"38017","state":"TN","city":"COLLIERVILLE","title":"\"3694 S HOUSTON LEVEE RD\"","rcType":"Loan","icon":"white"},{"position":{"lat":34.945568,"lng":-89.823695},"address":"\"5852 LEES XING\"","zip":"38654","state":"MS","city":"\"OLIVE BRANCH\"","title":"\"5852 LEES XING\"","rcType":"Loan","icon":"white"},{"position":{"lat":35.224456,"lng":-89.753183},"address":"\"3623 VANDERSCHAAF DR\"","zip":"38133","state":"TN","city":"BARTLETT","title":"\"3623 VANDERSCHAAF DR\"","rcType":"Loan","icon":"blue"},{"position":{"lat":34.971171,"lng":-90.129451},"address":"\"7874 MOLLY MEADOW CV\"","zip":"38680","state":"MS","city":"WALLS","title":"\"7874 MOLLY MEADOW CV\"","rcType":"Loan","icon":"blue"},{"position":{"lat":35.204429,"lng":-89.852162},"address":"\"6331 STAGE RD\"","zip":"38134","state":"TN","city":"BARTLETT","title":"\"6331 STAGE RD\"","rcType":"Loan","icon":"white"},{"position":{"lat":35.204243,"lng":-90.002484},"address":"\"1839 CEDARHURST AVE\"","zip":"38127","state":"TN","city":"MEMPHIS","title":"\"1839 CEDARHURST AVE\"","rcType":"Loan","icon":"blue"},{"position":{"lat":34.854279,"lng":-89.974755},"address":"\"435 FAIRWAY OAKS DR\"","zip":"38632","state":"MS","city":"HERNANDO","title":"\"435 FAIRWAY OAKS DR\"","rcType":"Loan","icon":"blue"},{"position":{"lat":34.982723,"lng":-90.004674},"address":"\"828 ACCOMACK CV\"","zip":"38671","state":"MS","city":"SOUTHAVEN","title":"\"828 ACCOMACK CV\"","rcType":"Loan","icon":"blue"},{"position":{"lat":35.23399,"lng":-89.508944},"address":"\"150 MEADOW TERRACE DR\"","zip":"38060","state":"TN","city":"OAKLAND","title":"\"150 MEADOW TERRACE DR\"","rcType":"Loan","icon":"white"},{"position":{"lat":34.986015,"lng":-89.821733},"address":"\"9557 MICHIGAN DR\"","zip":"38654","state":"MS","city":"\"OLIVE BRANCH\"","title":"\"9557 MICHIGAN DR\"","rcType":"Loan","icon":"blue"},{"position":{"lat":34.982726,"lng":-89.926841},"address":"\"3575 SHADY OAKS DR\"","zip":"38654","state":"MS","city":"\"OLIVE BRANCH\"","title":"\"3575 SHADY OAKS DR\"","rcType":"Loan","icon":"white"},{"position":{"lat":34.6221,"lng":-90.14435},"address":"\"740 BLUEGOOSE RD\"","zip":"38665","state":"MS","city":"SARAH","title":"\"740 BLUEGOOSE RD\"","rcType":"Loan","icon":"blue"},{"position":{"lat":35.212176,"lng":-89.824854},"address":"\"3169 BAJA VALLEY DR\"","zip":"38133","state":"TN","city":"BARTLETT","title":"\"3169 BAJA VALLEY DR\"","rcType":"Loan","icon":"white"},{"position":{"lat":35.602034,"lng":-89.633353},"address":"\"1521 HIGHWAY 51 N\"","zip":"38019","state":"TN","city":"COVINGTON","title":"\"1521 HIGHWAY 51 N\"","rcType":"Loan","icon":"white"},{"position":{"lat":35.015747,"lng":-90.050164},"address":"\"410 LORAINE RD\"","zip":"38109","state":"TN","city":"MEMPHIS","title":"\"410 LORAINE RD\"","rcType":"Loan","icon":"blue"},{"position":{"lat":34.950597,"lng":-89.968355},"address":"\"1210 WORTHINGTON DR\"","zip":"38671","state":"MS","city":"SOUTHAVEN","title":"\"1210 WORTHINGTON DR\"","rcType":"Loan","icon":"blue"},{"position":{"lat":34.578381,"lng":-89.965108},"address":"\"545 SOUTHFORK DR\"","zip":"38668","state":"MS","city":"SENATOBIA","title":"\"545 SOUTHFORK DR\"","rcType":"Loan","icon":"blue"},{"position":{"lat":35.109229,"lng":-89.83781},"address":"\"1489 PINE SHADOWS DR\"","zip":"38120","state":"TN","city":"MEMPHIS","title":"\"1489 PINE SHADOWS DR\"","rcType":"Loan","icon":"blue"},{"position":{"lat":34.968395,"lng":-89.876966},"address":"\"6325 ARBOREAL DR\"","zip":"38654","state":"MS","city":"\"OLIVE BRANCH\"","title":"\"6325 ARBOREAL DR\"","rcType":"Loan","icon":"white"},{"position":{"lat":34.964818,"lng":-90.03319},"address":"\"2437 MOONEYHAM LN\"","zip":"38637","state":"MS","city":"\"HORN LAKE\"","title":"\"2437 MOONEYHAM LN\"","rcType":"Loan","icon":"white"},{"position":{"lat":34.928853,"lng":-89.897427},"address":"\"4660 W DUBLIN\"","zip":"38654","state":"MS","city":"\"OLIVE BRANCH\"","title":"\"4660 W DUBLIN\"","rcType":"Loan","icon":"blue"},{"position":{"lat":35.149326,"lng":-89.978345},"address":"\"2426 PARKWAY PL\"","zip":"38112","state":"TN","city":"MEMPHIS","title":"\"2426 PARKWAY PL\"","rcType":"Loan","icon":"white"},{"position":{"lat":35.037658,"lng":-89.820901},"address":"\"4046 VALETA CV\"","zip":"38125","state":"TN","city":"MEMPHIS","title":"\"4046 VALETA CV\"","rcType":"Loan","icon":"white"},{"position":{"lat":35.051479,"lng":-89.709565},"address":"\"3563 NEYLAND CV\"","zip":"38017","state":"TN","city":"COLLIERVILLE","title":"\"3563 NEYLAND CV\"","rcType":"Loan","icon":"blue"},{"position":{"lat":34.964959,"lng":-89.967819},"address":"\"7189 STONEGATE BLVD\"","zip":"38671","state":"MS","city":"SOUTHAVEN","title":"\"7189 STONEGATE BLVD\"","rcType":"Loan","icon":"blue"},{"position":{"lat":35.071082,"lng":-89.831832},"address":"\"2843 MCVAY TRAIL DR\"","zip":"38119","state":"TN","city":"MEMPHIS","title":"\"2843 MCVAY TRAIL DR\"","rcType":"Loan","icon":"white"},{"position":{"lat":35.275781,"lng":-89.581086},"address":"\"7375 BRADEN RD\"","zip":"38002","state":"TN","city":"ARLINGTON","title":"\"7375 BRADEN RD\"","rcType":"Loan","icon":"white"},{"position":{"lat":34.860815,"lng":-90.178474},"address":"\"10684 GREEN RIVER RD\"","zip":"38641","state":"MS","city":"\"LAKE CORMORANT\"","title":"\"10684 GREEN RIVER RD\"","rcType":"Loan","icon":"blue"},{"position":{"lat":34.845926,"lng":-89.993972},"address":"\"229 LINDSEY DR\"","zip":"38632","state":"MS","city":"HERNANDO","title":"\"229 LINDSEY DR\"","rcType":"Loan","icon":"white"},{"position":{"lat":35.096227,"lng":-89.946365},"address":"\"1298 S HIGHLAND ST\"","zip":"38111","state":"TN","city":"MEMPHIS","title":"\"1298 S HIGHLAND ST\"","rcType":"Loan","icon":"white"},{"position":{"lat":35.119819,"lng":-89.87864},"address":"\"5494 LAURIE LN\"","zip":"38120","state":"TN","city":"MEMPHIS","title":"\"5494 LAURIE LN\"","rcType":"Loan","icon":"blue"},{"position":{"lat":35.144675,"lng":-89.943012},"address":"\"3544 SHIRLWOOD AVE\"","zip":"38122","state":"TN","city":"MEMPHIS","title":"\"3544 SHIRLWOOD AVE\"","rcType":"Loan","icon":"white"},{"position":{"lat":35.219836,"lng":-89.445791},"address":"\"150 CHRISTOPHER RD\"","zip":"38060","state":"TN","city":"OAKLAND","title":"\"150 CHRISTOPHER RD\"","rcType":"Loan","icon":"white"},{"position":{"lat":34.975452,"lng":-90.028923},"address":"\"7881 CHARLESTON DR\"","zip":"38671","state":"MS","city":"SOUTHAVEN","title":"\"7881 CHARLESTON DR\"","rcType":"Loan","icon":"blue"},{"position":{"lat":34.952312,"lng":-90.062695},"address":"\"4109 RAVENWOOD DR N\"","zip":"38637","state":"MS","city":"\"HORN LAKE\"","title":"\"4109 RAVENWOOD DR N\"","rcType":"Loan","icon":"white"},{"position":{"lat":34.908637,"lng":-89.786748},"address":"\"11444 ANDREWS PARK DR\"","zip":"38654","state":"MS","city":"\"OLIVE BRANCH\"","title":"\"11444 ANDREWS PARK DR\"","rcType":"Loan","icon":"blue"},{"position":{"lat":35.207346,"lng":-89.889114},"address":"\"2994 CANYON RD\"","zip":"38134","state":"TN","city":"MEMPHIS","title":"\"2994 CANYON RD\"","rcType":"Loan","icon":"blue"},{"position":{"lat":35.119188,"lng":-89.842986},"address":"\"6659 RUE BEAUMONDE DR\"","zip":"38120","state":"TN","city":"MEMPHIS","title":"\"6659 RUE BEAUMONDE DR\"","rcType":"Loan","icon":"blue"},{"position":{"lat":34.972307,"lng":-90.012945},"address":"\"1300 RICHLAND DR\"","zip":"38671","state":"MS","city":"SOUTHAVEN","title":"\"1300 RICHLAND DR\"","rcType":"Loan","icon":"blue"},{"position":{"lat":35.124246,"lng":-89.778144},"address":"\"8538 WOOD COCK CV\"","zip":"38018","state":"TN","city":"CORDOVA","title":"\"8538 WOOD COCK CV\"","rcType":"Loan","icon":"blue"},{"position":{"lat":34.988722,"lng":-90.093009},"address":"\"8771 OAKCHASE CV\"","zip":"38680","state":"MS","city":"WALLS","title":"\"8771 OAKCHASE CV\"","rcType":"Loan","icon":"blue"},{"position":{"lat":35.15499,"lng":-89.896672},"address":"\"4920 OWEN AVE\"","zip":"38122","state":"TN","city":"MEMPHIS","title":"\"4920 OWEN AVE\"","rcType":"Loan","icon":"white"},{"position":{"lat":35.032423,"lng":-89.811999},"address":"\"7533 WILSFORD CV\"","zip":"38125","state":"TN","city":"MEMPHIS","title":"\"7533 WILSFORD CV\"","rcType":"Loan","icon":"blue"},{"position":{"lat":34.937848,"lng":-89.812742},"address":"\"10015 VICTOR DR\"","zip":"38654","state":"MS","city":"\"OLIVE BRANCH\"","title":"\"10015 VICTOR DR\"","rcType":"Loan","icon":"blue"},{"position":{"lat":35.228914,"lng":-89.920617},"address":"\"3781 HANNA DR\"","zip":"38128","state":"TN","city":"MEMPHIS","title":"\"3781 HANNA DR\"","rcType":"Loan","icon":"white"},{"position":{"lat":35.286542,"lng":-89.973319},"address":"\"5877 HAMLET RD\"","zip":"38053","state":"TN","city":"MILLINGTON","title":"\"5877 HAMLET RD\"","rcType":"Loan","icon":"white"},{"position":{"lat":35.282906,"lng":-89.644749},"address":"\"12528 GEORGE SELBY DR\"","zip":"38002","state":"TN","city":"ARLINGTON","title":"\"12528 GEORGE SELBY DR\"","rcType":"Loan","icon":"blue"},{"position":{"lat":35.218272,"lng":-89.441664},"address":"\"2895 WARREN RD\"","zip":"38060","state":"TN","city":"OAKLAND","title":"\"2895 WARREN RD\"","rcType":"Loan","icon":"white"},{"position":{"lat":34.962012,"lng":-89.993539},"address":"\"215 GOODMAN RD W\"","zip":"38671","state":"MS","city":"SOUTHAVEN","title":"\"215 GOODMAN RD W\"","rcType":"Loan","icon":"white"},{"position":{"lat":34.770129,"lng":-89.814797},"address":"\"106 HARVEST RD\"","zip":"38618","state":"MS","city":"COLDWATER","title":"\"106 HARVEST RD\"","rcType":"Loan","icon":"white"},{"position":{"lat":35.128101,"lng":-89.97071},"address":"\"145 PLAINVIEW ST\"","zip":"38111","state":"TN","city":"MEMPHIS","title":"\"145 PLAINVIEW ST\"","rcType":"Loan","icon":"white"},{"position":{"lat":34.818908,"lng":-90.021913},"address":"\"1848 DAISY DR\"","zip":"38632","state":"MS","city":"HERNANDO","title":"\"1848 DAISY DR\"","rcType":"Loan","icon":"blue"},{"position":{"lat":34.949319,"lng":-89.726365},"address":"\"7 BARTON DESOTO RD\"","zip":"38654","state":"MS","city":"\"OLIVE BRANCH\"","title":"\"7 BARTON DESOTO RD\"","rcType":"Loan","icon":"white"},{"position":{"lat":35.224213,"lng":-89.939391},"address":"\"3721 SOUTHRIDGE AVE\"","zip":"38128","state":"TN","city":"MEMPHIS","title":"\"3721 SOUTHRIDGE AVE\"","rcType":"Loan","icon":"white"},{"position":{"lat":34.691158,"lng":-89.921417},"address":"\"104 OAK HILL CV\"","zip":"38618","state":"MS","city":"COLDWATER","title":"\"104 OAK HILL CV\"","rcType":"Loan","icon":"blue"},{"position":{"lat":34.965917,"lng":-89.881877},"address":"\"7300 DAVIDSON RD\"","zip":"38654","state":"MS","city":"\"OLIVE BRANCH\"","title":"\"7300 DAVIDSON RD\"","rcType":"Loan","icon":"blue"},{"position":{"lat":34.992843,"lng":-89.840103},"address":"\"9110 BROOKHOLLOW DR\"","zip":"38654","state":"MS","city":"\"OLIVE BRANCH\"","title":"\"9110 BROOKHOLLOW DR\"","rcType":"Loan","icon":"blue"},{"position":{"lat":34.670982,"lng":-89.853264},"address":"\"2541 POAGVILLE RD\"","zip":"38618","state":"MS","city":"COLDWATER","title":"\"2541 POAGVILLE RD\"","rcType":"Loan","icon":"blue"},{"position":{"lat":35.574433,"lng":-89.662981},"address":"\"212 GROOM AVE\"","zip":"38019","state":"TN","city":"COVINGTON","title":"\"212 GROOM AVE\"","rcType":"Loan","icon":"blue"},{"position":{"lat":35.112283,"lng":-90.007709},"address":"\"1641 FOSTER AVE\"","zip":"38106","state":"TN","city":"MEMPHIS","title":"\"1641 FOSTER AVE\"","rcType":"Loan","icon":"white"},{"position":{"lat":35.127025,"lng":-90.009857},"address":"\"1560 CENTRAL AVE\"","zip":"38104","state":"TN","city":"MEMPHIS","title":"\"1560 CENTRAL AVE\"","rcType":"Loan","icon":"white"},{"position":{"lat":35.078798,"lng":-89.832137},"address":"\"2570 TIGRETT CV\"","zip":"38119","state":"TN","city":"MEMPHIS","title":"\"2570 TIGRETT CV\"","rcType":"Loan","icon":"white"},{"position":{"lat":34.867227,"lng":-89.823305},"address":"\"469 BONNIE BLUE LN\"","zip":"38654","state":"MS","city":"\"OLIVE BRANCH\"","title":"\"469 BONNIE BLUE LN\"","rcType":"Loan","icon":"blue"},{"position":{"lat":34.991722,"lng":-89.891424},"address":"\"9060 WILLOW BRANCH DR\"","zip":"38654","state":"MS","city":"\"OLIVE BRANCH\"","title":"\"9060 WILLOW BRANCH DR\"","rcType":"Loan","icon":"blue"},{"position":{"lat":35.142503,"lng":-89.942053},"address":"\"3575 CHARLESWOOD AVE\"","zip":"38122","state":"TN","city":"MEMPHIS","title":"\"3575 CHARLESWOOD AVE\"","rcType":"Loan","icon":"white"},{"position":{"lat":35.196089,"lng":-89.595924},"address":"\"1050 BIG BELL LOOP\"","zip":"38028","state":"TN","city":"EADS","title":"\"1050 BIG BELL LOOP\"","rcType":"Loan","icon":"blue"},{"position":{"lat":35.092929,"lng":-89.721716},"address":"\"1807 LILES LN\"","zip":"38017","state":"TN","city":"COLLIERVILLE","title":"\"1807 LILES LN\"","rcType":"Loan","icon":"blue"},{"position":{"lat":34.966726,"lng":-89.877641},"address":"\"6292 IVY OAKS CV\"","zip":"38654","state":"MS","city":"\"OLIVE BRANCH\"","title":"\"6292 IVY OAKS CV\"","rcType":"Loan","icon":"blue"},{"position":{"lat":35.154132,"lng":-89.302425},"address":"\"6175 LAGRANGE RD\"","zip":"38068","state":"TN","city":"SOMERVILLE","title":"\"6175 LAGRANGE RD\"","rcType":"Loan","icon":"white"},{"position":{"lat":35.15556,"lng":-90.010329},"address":"\"1449 TUTWILER AVE\"","zip":"38107","state":"TN","city":"MEMPHIS","title":"\"1449 TUTWILER AVE\"","rcType":"Loan","icon":"white"},{"position":{"lat":35.269835,"lng":-89.714082},"address":"\"5271 SAFFRON SPRING DR\"","zip":"38002","state":"TN","city":"LAKELAND","title":"\"5271 SAFFRON SPRING DR\"","rcType":"Loan","icon":"blue"},{"position":{"lat":35.252463,"lng":-89.415959},"address":"\"2705 FEATHERS CHAPEL DR\"","zip":"38068","state":"TN","city":"SOMERVILLE","title":"\"2705 FEATHERS CHAPEL DR\"","rcType":"Loan","icon":"blue"},{"position":{"lat":34.844553,"lng":-89.974957},"address":"\"846 CARDINAL LN\"","zip":"38632","state":"MS","city":"HERNANDO","title":"\"846 CARDINAL LN\"","rcType":"Loan","icon":"white"},{"position":{"lat":34.982274,"lng":-89.79162},"address":"\"8464 SUMMIT CV\"","zip":"38654","state":"MS","city":"\"OLIVE BRANCH\"","title":"\"8464 SUMMIT CV\"","rcType":"Loan","icon":"white"},{"position":{"lat":35.530918,"lng":-89.690925},"address":"\"75 DAWN LN\"","zip":"38011","state":"TN","city":"BRIGHTON","title":"\"75 DAWN LN\"","rcType":"Loan","icon":"blue"},{"position":{"lat":35.100537,"lng":-89.839928},"address":"\"1779 KIRBY PKWY\"","zip":"38138","state":"TN","city":"MEMPHIS","title":"\"1779 KIRBY PKWY\"","rcType":"Loan","icon":"white"},{"position":{"lat":35.366675,"lng":-89.495959},"address":"\"2735 SINAI DR\"","zip":"38049","state":"TN","city":"MASON","title":"\"2735 SINAI DR\"","rcType":"Loan","icon":"white"},{"position":{"lat":34.946183,"lng":-89.974253},"address":"\"5876 LANDAU DR\"","zip":"38671","state":"MS","city":"SOUTHAVEN","title":"\"5876 LANDAU DR\"","rcType":"Loan","icon":"white"},{"position":{"lat":34.862878,"lng":-89.765239},"address":"\"12690 BYHALIA RD\"","zip":"38611","state":"MS","city":"BYHALIA","title":"\"12690 BYHALIA RD\"","rcType":"Loan","icon":"blue"},{"position":{"lat":34.786672,"lng":-89.804629},"address":"\"5072 HIGHWAY 305 S\"","zip":"38632","state":"MS","city":"HERNANDO","title":"\"5072 HIGHWAY 305 S\"","rcType":"Loan","icon":"white"},{"position":{"lat":34.920467,"lng":-89.937553},"address":"\"2963 GLENNBURY LN\"","zip":"38672","state":"MS","city":"SOUTHAVEN","title":"\"2963 GLENNBURY LN\"","rcType":"Loan","icon":"blue"},{"position":{"lat":35.201166,"lng":-89.354814},"address":"\"9995 HIGHWAY 76 S\"","zip":"38068","state":"TN","city":"SOMERVILLE","title":"\"9995 HIGHWAY 76 S\"","rcType":"Loan","icon":"white"},{"position":{"lat":34.929834,"lng":-89.935197},"address":"\"4765 THORNBURY CV\"","zip":"38672","state":"MS","city":"SOUTHAVEN","title":"\"4765 THORNBURY CV\"","rcType":"Loan","icon":"blue"},{"position":{"lat":35.210418,"lng":-89.853151},"address":"\"3103 NEWMARKET DR\"","zip":"38134","state":"TN","city":"BARTLETT","title":"\"3103 NEWMARKET DR\"","rcType":"Loan","icon":"blue"},{"position":{"lat":35.422958,"lng":-89.777313},"address":"\"259 TREBING PKWY\"","zip":"38004","state":"TN","city":"ATOKA","title":"\"259 TREBING PKWY\"","rcType":"Loan","icon":"white"},{"position":{"lat":34.907954,"lng":-89.894323},"address":"\"3290 PLEASANT HILL RD\"","zip":"38654","state":"MS","city":"\"OLIVE BRANCH\"","title":"\"3290 PLEASANT HILL RD\"","rcType":"Loan","icon":"blue"}]