[{"position":{"lat":31.020142,"lng":-97.759885},"address":"\"HIGHWAY 195\"","zip":"76549","state":"TX","city":"KILLEEN","title":"\"HIGHWAY 195\"","rcType":"Loan","icon":"white"},{"position":{"lat":31.029704,"lng":-97.507737},"address":"\"5748 RED FISH CT\"","zip":"76513","state":"TX","city":"BELTON","title":"\"5748 RED FISH CT\"","rcType":"Loan","icon":"white"},{"position":{"lat":31.036718,"lng":-97.524568},"address":"\"4724 STONEOAK DR\"","zip":"76513","state":"TX","city":"BELTON","title":"\"4724 STONEOAK DR\"","rcType":"Loan","icon":"white"},{"position":{"lat":31.048475,"lng":-98.187475},"address":"\"525 NARUNA RD\"","zip":"76550","state":"TX","city":"LAMPASAS","title":"\"525 NARUNA RD\"","rcType":"Loan","icon":"white"},{"position":{"lat":31.091583,"lng":-97.798554},"address":"\"4509 JOHN DAVID DR\"","zip":"76549","state":"TX","city":"KILLEEN","title":"\"4509 JOHN DAVID DR\"","rcType":"Loan","icon":"white"},{"position":{"lat":31.040475,"lng":-97.591763},"address":"\"HIGHVIEW DR\"","zip":"76548","state":"TX","city":"\"HARKER HEIGHTS\"","title":"\"HIGHVIEW DR\"","rcType":"Loan","icon":"white"},{"position":{"lat":31.091299,"lng":-97.675649},"address":"\"6201 SPRINGBROOK CIR\"","zip":"76543","state":"TX","city":"KILLEEN","title":"\"6201 SPRINGBROOK CIR\"","rcType":"Loan","icon":"white"},{"position":{"lat":31.092185,"lng":-97.428942},"address":"\"2518 INCA DOVE DR\"","zip":"76502","state":"TX","city":"TEMPLE","title":"\"2518 INCA DOVE DR\"","rcType":"Loan","icon":"white"},{"position":{"lat":31.104168,"lng":-97.751511},"address":"\"1505 GOLDEN EAGLE CT\"","zip":"76549","state":"TX","city":"KILLEEN","title":"\"1505 GOLDEN EAGLE CT\"","rcType":"Loan","icon":"white"},{"position":{"lat":31.142764,"lng":-97.425738},"address":"\"8534 GLADE DR\"","zip":"76502","state":"TX","city":"TEMPLE","title":"\"8534 GLADE DR\"","rcType":"Loan","icon":"white"},{"position":{"lat":31.056654,"lng":-97.359827},"address":"\"4212 S 5TH ST\"","zip":"76502","state":"TX","city":"TEMPLE","title":"\"4212 S 5TH ST\"","rcType":"Loan","icon":"white"},{"position":{"lat":31.093369,"lng":-97.429486},"address":"\"7306 GOLDEN HEART DR\"","zip":"76502","state":"TX","city":"TEMPLE","title":"\"7306 GOLDEN HEART DR\"","rcType":"Loan","icon":"white"},{"position":{"lat":31.078124,"lng":-97.605343},"address":"\"202 N MAIN ST\"","zip":"76559","state":"TX","city":"NOLANVILLE","title":"\"202 N MAIN ST\"","rcType":"Loan","icon":"white"},{"position":{"lat":31.143329,"lng":-97.425174},"address":"\"2202 BIGTOOTH MAPLE RD\"","zip":"76502","state":"TX","city":"TEMPLE","title":"\"2202 BIGTOOTH MAPLE RD\"","rcType":"Loan","icon":"white"},{"position":{"lat":31.123866,"lng":-97.340958},"address":"\"952 FANNIN LOOP\"","zip":"76501","state":"TX","city":"TEMPLE","title":"\"952 FANNIN LOOP\"","rcType":"Loan","icon":"white"},{"position":{"lat":30.937466,"lng":-97.479151},"address":"\"765 QUAIL RIDGE RD\"","zip":"76571","state":"TX","city":"SALADO","title":"\"765 QUAIL RIDGE RD\"","rcType":"Loan","icon":"white"},{"position":{"lat":31.06339,"lng":-97.386156},"address":"\"2809 CREEK SIDE DR\"","zip":"76502","state":"TX","city":"TEMPLE","title":"\"2809 CREEK SIDE DR\"","rcType":"Loan","icon":"white"},{"position":{"lat":31.133421,"lng":-97.47465},"address":"\"110 LAGO VIENTO LN\"","zip":"76513","state":"TX","city":"BELTON","title":"\"110 LAGO VIENTO LN\"","rcType":"Loan","icon":"white"},{"position":{"lat":31.478008,"lng":-97.835241},"address":"\"5335 FM 2412\"","zip":"76528","state":"TX","city":"GATESVILLE","title":"\"5335 FM 2412\"","rcType":"Loan","icon":"white"},{"position":{"lat":31.431654,"lng":-97.742642},"address":"\"412 S 14TH ST\"","zip":"76528","state":"TX","city":"GATESVILLE","title":"\"412 S 14TH ST\"","rcType":"Loan","icon":"white"},{"position":{"lat":30.988003,"lng":-97.737078},"address":"\"339 FAY DR\"","zip":"76542","state":"TX","city":"KILLEEN","title":"\"339 FAY DR\"","rcType":"Loan","icon":"white"},{"position":{"lat":31.045828,"lng":-97.640769},"address":"\"2602 TECHNY DR\"","zip":"76548","state":"TX","city":"\"HARKER HEIGHTS\"","title":"\"2602 TECHNY DR\"","rcType":"Loan","icon":"white"},{"position":{"lat":31.085128,"lng":-97.352744},"address":"\"1309 S 13TH ST\"","zip":"76504","state":"TX","city":"TEMPLE","title":"\"1309 S 13TH ST\"","rcType":"Loan","icon":"white"},{"position":{"lat":31.152653,"lng":-97.465977},"address":"\"26 BRANDING IRON DR\"","zip":"76513","state":"TX","city":"BELTON","title":"\"26 BRANDING IRON DR\"","rcType":"Loan","icon":"white"},{"position":{"lat":31.035118,"lng":-97.460109},"address":"\"1927 ALLIE WAY\"","zip":"76513","state":"TX","city":"BELTON","title":"\"1927 ALLIE WAY\"","rcType":"Loan","icon":"white"},{"position":{"lat":30.944803,"lng":-97.523728},"address":"\"1218 LOGAN BLVD\"","zip":"76571","state":"TX","city":"SALADO","title":"\"1218 LOGAN BLVD\"","rcType":"Loan","icon":"white"},{"position":{"lat":31.045868,"lng":-97.637184},"address":"\"2530 JUBILATION DR\"","zip":"76548","state":"TX","city":"\"HARKER HEIGHTS\"","title":"\"2530 JUBILATION DR\"","rcType":"Loan","icon":"white"},{"position":{"lat":30.986334,"lng":-97.553634},"address":"\"5331 W AMITY RD\"","zip":"76571","state":"TX","city":"SALADO","title":"\"5331 W AMITY RD\"","rcType":"Loan","icon":"white"},{"position":{"lat":30.938156,"lng":-97.585495},"address":"\"1224 HIDDEN PARK CT\"","zip":"76571","state":"TX","city":"SALADO","title":"\"1224 HIDDEN PARK CT\"","rcType":"Loan","icon":"white"},{"position":{"lat":30.981495,"lng":-97.58764},"address":"\"8102 FM 2484\"","zip":"76571","state":"TX","city":"SALADO","title":"\"8102 FM 2484\"","rcType":"Loan","icon":"white"},{"position":{"lat":30.944147,"lng":-97.524455},"address":"\"1206 BRODY WAY\"","zip":"76571","state":"TX","city":"SALADO","title":"\"1206 BRODY WAY\"","rcType":"Loan","icon":"white"},{"position":{"lat":31.043644,"lng":-97.638202},"address":"\"2544 JUBILATION DR\"","zip":"76548","state":"TX","city":"\"HARKER HEIGHTS\"","title":"\"2544 JUBILATION DR\"","rcType":"Loan","icon":"white"},{"position":{"lat":31.075932,"lng":-97.53448},"address":"\"6747 PADDY HAMILTON RD\"","zip":"76513","state":"TX","city":"BELTON","title":"\"6747 PADDY HAMILTON RD\"","rcType":"Loan","icon":"white"},{"position":{"lat":31.162045,"lng":-97.25814},"address":"\"5119 BOTTOMS EAST RD\"","zip":"76579","state":"TX","city":"TROY","title":"\"5119 BOTTOMS EAST RD\"","rcType":"Loan","icon":"white"},{"position":{"lat":31.143127,"lng":-97.428867},"address":"\"8909 GLADE DR\"","zip":"76502","state":"TX","city":"TEMPLE","title":"\"8909 GLADE DR\"","rcType":"Loan","icon":"white"},{"position":{"lat":31.14317,"lng":-97.429025},"address":"\"8913 GLADE DR\"","zip":"76502","state":"TX","city":"TEMPLE","title":"\"8913 GLADE DR\"","rcType":"Loan","icon":"white"},{"position":{"lat":31.180995,"lng":-97.449003},"address":"\"169 METHEGLIN DR\"","zip":"76502","state":"TX","city":"TEMPLE","title":"\"169 METHEGLIN DR\"","rcType":"Loan","icon":"white"},{"position":{"lat":31.142387,"lng":-97.42726},"address":"\"2028 CLEAR SKY CT\"","zip":"76502","state":"TX","city":"TEMPLE","title":"\"2028 CLEAR SKY CT\"","rcType":"Loan","icon":"white"},{"position":{"lat":31.038996,"lng":-97.371319},"address":"\"814 WYNDCREST DR\"","zip":"76502","state":"TX","city":"TEMPLE","title":"\"814 WYNDCREST DR\"","rcType":"Loan","icon":"white"},{"position":{"lat":31.097128,"lng":-97.47651},"address":"\"2521 BLUFF CIR\"","zip":"76513","state":"TX","city":"BELTON","title":"\"2521 BLUFF CIR\"","rcType":"Loan","icon":"white"},{"position":{"lat":31.097084,"lng":-97.475858},"address":"\"2553 BLUFF CIR\"","zip":"76513","state":"TX","city":"BELTON","title":"\"2553 BLUFF CIR\"","rcType":"Loan","icon":"white"},{"position":{"lat":31.473908,"lng":-97.796003},"address":"\"3075 MOCCASIN BEND RD\"","zip":"76528","state":"TX","city":"GATESVILLE","title":"\"3075 MOCCASIN BEND RD\"","rcType":"Loan","icon":"white"},{"position":{"lat":31.321527,"lng":-97.468121},"address":"\"200 LONESOME DOVE\"","zip":"76557","state":"TX","city":"MOODY","title":"\"200 LONESOME DOVE\"","rcType":"Loan","icon":"white"},{"position":{"lat":31.083469,"lng":-97.42001},"address":"\"6202 PAT COLE RD\"","zip":"76502","state":"TX","city":"TEMPLE","title":"\"6202 PAT COLE RD\"","rcType":"Loan","icon":"white"},{"position":{"lat":31.1302,"lng":-97.4598},"address":"\"11114 WEATHERFORD DR\"","zip":"76513","state":"TX","city":"BELTON","title":"\"11114 WEATHERFORD DR\"","rcType":"Loan","icon":"white"},{"position":{"lat":31.13533,"lng":-98.084381},"address":"\"933 COUNTY ROAD 3463\"","zip":"76539","state":"TX","city":"KEMPNER","title":"\"933 COUNTY ROAD 3463\"","rcType":"Loan","icon":"white"},{"position":{"lat":31.078068,"lng":-98.220388},"address":"\"124 HILLSIDE\"","zip":"76550","state":"TX","city":"LAMPASAS","title":"\"124 HILLSIDE\"","rcType":"Loan","icon":"white"},{"position":{"lat":31.078068,"lng":-98.220388},"address":"\"100 HILLSIDE\"","zip":"76550","state":"TX","city":"LAMPASAS","title":"\"100 HILLSIDE\"","rcType":"Loan","icon":"white"},{"position":{"lat":31.08434,"lng":-97.605218},"address":"\"205 W LORRIE AVE\"","zip":"76559","state":"TX","city":"NOLANVILLE","title":"\"205 W LORRIE AVE\"","rcType":"Loan","icon":"white"},{"position":{"lat":31.027828,"lng":-97.520351},"address":"\"4706 GUILDFORD DR\"","zip":"76513","state":"TX","city":"BELTON","title":"\"4706 GUILDFORD DR\"","rcType":"Loan","icon":"white"},{"position":{"lat":31.11808,"lng":-97.338759},"address":"\"504 MAYBORN DR\"","zip":"76501","state":"TX","city":"TEMPLE","title":"\"504 MAYBORN DR\"","rcType":"Loan","icon":"white"},{"position":{"lat":31.209473,"lng":-97.431387},"address":"\"8905 FM 2409\"","zip":"76557","state":"TX","city":"MOODY","title":"\"8905 FM 2409\"","rcType":"Loan","icon":"white"},{"position":{"lat":31.128155,"lng":-97.471769},"address":"\"451 GREEN PARK DR\"","zip":"76513","state":"TX","city":"BELTON","title":"\"451 GREEN PARK DR\"","rcType":"Loan","icon":"white"},{"position":{"lat":31.121039,"lng":-97.433713},"address":"\"8509 IOWA AVE\"","zip":"76502","state":"TX","city":"TEMPLE","title":"\"8509 IOWA AVE\"","rcType":"Loan","icon":"white"},{"position":{"lat":31.027285,"lng":-97.448569},"address":"\"2603 BELLE HUBBARD TRL\"","zip":"76513","state":"TX","city":"BELTON","title":"\"2603 BELLE HUBBARD TRL\"","rcType":"Loan","icon":"white"},{"position":{"lat":31.12789,"lng":-97.42622},"address":"\"ASHBERRY DR\"","zip":"76502","state":"TX","city":"TEMPLE","title":"\"ASHBERRY DR\"","rcType":"Loan","icon":"white"},{"position":{"lat":31.02604,"lng":-97.448194},"address":"\"2632 BELLE HUBBARD TRL\"","zip":"76513","state":"TX","city":"BELTON","title":"\"2632 BELLE HUBBARD TRL\"","rcType":"Loan","icon":"white"},{"position":{"lat":31.025777,"lng":-97.447963},"address":"\"2640 BELLE HUBBARD TRL\"","zip":"76513","state":"TX","city":"BELTON","title":"\"2640 BELLE HUBBARD TRL\"","rcType":"Loan","icon":"white"},{"position":{"lat":30.998938,"lng":-97.560173},"address":"\"8301 BREWER LN\"","zip":"76571","state":"TX","city":"SALADO","title":"\"8301 BREWER LN\"","rcType":"Loan","icon":"white"},{"position":{"lat":31.026172,"lng":-97.448309},"address":"\"2628 BELLE HUBBARD TRL\"","zip":"76513","state":"TX","city":"BELTON","title":"\"2628 BELLE HUBBARD TRL\"","rcType":"Loan","icon":"white"},{"position":{"lat":30.974246,"lng":-97.612628},"address":"\"7670 SHINY TOP RANCH LN\"","zip":"76571","state":"TX","city":"SALADO","title":"\"7670 SHINY TOP RANCH LN\"","rcType":"Loan","icon":"white"},{"position":{"lat":31.045998,"lng":-97.408674},"address":"\"4102 BURTON LN\"","zip":"76502","state":"TX","city":"TEMPLE","title":"\"4102 BURTON LN\"","rcType":"Loan","icon":"white"},{"position":{"lat":30.966913,"lng":-97.814368},"address":"\"973 CRESTWOOD DR\"","zip":"76549","state":"TX","city":"KILLEEN","title":"\"973 CRESTWOOD DR\"","rcType":"Loan","icon":"white"},{"position":{"lat":31.192168,"lng":-97.495554},"address":"\"4918 COMANCHE DR\"","zip":"76502","state":"TX","city":"TEMPLE","title":"\"4918 COMANCHE DR\"","rcType":"Loan","icon":"white"},{"position":{"lat":30.878748,"lng":-97.464774},"address":"\"5973 HACKBERRY RD\"","zip":"76571","state":"TX","city":"SALADO","title":"\"5973 HACKBERRY RD\"","rcType":"Loan","icon":"white"},{"position":{"lat":31.077821,"lng":-97.666139},"address":"\"307 E CHEROKEE DR\"","zip":"76548","state":"TX","city":"\"HARKER HEIGHTS\"","title":"\"307 E CHEROKEE DR\"","rcType":"Loan","icon":"white"},{"position":{"lat":31.057637,"lng":-97.722827},"address":"\"5143 ONION RD\"","zip":"76542","state":"TX","city":"KILLEEN","title":"\"5143 ONION RD\"","rcType":"Loan","icon":"white"},{"position":{"lat":31.050977,"lng":-97.377683},"address":"\"5213 LEANING TREE\"","zip":"76502","state":"TX","city":"TEMPLE","title":"\"5213 LEANING TREE\"","rcType":"Loan","icon":"white"},{"position":{"lat":31.038664,"lng":-97.363702},"address":"\"5920 STANFORD DR\"","zip":"76502","state":"TX","city":"TEMPLE","title":"\"5920 STANFORD DR\"","rcType":"Loan","icon":"white"},{"position":{"lat":31.118888,"lng":-97.986745},"address":"\"3421 COUNTY ROAD 3300\"","zip":"76539","state":"TX","city":"KEMPNER","title":"\"3421 COUNTY ROAD 3300\"","rcType":"Loan","icon":"white"},{"position":{"lat":31.039169,"lng":-97.371979},"address":"\"830 WYNDCREST DR\"","zip":"76502","state":"TX","city":"TEMPLE","title":"\"830 WYNDCREST DR\"","rcType":"Loan","icon":"white"},{"position":{"lat":30.906543,"lng":-97.396421},"address":"\"FM 1123\"","zip":"76534","state":"TX","city":"HOLLAND","title":"\"FM 1123\"","rcType":"Loan","icon":"white"},{"position":{"lat":31.034692,"lng":-97.360995},"address":"\"6213 TESS RD\"","zip":"76502","state":"TX","city":"TEMPLE","title":"\"6213 TESS RD\"","rcType":"Loan","icon":"white"},{"position":{"lat":31.074167,"lng":-97.674309},"address":"\"101 W FM 2410 RD\"","zip":"76548","state":"TX","city":"\"HARKER HEIGHTS\"","title":"\"101 W FM 2410 RD\"","rcType":"Loan","icon":"white"},{"position":{"lat":30.983089,"lng":-97.361731},"address":"\"501 S DUDLEY ST\"","zip":"76554","state":"TX","city":"\"LITTLE RIVER ACADEMY\"","title":"\"501 S DUDLEY ST\"","rcType":"Loan","icon":"white"},{"position":{"lat":31.056858,"lng":-98.173975},"address":"\"615 CENTRAL TEXAS EXPY\"","zip":"76550","state":"TX","city":"LAMPASAS","title":"\"615 CENTRAL TEXAS EXPY\"","rcType":"Loan","icon":"white"},{"position":{"lat":31.068705,"lng":-97.387336},"address":"\"3801 LAUREL RD\"","zip":"76502","state":"TX","city":"TEMPLE","title":"\"3801 LAUREL RD\"","rcType":"Loan","icon":"white"},{"position":{"lat":31.124971,"lng":-97.430537},"address":"\"8413 ALABAMA AVE\"","zip":"76502","state":"TX","city":"TEMPLE","title":"\"8413 ALABAMA AVE\"","rcType":"Loan","icon":"white"},{"position":{"lat":31.051295,"lng":-97.690901},"address":"\"5621 TUMBLED STONE DR\"","zip":"76542","state":"TX","city":"KILLEEN","title":"\"5621 TUMBLED STONE DR\"","rcType":"Loan","icon":"white"},{"position":{"lat":31.130543,"lng":-97.905564},"address":"\"503 HILL ST\"","zip":"76522","state":"TX","city":"\"COPPERAS COVE\"","title":"\"503 HILL ST\"","rcType":"Loan","icon":"white"},{"position":{"lat":31.085475,"lng":-97.467158},"address":"\"510 KINNEY DR\"","zip":"76513","state":"TX","city":"BELTON","title":"\"510 KINNEY DR\"","rcType":"Loan","icon":"white"},{"position":{"lat":31.106832,"lng":-98.024684},"address":"\"486 PRIVATE ROAD 3180\"","zip":"76539","state":"TX","city":"KEMPNER","title":"\"486 PRIVATE ROAD 3180\"","rcType":"Loan","icon":"white"},{"position":{"lat":31.431097,"lng":-97.732713},"address":"\"2303 BRIDGE ST\"","zip":"76528","state":"TX","city":"GATESVILLE","title":"\"2303 BRIDGE ST\"","rcType":"Loan","icon":"white"},{"position":{"lat":31.130118,"lng":-98.113796},"address":"\"1665 N US HIGHWAY 281\"","zip":"76550","state":"TX","city":"LAMPASAS","title":"\"1665 N US HIGHWAY 281\"","rcType":"Loan","icon":"white"},{"position":{"lat":31.131814,"lng":-97.731332},"address":"\"709 W DEAN AVE\"","zip":"76541","state":"TX","city":"KILLEEN","title":"\"709 W DEAN AVE\"","rcType":"Loan","icon":"white"},{"position":{"lat":31.154051,"lng":-97.470733},"address":"\"36 RIVERSTONE PKWY\"","zip":"76513","state":"TX","city":"BELTON","title":"\"36 RIVERSTONE PKWY\"","rcType":"Loan","icon":"white"},{"position":{"lat":31.062652,"lng":-97.64159},"address":"\"1408 HOPI TRL\"","zip":"76548","state":"TX","city":"\"HARKER HEIGHTS\"","title":"\"1408 HOPI TRL\"","rcType":"Loan","icon":"white"},{"position":{"lat":31.114541,"lng":-98.030346},"address":"\"550 COUNTY ROAD 3152\"","zip":"76539","state":"TX","city":"KEMPNER","title":"\"550 COUNTY ROAD 3152\"","rcType":"Loan","icon":"white"},{"position":{"lat":31.154696,"lng":-97.467808},"address":"\"25 SOBRANTE RD\"","zip":"76513","state":"TX","city":"BELTON","title":"\"25 SOBRANTE RD\"","rcType":"Loan","icon":"white"},{"position":{"lat":31.051779,"lng":-97.669328},"address":"\"311 WROUGHT IRON DR\"","zip":"76548","state":"TX","city":"\"HARKER HEIGHTS\"","title":"\"311 WROUGHT IRON DR\"","rcType":"Loan","icon":"white"},{"position":{"lat":31.182181,"lng":-98.010837},"address":"\"COTTONWOOD MESA DR\"","zip":"76539","state":"TX","city":"KEMPNER","title":"\"COTTONWOOD MESA DR\"","rcType":"Loan","icon":"white"},{"position":{"lat":31.16341,"lng":-97.968715},"address":"\"515 BONNIE LEA RD\"","zip":"76522","state":"TX","city":"\"COPPERAS COVE\"","title":"\"515 BONNIE LEA RD\"","rcType":"Loan","icon":"white"},{"position":{"lat":31.178801,"lng":-98.013737},"address":"\"COTTONWOOD MESA DR\"","zip":"","state":"TX","city":"","title":"\"COTTONWOOD MESA DR\"","rcType":"Loan","icon":"white"},{"position":{"lat":31.433499,"lng":-97.736432},"address":"\"204 SPINDLETOP ST\"","zip":"76528","state":"TX","city":"GATESVILLE","title":"\"204 SPINDLETOP ST\"","rcType":"Loan","icon":"white"},{"position":{"lat":31.093646,"lng":-97.748782},"address":"\"313 BAUMANN DR\"","zip":"76542","state":"TX","city":"KILLEEN","title":"\"313 BAUMANN DR\"","rcType":"Loan","icon":"white"},{"position":{"lat":31.111336,"lng":-98.036227},"address":"\"1001 COUNTY ROAD 3152\"","zip":"76539","state":"TX","city":"KEMPNER","title":"\"1001 COUNTY ROAD 3152\"","rcType":"Loan","icon":"white"},{"position":{"lat":31.181088,"lng":-98.006202},"address":"\"1588 COTTONWOOD MESA DR\"","zip":"76539","state":"TX","city":"KEMPNER","title":"\"1588 COTTONWOOD MESA DR\"","rcType":"Loan","icon":"white"},{"position":{"lat":31.113461,"lng":-98.029566},"address":"\"573 COUNTY ROAD 3152\"","zip":"76539","state":"TX","city":"KEMPNER","title":"\"573 COUNTY ROAD 3152\"","rcType":"Loan","icon":"white"},{"position":{"lat":31.093191,"lng":-97.68825},"address":"\"1214 DOGWOOD BLVD\"","zip":"76543","state":"TX","city":"KILLEEN","title":"\"1214 DOGWOOD BLVD\"","rcType":"Loan","icon":"white"},{"position":{"lat":31.080419,"lng":-97.452332},"address":"\"504 E 26TH AVE\"","zip":"76513","state":"TX","city":"BELTON","title":"\"504 E 26TH AVE\"","rcType":"Loan","icon":"white"},{"position":{"lat":31.037784,"lng":-97.479128},"address":"\"1015 FRANKLIN CIR\"","zip":"76513","state":"TX","city":"BELTON","title":"\"1015 FRANKLIN CIR\"","rcType":"Loan","icon":"white"},{"position":{"lat":31.094328,"lng":-97.804631},"address":"\"5703 JIM AVE\"","zip":"76549","state":"TX","city":"KILLEEN","title":"\"5703 JIM AVE\"","rcType":"Loan","icon":"white"},{"position":{"lat":31.103119,"lng":-97.542024},"address":"\"2816 BOWLES RANCH RD\"","zip":"76513","state":"TX","city":"BELTON","title":"\"2816 BOWLES RANCH RD\"","rcType":"Loan","icon":"white"},{"position":{"lat":31.153653,"lng":-97.478202},"address":"\"3 S CLIFFWOOD CIR\"","zip":"76513","state":"TX","city":"BELTON","title":"\"3 S CLIFFWOOD CIR\"","rcType":"Loan","icon":"white"},{"position":{"lat":31.067478,"lng":-97.333005},"address":"\"1800 PECAN CREEK ST\"","zip":"76504","state":"TX","city":"TEMPLE","title":"\"1800 PECAN CREEK ST\"","rcType":"Loan","icon":"white"},{"position":{"lat":31.057381,"lng":-97.902179},"address":"\"3440 UPTON DR\"","zip":"76539","state":"TX","city":"KEMPNER","title":"\"3440 UPTON DR\"","rcType":"Loan","icon":"white"},{"position":{"lat":31.180654,"lng":-98.000873},"address":"\"1541 COTTONWOOD MESA DR\"","zip":"76539","state":"TX","city":"KEMPNER","title":"\"1541 COTTONWOOD MESA DR\"","rcType":"Loan","icon":"white"},{"position":{"lat":31.06971,"lng":-97.686161},"address":"\"5102 ROSE GARDEN LOOP\"","zip":"76542","state":"TX","city":"KILLEEN","title":"\"5102 ROSE GARDEN LOOP\"","rcType":"Loan","icon":"white"},{"position":{"lat":31.069387,"lng":-97.687249},"address":"\"5002 ROSE GARDEN LOOP\"","zip":"76542","state":"TX","city":"KILLEEN","title":"\"5002 ROSE GARDEN LOOP\"","rcType":"Loan","icon":"white"},{"position":{"lat":31.038649,"lng":-97.478699},"address":"\"2107 BLACKHAWK LOOP\"","zip":"76513","state":"TX","city":"BELTON","title":"\"2107 BLACKHAWK LOOP\"","rcType":"Loan","icon":"white"},{"position":{"lat":31.070437,"lng":-97.683622},"address":"\"5224 ROSE GARDEN LOOP\"","zip":"76542","state":"TX","city":"KILLEEN","title":"\"5224 ROSE GARDEN LOOP\"","rcType":"Loan","icon":"white"},{"position":{"lat":31.070376,"lng":-97.683822},"address":"\"5222 ROSE GARDEN LOOP\"","zip":"76542","state":"TX","city":"KILLEEN","title":"\"5222 ROSE GARDEN LOOP\"","rcType":"Loan","icon":"white"},{"position":{"lat":31.038352,"lng":-97.47771},"address":"\"2131 BLACKHAWK LOOP\"","zip":"76513","state":"TX","city":"BELTON","title":"\"2131 BLACKHAWK LOOP\"","rcType":"Loan","icon":"white"},{"position":{"lat":30.960076,"lng":-97.521546},"address":"\"2013 CHISHOLM TRL\"","zip":"76571","state":"TX","city":"SALADO","title":"\"2013 CHISHOLM TRL\"","rcType":"Loan","icon":"white"},{"position":{"lat":31.061089,"lng":-98.211961},"address":"\"246 COUNTY ROAD 1024\"","zip":"76550","state":"TX","city":"LAMPASAS","title":"\"246 COUNTY ROAD 1024\"","rcType":"Loan","icon":"white"},{"position":{"lat":31.193717,"lng":-97.491992},"address":"\"5249 COMANCHE DR\"","zip":"76502","state":"TX","city":"TEMPLE","title":"\"5249 COMANCHE DR\"","rcType":"Loan","icon":"white"},{"position":{"lat":30.989584,"lng":-97.780358},"address":"\"129 RED MAPLE CIR\"","zip":"76549","state":"TX","city":"KILLEEN","title":"\"129 RED MAPLE CIR\"","rcType":"Loan","icon":"white"},{"position":{"lat":31.04207,"lng":-98.020541},"address":"\"3917 COUNTY ROAD 4390\"","zip":"76539","state":"TX","city":"KEMPNER","title":"\"3917 COUNTY ROAD 4390\"","rcType":"Loan","icon":"white"},{"position":{"lat":31.20878,"lng":-97.982965},"address":"\"4301 FM 1113\"","zip":"76522","state":"TX","city":"\"COPPERAS COVE\"","title":"\"4301 FM 1113\"","rcType":"Loan","icon":"white"},{"position":{"lat":31.070385,"lng":-97.686323},"address":"\"5108 RED ROSE XING\"","zip":"76542","state":"TX","city":"KILLEEN","title":"\"5108 RED ROSE XING\"","rcType":"Loan","icon":"white"},{"position":{"lat":30.949664,"lng":-97.280543},"address":"\"9987 REEDS LAKE RD\"","zip":"76569","state":"TX","city":"ROGERS","title":"\"9987 REEDS LAKE RD\"","rcType":"Loan","icon":"white"},{"position":{"lat":31.13533,"lng":-98.084381},"address":"\"933 COUNTY ROAD 3463\"","zip":"76539","state":"TX","city":"KEMPNER","title":"\"933 COUNTY ROAD 3463\"","rcType":"Loan","icon":"white"},{"position":{"lat":31.056459,"lng":-98.227234},"address":"\"1020 CR\"","zip":"76550","state":"TX","city":"LAMPASAS","title":"\"1020 CR\"","rcType":"Loan","icon":"white"},{"position":{"lat":31.135135,"lng":-97.420583},"address":"\"7813 NORTHGATE LOOP\"","zip":"76502","state":"TX","city":"TEMPLE","title":"\"7813 NORTHGATE LOOP\"","rcType":"Loan","icon":"white"},{"position":{"lat":31.06816,"lng":-97.791409},"address":"\"GOBLIN DR\"","zip":"76549","state":"TX","city":"KILLEEN","title":"\"GOBLIN DR\"","rcType":"Loan","icon":"white"},{"position":{"lat":31.081137,"lng":-97.641287},"address":"\"750 E CENTRAL TEXAS EXPY\"","zip":"76548","state":"TX","city":"\"HARKER HEIGHTS\"","title":"\"750 E CENTRAL TEXAS EXPY\"","rcType":"Loan","icon":"white"},{"position":{"lat":31.221968,"lng":-97.481679},"address":"\"10118 WATERVIEW CV\"","zip":"76557","state":"TX","city":"MOODY","title":"\"10118 WATERVIEW CV\"","rcType":"Loan","icon":"white"},{"position":{"lat":31.042236,"lng":-97.639051},"address":"\"2552 JUBILATION DR\"","zip":"76548","state":"TX","city":"\"HARKER HEIGHTS\"","title":"\"2552 JUBILATION DR\"","rcType":"Loan","icon":"white"},{"position":{"lat":30.973002,"lng":-97.608159},"address":"\"7702 SHINY TOP RANCH LN\"","zip":"76571","state":"TX","city":"SALADO","title":"\"7702 SHINY TOP RANCH LN\"","rcType":"Loan","icon":"white"},{"position":{"lat":31.222034,"lng":-97.482836},"address":"\"10106 WATERVIEW CV\"","zip":"76528","state":"TX","city":"GATESVILLE","title":"\"10106 WATERVIEW CV\"","rcType":"Loan","icon":"white"},{"position":{"lat":31.172221,"lng":-97.999993},"address":"\"1967 COUNTY ROAD 3270\"","zip":"76539","state":"TX","city":"KEMPNER","title":"\"1967 COUNTY ROAD 3270\"","rcType":"Loan","icon":"white"},{"position":{"lat":31.221523,"lng":-97.990998},"address":"\"2260 FM 580\"","zip":"76522","state":"TX","city":"\"COPPERAS COVE\"","title":"\"2260 FM 580\"","rcType":"Loan","icon":"white"},{"position":{"lat":31.06863,"lng":-97.79119},"address":"\"GOBLIN DR\"","zip":"76549","state":"TX","city":"KILLEEN","title":"\"GOBLIN DR\"","rcType":"Loan","icon":"white"},{"position":{"lat":31.164603,"lng":-97.966991},"address":"\"557 LINDORBET RD\"","zip":"76522","state":"TX","city":"\"COPPERAS COVE\"","title":"\"557 LINDORBET RD\"","rcType":"Loan","icon":"white"},{"position":{"lat":31.211457,"lng":-97.430746},"address":"\"FM 2409\"","zip":"76557","state":"TX","city":"MOODY","title":"\"FM 2409\"","rcType":"Loan","icon":"white"},{"position":{"lat":31.05293,"lng":-97.38955},"address":"\"5302 BENTWOOD LN\"","zip":"76502","state":"TX","city":"TEMPLE","title":"\"5302 BENTWOOD LN\"","rcType":"Loan","icon":"white"},{"position":{"lat":30.913314,"lng":-97.254554},"address":"\"15710 SYPERT BRANCH RD\"","zip":"76569","state":"TX","city":"ROGERS","title":"\"15710 SYPERT BRANCH RD\"","rcType":"Loan","icon":"white"},{"position":{"lat":31.180509,"lng":-97.996757},"address":"\"3270 CR\"","zip":"76539","state":"TX","city":"KEMPNER","title":"\"3270 CR\"","rcType":"Loan","icon":"white"},{"position":{"lat":31.175644,"lng":-98.004037},"address":"\"3270 CR\"","zip":"76539","state":"TX","city":"KEMPNER","title":"\"3270 CR\"","rcType":"Loan","icon":"white"},{"position":{"lat":31.084085,"lng":-97.367266},"address":"\"1813 S 37TH ST\"","zip":"76504","state":"TX","city":"TEMPLE","title":"\"1813 S 37TH ST\"","rcType":"Loan","icon":"white"},{"position":{"lat":30.955804,"lng":-97.305914},"address":"\"15013 REEDS LAKE LOOP\"","zip":"76569","state":"TX","city":"ROGERS","title":"\"15013 REEDS LAKE LOOP\"","rcType":"Loan","icon":"white"},{"position":{"lat":31.043283,"lng":-97.373333},"address":"\"1118 FAIRFAX TRL\"","zip":"76502","state":"TX","city":"TEMPLE","title":"\"1118 FAIRFAX TRL\"","rcType":"Loan","icon":"white"},{"position":{"lat":31.450406,"lng":-97.705483},"address":"\"403 ROCKY RD\"","zip":"76528","state":"TX","city":"GATESVILLE","title":"\"403 ROCKY RD\"","rcType":"Loan","icon":"white"},{"position":{"lat":31.080232,"lng":-98.187115},"address":"\"1189 N US HIGHWAY 281\"","zip":"76550","state":"TX","city":"LAMPASAS","title":"\"1189 N US HIGHWAY 281\"","rcType":"Loan","icon":"white"},{"position":{"lat":30.959662,"lng":-97.505126},"address":"\"2516 INDIAN MILL RD\"","zip":"76571","state":"TX","city":"SALADO","title":"\"2516 INDIAN MILL RD\"","rcType":"Loan","icon":"white"},{"position":{"lat":31.075397,"lng":-97.689729},"address":"\"CENTRAL TX\"","zip":"76542","state":"TX","city":"KILLEEN","title":"\"CENTRAL TX\"","rcType":"Loan","icon":"white"},{"position":{"lat":31.120229,"lng":-97.738269},"address":"\"60 GILMER ST\"","zip":"76541","state":"TX","city":"KILLEEN","title":"\"60 GILMER ST\"","rcType":"Loan","icon":"white"},{"position":{"lat":31.010919,"lng":-97.202601},"address":"\"14477 STRINGTOWN RD\"","zip":"76501","state":"TX","city":"TEMPLE","title":"\"14477 STRINGTOWN RD\"","rcType":"Loan","icon":"white"},{"position":{"lat":31.221202,"lng":-97.32704},"address":"\"2734 ROCK RD\"","zip":"76579","state":"TX","city":"TROY","title":"\"2734 ROCK RD\"","rcType":"Loan","icon":"white"},{"position":{"lat":31.011501,"lng":-97.431528},"address":"\"274 GLENVIEW CIR\"","zip":"76513","state":"TX","city":"BELTON","title":"\"274 GLENVIEW CIR\"","rcType":"Loan","icon":"white"},{"position":{"lat":31.115662,"lng":-97.419986},"address":"\"205 MEADOWBROOK DR\"","zip":"76502","state":"TX","city":"TEMPLE","title":"\"205 MEADOWBROOK DR\"","rcType":"Loan","icon":"white"},{"position":{"lat":31.053023,"lng":-98.08362},"address":"\"266 COUNTY ROAD 4314\"","zip":"76550","state":"TX","city":"LAMPASAS","title":"\"266 COUNTY ROAD 4314\"","rcType":"Loan","icon":"white"},{"position":{"lat":31.045764,"lng":-97.657146},"address":"\"2606 CORTONA ST\"","zip":"76548","state":"TX","city":"\"HARKER HEIGHTS\"","title":"\"2606 CORTONA ST\"","rcType":"Loan","icon":"white"},{"position":{"lat":31.114819,"lng":-97.721401},"address":"\"1037 E VETERANS MEMORIAL BLVD\"","zip":"76541","state":"TX","city":"KILLEEN","title":"\"1037 E VETERANS MEMORIAL BLVD\"","rcType":"Loan","icon":"white"},{"position":{"lat":31.09291,"lng":-97.781146},"address":"\"3807 BOLIVAR DR\"","zip":"76549","state":"TX","city":"KILLEEN","title":"\"3807 BOLIVAR DR\"","rcType":"Loan","icon":"white"},{"position":{"lat":31.073744,"lng":-97.548895},"address":"\"421 MESSER RANCH RD\"","zip":"76513","state":"TX","city":"BELTON","title":"\"421 MESSER RANCH RD\"","rcType":"Loan","icon":"white"},{"position":{"lat":30.989044,"lng":-97.428363},"address":"\"801 ARCHIE LN\"","zip":"76513","state":"TX","city":"BELTON","title":"\"801 ARCHIE LN\"","rcType":"Loan","icon":"white"},{"position":{"lat":31.04266,"lng":-97.955122},"address":"\"576 PRAIRIE 4717\"","zip":"76539","state":"TX","city":"KEMPNER","title":"\"576 PRAIRIE 4717\"","rcType":"Loan","icon":"white"},{"position":{"lat":31.089333,"lng":-97.365967},"address":"\"1304 S 37TH ST\"","zip":"76504","state":"TX","city":"TEMPLE","title":"\"1304 S 37TH ST\"","rcType":"Loan","icon":"white"},{"position":{"lat":30.982168,"lng":-97.548572},"address":"\"9701 LOOKOUT OAKS CT\"","zip":"76571","state":"TX","city":"SALADO","title":"\"9701 LOOKOUT OAKS CT\"","rcType":"Loan","icon":"white"},{"position":{"lat":31.117768,"lng":-97.666511},"address":"\"1901 TWILIGHT DR\"","zip":"76543","state":"TX","city":"KILLEEN","title":"\"1901 TWILIGHT DR\"","rcType":"Loan","icon":"white"},{"position":{"lat":31.117636,"lng":-97.732949},"address":"\"200 W VETERANS MEMORIAL BLVD\"","zip":"76541","state":"TX","city":"KILLEEN","title":"\"200 W VETERANS MEMORIAL BLVD\"","rcType":"Loan","icon":"white"},{"position":{"lat":31.095745,"lng":-97.688261},"address":"\"5209 E VETERANS MEMORIAL BLVD\"","zip":"76543","state":"TX","city":"KILLEEN","title":"\"5209 E VETERANS MEMORIAL BLVD\"","rcType":"Loan","icon":"white"},{"position":{"lat":31.136711,"lng":-97.415843},"address":"\"1705 SPENCE ST\"","zip":"76502","state":"TX","city":"TEMPLE","title":"\"1705 SPENCE ST\"","rcType":"Loan","icon":"white"},{"position":{"lat":31.102036,"lng":-97.4464},"address":"\"8919 LAUREL RDG\"","zip":"76502","state":"TX","city":"TEMPLE","title":"\"8919 LAUREL RDG\"","rcType":"Loan","icon":"white"},{"position":{"lat":31.050408,"lng":-97.649087},"address":"\"1307 CESARINA ST\"","zip":"76548","state":"TX","city":"\"HARKER HEIGHTS\"","title":"\"1307 CESARINA ST\"","rcType":"Loan","icon":"white"},{"position":{"lat":31.084946,"lng":-97.766062},"address":"\"1401 LOYAL LN\"","zip":"76549","state":"TX","city":"KILLEEN","title":"\"1401 LOYAL LN\"","rcType":"Loan","icon":"white"},{"position":{"lat":31.019613,"lng":-97.764178},"address":"\"CREEK PLACE DR\"","zip":"76549","state":"TX","city":"KILLEEN","title":"\"CREEK PLACE DR\"","rcType":"Loan","icon":"white"},{"position":{"lat":31.058027,"lng":-97.341163},"address":"\"1506 FIDDLE WOOD WAY\"","zip":"76502","state":"TX","city":"TEMPLE","title":"\"1506 FIDDLE WOOD WAY\"","rcType":"Loan","icon":"white"},{"position":{"lat":31.058117,"lng":-97.341481},"address":"\"1422 FIDDLE WOOD WAY\"","zip":"76502","state":"TX","city":"TEMPLE","title":"\"1422 FIDDLE WOOD WAY\"","rcType":"Loan","icon":"white"},{"position":{"lat":31.058162,"lng":-97.341639},"address":"\"1418 FIDDLE WOOD WAY\"","zip":"76502","state":"TX","city":"TEMPLE","title":"\"1418 FIDDLE WOOD WAY\"","rcType":"Loan","icon":"white"},{"position":{"lat":31.030799,"lng":-97.387082},"address":"\"7098 TROYAN LN\"","zip":"76502","state":"TX","city":"TEMPLE","title":"\"7098 TROYAN LN\"","rcType":"Loan","icon":"white"},{"position":{"lat":31.430056,"lng":-97.744768},"address":"\"1108 COLLEGE ST\"","zip":"76528","state":"TX","city":"GATESVILLE","title":"\"1108 COLLEGE ST\"","rcType":"Loan","icon":"white"},{"position":{"lat":30.988802,"lng":-97.586565},"address":"\"8221 MOUNTAIN DR\"","zip":"76571","state":"TX","city":"SALADO","title":"\"8221 MOUNTAIN DR\"","rcType":"Loan","icon":"white"},{"position":{"lat":31.048235,"lng":-97.563499},"address":"\"1040 ONONDAGA WAY\"","zip":"76513","state":"TX","city":"BELTON","title":"\"1040 ONONDAGA WAY\"","rcType":"Loan","icon":"white"},{"position":{"lat":30.795184,"lng":-97.329562},"address":"\"FM 487\"","zip":"76511","state":"TX","city":"BARTLETT","title":"\"FM 487\"","rcType":"Loan","icon":"white"},{"position":{"lat":31.055533,"lng":-97.339673},"address":"\"3805 MCCLELAND CREEEK TRL\"","zip":"76502","state":"TX","city":"TEMPLE","title":"\"3805 MCCLELAND CREEEK TRL\"","rcType":"Loan","icon":"white"},{"position":{"lat":31.146691,"lng":-97.927758},"address":"\"303 APPALOOSA DR\"","zip":"76522","state":"TX","city":"\"COPPERAS COVE\"","title":"\"303 APPALOOSA DR\"","rcType":"Loan","icon":"white"},{"position":{"lat":31.205281,"lng":-97.314609},"address":"\"701 JUNIPER DR\"","zip":"76579","state":"TX","city":"TROY","title":"\"701 JUNIPER DR\"","rcType":"Loan","icon":"white"},{"position":{"lat":31.058999,"lng":-97.341549},"address":"\"1414 CURLEW LN\"","zip":"76502","state":"TX","city":"TEMPLE","title":"\"1414 CURLEW LN\"","rcType":"Loan","icon":"white"},{"position":{"lat":31.078253,"lng":-97.327678},"address":"\"1243 HONOR LN\"","zip":"76501","state":"TX","city":"TEMPLE","title":"\"1243 HONOR LN\"","rcType":"Loan","icon":"white"},{"position":{"lat":31.078453,"lng":-97.327605},"address":"\"1231 HONOR LN\"","zip":"76501","state":"TX","city":"TEMPLE","title":"\"1231 HONOR LN\"","rcType":"Loan","icon":"white"},{"position":{"lat":30.978149,"lng":-97.579832},"address":"\"8226 COLLINS CREEK DR\"","zip":"76571","state":"TX","city":"SALADO","title":"\"8226 COLLINS CREEK DR\"","rcType":"Loan","icon":"white"},{"position":{"lat":31.078326,"lng":-97.328183},"address":"\"1248 HONOR LN\"","zip":"76501","state":"TX","city":"TEMPLE","title":"\"1248 HONOR LN\"","rcType":"Loan","icon":"white"},{"position":{"lat":31.08024,"lng":-97.722272},"address":"\"3402 S W S YOUNG DR\"","zip":"76542","state":"TX","city":"KILLEEN","title":"\"3402 S W S YOUNG DR\"","rcType":"Loan","icon":"white"},{"position":{"lat":30.971977,"lng":-97.582337},"address":"\"8414 SPRING CREEK LOOP\"","zip":"76571","state":"TX","city":"SALADO","title":"\"8414 SPRING CREEK LOOP\"","rcType":"Loan","icon":"white"},{"position":{"lat":31.214133,"lng":-98.033972},"address":"\"13599 PRIVATE ROAD 3642\"","zip":"76539","state":"TX","city":"KEMPNER","title":"\"13599 PRIVATE ROAD 3642\"","rcType":"Loan","icon":"white"},{"position":{"lat":31.43343,"lng":-97.788017},"address":"\"1802 W MAIN ST\"","zip":"76528","state":"TX","city":"GATESVILLE","title":"\"1802 W MAIN ST\"","rcType":"Loan","icon":"white"},{"position":{"lat":31.195725,"lng":-97.495744},"address":"\"15933 CROCKETT DR\"","zip":"76502","state":"TX","city":"TEMPLE","title":"\"15933 CROCKETT DR\"","rcType":"Loan","icon":"white"},{"position":{"lat":31.043602,"lng":-97.584973},"address":"\"4125 LAGO VISTA DR\"","zip":"76513","state":"TX","city":"BELTON","title":"\"4125 LAGO VISTA DR\"","rcType":"Loan","icon":"white"},{"position":{"lat":31.056525,"lng":-97.388309},"address":"\"4707 ASCOT PKWY\"","zip":"76502","state":"TX","city":"TEMPLE","title":"\"4707 ASCOT PKWY\"","rcType":"Loan","icon":"white"},{"position":{"lat":30.948245,"lng":-97.555259},"address":"\"2135 THOMAS ARNOLD RD\"","zip":"76571","state":"TX","city":"SALADO","title":"\"2135 THOMAS ARNOLD RD\"","rcType":"Loan","icon":"white"},{"position":{"lat":30.960321,"lng":-97.510783},"address":"\"2020 T H JONES MILL WAY\"","zip":"76571","state":"TX","city":"SALADO","title":"\"2020 T H JONES MILL WAY\"","rcType":"Loan","icon":"white"},{"position":{"lat":31.423306,"lng":-97.691336},"address":"\"501 THACKSTON\"","zip":"76528","state":"TX","city":"GATESVILLE","title":"\"501 THACKSTON\"","rcType":"Loan","icon":"white"},{"position":{"lat":31.047757,"lng":-97.676676},"address":"\"5111 SILTSTONE LOOP\"","zip":"76542","state":"TX","city":"KILLEEN","title":"\"5111 SILTSTONE LOOP\"","rcType":"Loan","icon":"white"},{"position":{"lat":30.989075,"lng":-97.779142},"address":"\"113 RED MAPLE CIR\"","zip":"76549","state":"TX","city":"KILLEEN","title":"\"113 RED MAPLE CIR\"","rcType":"Loan","icon":"white"},{"position":{"lat":30.989588,"lng":-97.778339},"address":"\"109 RED MAPLE CIR\"","zip":"76549","state":"TX","city":"KILLEEN","title":"\"109 RED MAPLE CIR\"","rcType":"Loan","icon":"white"},{"position":{"lat":30.991651,"lng":-97.779303},"address":"\"164 RED MAPLE CIR\"","zip":"76549","state":"TX","city":"KILLEEN","title":"\"164 RED MAPLE CIR\"","rcType":"Loan","icon":"white"},{"position":{"lat":31.260964,"lng":-97.491464},"address":"\"DEER RIDGE RD\"","zip":"76557","state":"TX","city":"MOODY","title":"\"DEER RIDGE RD\"","rcType":"Loan","icon":"white"},{"position":{"lat":30.794939,"lng":-97.423573},"address":"\"445 E BELL ST\"","zip":"76511","state":"TX","city":"BARTLETT","title":"\"445 E BELL ST\"","rcType":"Loan","icon":"white"},{"position":{"lat":31.38326,"lng":-98.158352},"address":"\"1580 COUNTY ROAD 3900\"","zip":"76550","state":"TX","city":"LAMPASAS","title":"\"1580 COUNTY ROAD 3900\"","rcType":"Loan","icon":"white"},{"position":{"lat":30.991476,"lng":-97.7779},"address":"\"1022 MAGNOLIA RD\"","zip":"76549","state":"TX","city":"KILLEEN","title":"\"1022 MAGNOLIA RD\"","rcType":"Loan","icon":"white"},{"position":{"lat":30.99109,"lng":-97.775099},"address":"\"1009 MAGNOLIA RD\"","zip":"76549","state":"TX","city":"KILLEEN","title":"\"1009 MAGNOLIA RD\"","rcType":"Loan","icon":"white"},{"position":{"lat":30.994127,"lng":-97.780059},"address":"\"1041 MAGNOLIA RD\"","zip":"76549","state":"TX","city":"KILLEEN","title":"\"1041 MAGNOLIA RD\"","rcType":"Loan","icon":"white"},{"position":{"lat":30.992356,"lng":-97.776592},"address":"\"1021 MAGNOLIA RD\"","zip":"76549","state":"TX","city":"KILLEEN","title":"\"1021 MAGNOLIA RD\"","rcType":"Loan","icon":"white"},{"position":{"lat":31.106366,"lng":-97.675161},"address":"\"PROGRESS DR\"","zip":"76543","state":"TX","city":"KILLEEN","title":"\"PROGRESS DR\"","rcType":"Loan","icon":"white"},{"position":{"lat":30.905966,"lng":-97.475162},"address":"\"15073 ARMSTRONG ESTS\"","zip":"76571","state":"TX","city":"SALADO","title":"\"15073 ARMSTRONG ESTS\"","rcType":"Loan","icon":"white"},{"position":{"lat":31.431109,"lng":-97.732543},"address":"\"2305 BRIDGE ST\"","zip":"76528","state":"TX","city":"GATESVILLE","title":"\"2305 BRIDGE ST\"","rcType":"Loan","icon":"white"},{"position":{"lat":31.035928,"lng":-98.143563},"address":"\"4109 S HIGHWAY 183\"","zip":"76550","state":"TX","city":"LAMPASAS","title":"\"4109 S HIGHWAY 183\"","rcType":"Loan","icon":"white"},{"position":{"lat":30.908467,"lng":-97.475454},"address":"\"15025 ARMSTRONG ESTS\"","zip":"76571","state":"TX","city":"SALADO","title":"\"15025 ARMSTRONG ESTS\"","rcType":"Loan","icon":"white"},{"position":{"lat":31.010724,"lng":-97.47877},"address":"\"4951 TOLLBRIDGE RD\"","zip":"76513","state":"TX","city":"BELTON","title":"\"4951 TOLLBRIDGE RD\"","rcType":"Loan","icon":"white"},{"position":{"lat":30.959996,"lng":-97.508636},"address":"\"2014 CHALK MILL XING\"","zip":"76571","state":"TX","city":"SALADO","title":"\"2014 CHALK MILL XING\"","rcType":"Loan","icon":"white"},{"position":{"lat":31.069225,"lng":-97.639526},"address":"\"1504 PORT DR\"","zip":"76548","state":"TX","city":"\"HARKER HEIGHTS\"","title":"\"1504 PORT DR\"","rcType":"Loan","icon":"white"},{"position":{"lat":30.976168,"lng":-97.580081},"address":"\"8300 CATES CREEK DR\"","zip":"76571","state":"TX","city":"SALADO","title":"\"8300 CATES CREEK DR\"","rcType":"Loan","icon":"white"},{"position":{"lat":31.035141,"lng":-97.753974},"address":"\"9402 CRICKET DR\"","zip":"76542","state":"TX","city":"KILLEEN","title":"\"9402 CRICKET DR\"","rcType":"Loan","icon":"white"},{"position":{"lat":31.089177,"lng":-97.666331},"address":"\"108 W KATHEY RD\"","zip":"76548","state":"TX","city":"\"HARKER HEIGHTS\"","title":"\"108 W KATHEY RD\"","rcType":"Loan","icon":"white"},{"position":{"lat":31.095622,"lng":-97.704746},"address":"\"1503 GREY FOX TRL\"","zip":"76543","state":"TX","city":"KILLEEN","title":"\"1503 GREY FOX TRL\"","rcType":"Loan","icon":"white"},{"position":{"lat":31.047258,"lng":-97.569064},"address":"\"2089 BALCONES PL\"","zip":"76513","state":"TX","city":"BELTON","title":"\"2089 BALCONES PL\"","rcType":"Loan","icon":"white"},{"position":{"lat":31.078198,"lng":-97.98079},"address":"\"227 COMMANCHE ST\"","zip":"76522","state":"TX","city":"\"COPPERAS COVE\"","title":"\"227 COMMANCHE ST\"","rcType":"Loan","icon":"white"},{"position":{"lat":31.04076,"lng":-97.948607},"address":"\"384 COUNTY ROAD 4717\"","zip":"76539","state":"TX","city":"KEMPNER","title":"\"384 COUNTY ROAD 4717\"","rcType":"Loan","icon":"white"},{"position":{"lat":31.059295,"lng":-98.19149},"address":"\"1007 W 6TH ST\"","zip":"76550","state":"TX","city":"LAMPASAS","title":"\"1007 W 6TH ST\"","rcType":"Loan","icon":"white"},{"position":{"lat":31.100226,"lng":-97.514594},"address":"\"207 SQUIRE LOOP\"","zip":"76513","state":"TX","city":"BELTON","title":"\"207 SQUIRE LOOP\"","rcType":"Loan","icon":"white"},{"position":{"lat":31.072184,"lng":-97.642425},"address":"\"1205 CEDAR OAKS LN\"","zip":"76548","state":"TX","city":"\"HARKER HEIGHTS\"","title":"\"1205 CEDAR OAKS LN\"","rcType":"Loan","icon":"white"},{"position":{"lat":30.950594,"lng":-97.31152},"address":"\"13855 REEDS LAKE LOOP\"","zip":"76569","state":"TX","city":"ROGERS","title":"\"13855 REEDS LAKE LOOP\"","rcType":"Loan","icon":"white"},{"position":{"lat":31.044236,"lng":-97.370579},"address":"\"5612 BLACKSTONE DR\"","zip":"76502","state":"TX","city":"TEMPLE","title":"\"5612 BLACKSTONE DR\"","rcType":"Loan","icon":"white"},{"position":{"lat":30.882005,"lng":-97.410899},"address":"\"701 PARSONAGE ST\"","zip":"76534","state":"TX","city":"HOLLAND","title":"\"701 PARSONAGE ST\"","rcType":"Loan","icon":"white"},{"position":{"lat":31.069305,"lng":-97.683404},"address":"\"6301 CHARLOTTE LN\"","zip":"76542","state":"TX","city":"KILLEEN","title":"\"6301 CHARLOTTE LN\"","rcType":"Loan","icon":"white"},{"position":{"lat":31.12963,"lng":-97.454488},"address":"\"10615 BECKER DR\"","zip":"76502","state":"TX","city":"TEMPLE","title":"\"10615 BECKER DR\"","rcType":"Loan","icon":"white"},{"position":{"lat":31.119001,"lng":-97.901404},"address":"\"302 E ROBERTSON AVE\"","zip":"76522","state":"TX","city":"\"COPPERAS COVE\"","title":"\"302 E ROBERTSON AVE\"","rcType":"Loan","icon":"white"},{"position":{"lat":31.067423,"lng":-97.62505},"address":"\"1902 HORATIO ST\"","zip":"76559","state":"TX","city":"NOLANVILLE","title":"\"1902 HORATIO ST\"","rcType":"Loan","icon":"white"},{"position":{"lat":31.067113,"lng":-97.625114},"address":"\"1894 HORATIO ST\"","zip":"76559","state":"TX","city":"NOLANVILLE","title":"\"1894 HORATIO ST\"","rcType":"Loan","icon":"white"},{"position":{"lat":31.105158,"lng":-97.675693},"address":"\"4801 ROY J SMITH DR\"","zip":"76543","state":"TX","city":"KILLEEN","title":"\"4801 ROY J SMITH DR\"","rcType":"Loan","icon":"white"},{"position":{"lat":31.061927,"lng":-98.169735},"address":"\"1210 CLOUD ST\"","zip":"76550","state":"TX","city":"LAMPASAS","title":"\"1210 CLOUD ST\"","rcType":"Loan","icon":"white"},{"position":{"lat":30.966603,"lng":-97.642607},"address":"\"CROWS RANCH RD\"","zip":"76571","state":"TX","city":"SALADO","title":"\"CROWS RANCH RD\"","rcType":"Loan","icon":"white"},{"position":{"lat":31.437855,"lng":-97.742563},"address":"\"305 N 14TH ST\"","zip":"76528","state":"TX","city":"GATESVILLE","title":"\"305 N 14TH ST\"","rcType":"Loan","icon":"white"},{"position":{"lat":31.037759,"lng":-97.396498},"address":"\"6901 BEN HOUSTON CT\"","zip":"76502","state":"TX","city":"TEMPLE","title":"\"6901 BEN HOUSTON CT\"","rcType":"Loan","icon":"white"},{"position":{"lat":30.959831,"lng":-97.509579},"address":"\"2009 CHALK MILL XING\"","zip":"76571","state":"TX","city":"SALADO","title":"\"2009 CHALK MILL XING\"","rcType":"Loan","icon":"white"},{"position":{"lat":31.018818,"lng":-97.492299},"address":"\"1200 SHANKLIN RD\"","zip":"76513","state":"TX","city":"BELTON","title":"\"1200 SHANKLIN RD\"","rcType":"Loan","icon":"white"},{"position":{"lat":31.064677,"lng":-97.375831},"address":"\"3901 ROSEMARY LN\"","zip":"76502","state":"TX","city":"TEMPLE","title":"\"3901 ROSEMARY LN\"","rcType":"Loan","icon":"white"},{"position":{"lat":30.957082,"lng":-97.47951},"address":"\"2000 THE CREEKS DR\"","zip":"76571","state":"TX","city":"SALADO","title":"\"2000 THE CREEKS DR\"","rcType":"Loan","icon":"white"},{"position":{"lat":31.076843,"lng":-98.001784},"address":"\"1024 HICKORY ST\"","zip":"76539","state":"TX","city":"KEMPNER","title":"\"1024 HICKORY ST\"","rcType":"Loan","icon":"white"},{"position":{"lat":31.126668,"lng":-97.447153},"address":"\"508 WEEPING WILLOW DR\"","zip":"76502","state":"TX","city":"TEMPLE","title":"\"508 WEEPING WILLOW DR\"","rcType":"Loan","icon":"white"},{"position":{"lat":31.193965,"lng":-97.499296},"address":"\"16034 BRAZOS DR\"","zip":"76502","state":"TX","city":"TEMPLE","title":"\"16034 BRAZOS DR\"","rcType":"Loan","icon":"white"},{"position":{"lat":30.932378,"lng":-97.676284},"address":"\"18248 CROWS RANCH RD\"","zip":"76571","state":"TX","city":"SALADO","title":"\"18248 CROWS RANCH RD\"","rcType":"Loan","icon":"white"},{"position":{"lat":31.046123,"lng":-97.395819},"address":"\"6117 MODENA DR\"","zip":"76502","state":"TX","city":"TEMPLE","title":"\"6117 MODENA DR\"","rcType":"Loan","icon":"white"},{"position":{"lat":31.416074,"lng":-97.794636},"address":"\"264 CHITWOOD RD\"","zip":"76528","state":"TX","city":"GATESVILLE","title":"\"264 CHITWOOD RD\"","rcType":"Loan","icon":"white"},{"position":{"lat":31.037967,"lng":-97.609965},"address":"\"LAKESIDE DR\"","zip":"76548","state":"TX","city":"\"HARKER HEIGHTS\"","title":"\"LAKESIDE DR\"","rcType":"Loan","icon":"white"},{"position":{"lat":31.04602,"lng":-97.570768},"address":"\"1079 MESCALERO TRL\"","zip":"76513","state":"TX","city":"BELTON","title":"\"1079 MESCALERO TRL\"","rcType":"Loan","icon":"white"},{"position":{"lat":31.121183,"lng":-98.175983},"address":"\"1881 COUNTY ROAD 3421\"","zip":"76550","state":"TX","city":"LAMPASAS","title":"\"1881 COUNTY ROAD 3421\"","rcType":"Loan","icon":"white"},{"position":{"lat":31.098618,"lng":-97.389781},"address":"\"1028 CAMPBELTON DR\"","zip":"76504","state":"TX","city":"TEMPLE","title":"\"1028 CAMPBELTON DR\"","rcType":"Loan","icon":"white"},{"position":{"lat":31.098465,"lng":-97.389658},"address":"\"1032 CAMPBELTON DR\"","zip":"76504","state":"TX","city":"TEMPLE","title":"\"1032 CAMPBELTON DR\"","rcType":"Loan","icon":"white"},{"position":{"lat":31.098787,"lng":-97.389878},"address":"\"1020 CAMPBELTON DR\"","zip":"76504","state":"TX","city":"TEMPLE","title":"\"1020 CAMPBELTON DR\"","rcType":"Loan","icon":"white"},{"position":{"lat":31.09897,"lng":-97.389946},"address":"\"1016 CAMPBELTON DR\"","zip":"76504","state":"TX","city":"TEMPLE","title":"\"1016 CAMPBELTON DR\"","rcType":"Loan","icon":"white"},{"position":{"lat":31.067289,"lng":-97.624579},"address":"\"2097 MERCER ST\"","zip":"76559","state":"TX","city":"NOLANVILLE","title":"\"2097 MERCER ST\"","rcType":"Loan","icon":"white"},{"position":{"lat":31.06713,"lng":-97.624638},"address":"\"2093 MERCER ST\"","zip":"76559","state":"TX","city":"NOLANVILLE","title":"\"2093 MERCER ST\"","rcType":"Loan","icon":"white"},{"position":{"lat":31.067447,"lng":-97.62452},"address":"\"2101 MERCER ST\"","zip":"76559","state":"TX","city":"NOLANVILLE","title":"\"2101 MERCER ST\"","rcType":"Loan","icon":"white"},{"position":{"lat":30.922942,"lng":-97.605102},"address":"\"1507 HIDDEN SPRINGS DR\"","zip":"76571","state":"TX","city":"SALADO","title":"\"1507 HIDDEN SPRINGS DR\"","rcType":"Loan","icon":"white"},{"position":{"lat":31.066973,"lng":-97.624696},"address":"\"2089 MERCER ST\"","zip":"76559","state":"TX","city":"NOLANVILLE","title":"\"2089 MERCER ST\"","rcType":"Loan","icon":"white"},{"position":{"lat":31.066813,"lng":-97.62474},"address":"\"2085 MERCER ST\"","zip":"76559","state":"TX","city":"NOLANVILLE","title":"\"2085 MERCER ST\"","rcType":"Loan","icon":"white"},{"position":{"lat":31.098903,"lng":-97.390323},"address":"\"1013 ANTELOPE TRL\"","zip":"76504","state":"TX","city":"TEMPLE","title":"\"1013 ANTELOPE TRL\"","rcType":"Loan","icon":"white"},{"position":{"lat":31.098728,"lng":-97.390261},"address":"\"1017 ANTELOPE TRL\"","zip":"76504","state":"TX","city":"TEMPLE","title":"\"1017 ANTELOPE TRL\"","rcType":"Loan","icon":"white"},{"position":{"lat":30.922532,"lng":-97.605981},"address":"\"1485 HIDDEN SPRINGS DR\"","zip":"76571","state":"TX","city":"SALADO","title":"\"1485 HIDDEN SPRINGS DR\"","rcType":"Loan","icon":"white"},{"position":{"lat":31.077508,"lng":-97.662243},"address":"\"313 ELBERT LN\"","zip":"76548","state":"TX","city":"\"HARKER HEIGHTS\"","title":"\"313 ELBERT LN\"","rcType":"Loan","icon":"white"},{"position":{"lat":31.191573,"lng":-97.495755},"address":"\"4936 COMANCHE DR\"","zip":"76502","state":"TX","city":"TEMPLE","title":"\"4936 COMANCHE DR\"","rcType":"Loan","icon":"white"},{"position":{"lat":31.038861,"lng":-97.367599},"address":"\"422 WYNDCREST DR\"","zip":"76502","state":"TX","city":"TEMPLE","title":"\"422 WYNDCREST DR\"","rcType":"Loan","icon":"white"},{"position":{"lat":31.115611,"lng":-98.177853},"address":"\"1602 COUNTY ROAD 3421\"","zip":"76550","state":"TX","city":"LAMPASAS","title":"\"1602 COUNTY ROAD 3421\"","rcType":"Loan","icon":"white"},{"position":{"lat":31.065325,"lng":-97.639925},"address":"\"1508 DAKOTA TRCE\"","zip":"76548","state":"TX","city":"\"HARKER HEIGHTS\"","title":"\"1508 DAKOTA TRCE\"","rcType":"Loan","icon":"white"},{"position":{"lat":31.135939,"lng":-97.483659},"address":"\"536 KINGS CV\"","zip":"76513","state":"TX","city":"BELTON","title":"\"536 KINGS CV\"","rcType":"Loan","icon":"white"},{"position":{"lat":31.048732,"lng":-97.355611},"address":"\"310 MCCULLOUGH LOOP\"","zip":"76502","state":"TX","city":"TEMPLE","title":"\"310 MCCULLOUGH LOOP\"","rcType":"Loan","icon":"white"},{"position":{"lat":31.064079,"lng":-97.623063},"address":"\"2041 STILLWELL ST\"","zip":"76559","state":"TX","city":"NOLANVILLE","title":"\"2041 STILLWELL ST\"","rcType":"Loan","icon":"white"},{"position":{"lat":31.06353,"lng":-97.623093},"address":"\"2025 STILLWELL ST\"","zip":"76559","state":"TX","city":"NOLANVILLE","title":"\"2025 STILLWELL ST\"","rcType":"Loan","icon":"white"},{"position":{"lat":31.47126,"lng":-97.691702},"address":"\"516 CEDAR MOUNTAIN RD\"","zip":"76528","state":"TX","city":"GATESVILLE","title":"\"516 CEDAR MOUNTAIN RD\"","rcType":"Loan","icon":"white"},{"position":{"lat":31.056154,"lng":-97.340648},"address":"\"1606 FLATLAND TRL\"","zip":"76502","state":"TX","city":"TEMPLE","title":"\"1606 FLATLAND TRL\"","rcType":"Loan","icon":"white"},{"position":{"lat":31.056064,"lng":-97.340332},"address":"\"1614 FLATLAND TRL\"","zip":"76502","state":"TX","city":"TEMPLE","title":"\"1614 FLATLAND TRL\"","rcType":"Loan","icon":"white"},{"position":{"lat":31.433577,"lng":-97.749888},"address":"\"206 S 7TH ST\"","zip":"76528","state":"TX","city":"GATESVILLE","title":"\"206 S 7TH ST\"","rcType":"Loan","icon":"white"},{"position":{"lat":31.055688,"lng":-97.340827},"address":"\"1607 FLATLAND TRL\"","zip":"76502","state":"TX","city":"TEMPLE","title":"\"1607 FLATLAND TRL\"","rcType":"Loan","icon":"white"},{"position":{"lat":31.057648,"lng":-97.341651},"address":"\"1423 FIDDLE WOOD WAY\"","zip":"76502","state":"TX","city":"TEMPLE","title":"\"1423 FIDDLE WOOD WAY\"","rcType":"Loan","icon":"white"},{"position":{"lat":31.057737,"lng":-97.341967},"address":"\"1415 FIDDLE WOOD WAY\"","zip":"76502","state":"TX","city":"TEMPLE","title":"\"1415 FIDDLE WOOD WAY\"","rcType":"Loan","icon":"white"},{"position":{"lat":31.057423,"lng":-97.340861},"address":"\"1519 FIDDLE WOOD WAY\"","zip":"76502","state":"TX","city":"TEMPLE","title":"\"1519 FIDDLE WOOD WAY\"","rcType":"Loan","icon":"white"},{"position":{"lat":31.057786,"lng":-97.342137},"address":"\"1411 FIDDLE WOOD WAY\"","zip":"76502","state":"TX","city":"TEMPLE","title":"\"1411 FIDDLE WOOD WAY\"","rcType":"Loan","icon":"white"},{"position":{"lat":31.057475,"lng":-97.342256},"address":"\"1410 SIDEOATS LN\"","zip":"76502","state":"TX","city":"TEMPLE","title":"\"1410 SIDEOATS LN\"","rcType":"Loan","icon":"white"},{"position":{"lat":31.057427,"lng":-97.342086},"address":"\"1414 SIDEOATS LN\"","zip":"76502","state":"TX","city":"TEMPLE","title":"\"1414 SIDEOATS LN\"","rcType":"Loan","icon":"white"},{"position":{"lat":31.040664,"lng":-97.368712},"address":"\"608 WYNDHAM HILL PKWY\"","zip":"76502","state":"TX","city":"TEMPLE","title":"\"608 WYNDHAM HILL PKWY\"","rcType":"Loan","icon":"white"},{"position":{"lat":31.167467,"lng":-98.201216},"address":"\"3863 COUNTY ROAD 2207\"","zip":"76550","state":"TX","city":"LAMPASAS","title":"\"3863 COUNTY ROAD 2207\"","rcType":"Loan","icon":"white"},{"position":{"lat":31.120678,"lng":-97.728044},"address":"\"311 N GRAY ST\"","zip":"76541","state":"TX","city":"KILLEEN","title":"\"311 N GRAY ST\"","rcType":"Loan","icon":"white"},{"position":{"lat":31.023844,"lng":-97.651312},"address":"\"3903 DEL REY\"","zip":"76548","state":"TX","city":"\"HARKER HEIGHTS\"","title":"\"3903 DEL REY\"","rcType":"Loan","icon":"white"},{"position":{"lat":31.203696,"lng":-97.985311},"address":"\"4301 FM\"","zip":"76522","state":"TX","city":"\"COPPERAS COVE\"","title":"\"4301 FM\"","rcType":"Loan","icon":"white"},{"position":{"lat":31.102236,"lng":-97.426678},"address":"\"1517 SOAP ROCK LN\"","zip":"76502","state":"TX","city":"TEMPLE","title":"\"1517 SOAP ROCK LN\"","rcType":"Loan","icon":"white"},{"position":{"lat":31.047863,"lng":-97.396005},"address":"\"3010 CESENA DR\"","zip":"76502","state":"TX","city":"TEMPLE","title":"\"3010 CESENA DR\"","rcType":"Loan","icon":"white"},{"position":{"lat":30.961001,"lng":-97.458348},"address":"\"LAGO VIIA\"","zip":"76513","state":"TX","city":"BELTON","title":"\"LAGO VIIA\"","rcType":"Loan","icon":"white"},{"position":{"lat":31.013928,"lng":-97.682899},"address":"\"10811 E TRIMMIER RD\"","zip":"76542","state":"TX","city":"KILLEEN","title":"\"10811 E TRIMMIER RD\"","rcType":"Loan","icon":"white"},{"position":{"lat":31.061117,"lng":-97.496285},"address":"\"471 S WHEAT RD\"","zip":"76513","state":"TX","city":"BELTON","title":"\"471 S WHEAT RD\"","rcType":"Loan","icon":"white"},{"position":{"lat":30.934523,"lng":-97.592887},"address":"\"1639 LONG MEADOW DR\"","zip":"76571","state":"TX","city":"SALADO","title":"\"1639 LONG MEADOW DR\"","rcType":"Loan","icon":"white"},{"position":{"lat":31.131426,"lng":-97.483107},"address":"\"120 CHATTANOOGA CT\"","zip":"76513","state":"TX","city":"BELTON","title":"\"120 CHATTANOOGA CT\"","rcType":"Loan","icon":"white"},{"position":{"lat":31.132367,"lng":-97.484101},"address":"\"128 CUMBERLAND DR\"","zip":"76513","state":"TX","city":"BELTON","title":"\"128 CUMBERLAND DR\"","rcType":"Loan","icon":"white"},{"position":{"lat":30.975531,"lng":-97.320259},"address":"\"REEDS LAKE RD\"","zip":"76501","state":"TX","city":"TEMPLE","title":"\"REEDS LAKE RD\"","rcType":"Loan","icon":"white"},{"position":{"lat":31.16313,"lng":-97.263695},"address":"\"4448 BOTTOMS EAST RD\"","zip":"76579","state":"TX","city":"TROY","title":"\"4448 BOTTOMS EAST RD\"","rcType":"Loan","icon":"white"},{"position":{"lat":31.047512,"lng":-97.338331},"address":"\"2037 YARRELTON DR\"","zip":"76502","state":"TX","city":"TEMPLE","title":"\"2037 YARRELTON DR\"","rcType":"Loan","icon":"white"},{"position":{"lat":31.086964,"lng":-97.752095},"address":"\"3806 Y S PAK CT\"","zip":"76542","state":"TX","city":"KILLEEN","title":"\"3806 Y S PAK CT\"","rcType":"Loan","icon":"white"},{"position":{"lat":30.988541,"lng":-97.772954},"address":"\"1290 HICKORY DR\"","zip":"76549","state":"TX","city":"KILLEEN","title":"\"1290 HICKORY DR\"","rcType":"Loan","icon":"white"},{"position":{"lat":31.085244,"lng":-97.680805},"address":"\"4917 LAKESHORE DR\"","zip":"76543","state":"TX","city":"KILLEEN","title":"\"4917 LAKESHORE DR\"","rcType":"Loan","icon":"white"},{"position":{"lat":30.936289,"lng":-97.490132},"address":"\"1057 DOVES LANDING CT\"","zip":"76571","state":"TX","city":"SALADO","title":"\"1057 DOVES LANDING CT\"","rcType":"Loan","icon":"white"},{"position":{"lat":31.076038,"lng":-97.701077},"address":"\"3211 TIMBER OAK DR\"","zip":"76542","state":"TX","city":"KILLEEN","title":"\"3211 TIMBER OAK DR\"","rcType":"Loan","icon":"white"},{"position":{"lat":31.071357,"lng":-97.748391},"address":"\"406 JAMES LOOP\"","zip":"76542","state":"TX","city":"KILLEEN","title":"\"406 JAMES LOOP\"","rcType":"Loan","icon":"white"},{"position":{"lat":31.503978,"lng":-97.80413},"address":"\"5603 MOCCASIN BEND RD\"","zip":"76528","state":"TX","city":"GATESVILLE","title":"\"5603 MOCCASIN BEND RD\"","rcType":"Loan","icon":"white"},{"position":{"lat":31.055305,"lng":-97.473726},"address":"\"801 W AVENUE D\"","zip":"76513","state":"TX","city":"BELTON","title":"\"801 W AVENUE D\"","rcType":"Loan","icon":"white"},{"position":{"lat":30.978487,"lng":-97.544719},"address":"\"7160 DAY DR\"","zip":"76571","state":"TX","city":"SALADO","title":"\"7160 DAY DR\"","rcType":"Loan","icon":"white"},{"position":{"lat":31.129506,"lng":-97.434094},"address":"\"8811 HIDDEN OAKS DR\"","zip":"76502","state":"TX","city":"TEMPLE","title":"\"8811 HIDDEN OAKS DR\"","rcType":"Loan","icon":"white"},{"position":{"lat":31.05634,"lng":-97.46265},"address":"\"202 E CENTRAL AVE\"","zip":"76513","state":"TX","city":"BELTON","title":"\"202 E CENTRAL AVE\"","rcType":"Loan","icon":"white"},{"position":{"lat":31.436489,"lng":-97.749726},"address":"\"209 N 7TH ST\"","zip":"76528","state":"TX","city":"GATESVILLE","title":"\"209 N 7TH ST\"","rcType":"Loan","icon":"white"},{"position":{"lat":30.930255,"lng":-97.525334},"address":"\"1530 FM 2268\"","zip":"76571","state":"TX","city":"SALADO","title":"\"1530 FM 2268\"","rcType":"Loan","icon":"white"},{"position":{"lat":31.10161,"lng":-97.701439},"address":"\"3608 E VETERANS MEMORIAL BLVD\"","zip":"76543","state":"TX","city":"KILLEEN","title":"\"3608 E VETERANS MEMORIAL BLVD\"","rcType":"Loan","icon":"white"},{"position":{"lat":31.036113,"lng":-97.410416},"address":"\"3822 GREEN TREE LOOP\"","zip":"76502","state":"TX","city":"TEMPLE","title":"\"3822 GREEN TREE LOOP\"","rcType":"Loan","icon":"white"},{"position":{"lat":30.87069,"lng":-97.601843},"address":"\"1490 DOS HERMANAS RD\"","zip":"76571","state":"TX","city":"SALADO","title":"\"1490 DOS HERMANAS RD\"","rcType":"Loan","icon":"white"},{"position":{"lat":30.94792,"lng":-97.498371},"address":"\"1014 SADDLE BLUFF DR\"","zip":"76571","state":"TX","city":"SALADO","title":"\"1014 SADDLE BLUFF DR\"","rcType":"Loan","icon":"white"},{"position":{"lat":31.138248,"lng":-97.419434},"address":"\"7821 MONTCLAIR DR\"","zip":"76502","state":"TX","city":"TEMPLE","title":"\"7821 MONTCLAIR DR\"","rcType":"Loan","icon":"white"},{"position":{"lat":31.088595,"lng":-97.742624},"address":"\"3504 PEBBLE DR\"","zip":"76542","state":"TX","city":"KILLEEN","title":"\"3504 PEBBLE DR\"","rcType":"Loan","icon":"white"},{"position":{"lat":31.117452,"lng":-97.726909},"address":"\"412 E AVENUE G\"","zip":"76541","state":"TX","city":"KILLEEN","title":"\"412 E AVENUE G\"","rcType":"Loan","icon":"white"},{"position":{"lat":31.06493,"lng":-97.684644},"address":"\"5718 BIRMINGHAM CIR\"","zip":"76542","state":"TX","city":"KILLEEN","title":"\"5718 BIRMINGHAM CIR\"","rcType":"Loan","icon":"white"},{"position":{"lat":31.074468,"lng":-97.388031},"address":"\"3206 ELM DR\"","zip":"76502","state":"TX","city":"TEMPLE","title":"\"3206 ELM DR\"","rcType":"Loan","icon":"white"},{"position":{"lat":31.06957,"lng":-97.618245},"address":"\"2037 HERITAGE LOOP\"","zip":"76559","state":"TX","city":"NOLANVILLE","title":"\"2037 HERITAGE LOOP\"","rcType":"Loan","icon":"white"},{"position":{"lat":31.020568,"lng":-97.647132},"address":"\"4106 LAKECLIFF DR\"","zip":"76548","state":"TX","city":"\"HARKER HEIGHTS\"","title":"\"4106 LAKECLIFF DR\"","rcType":"Loan","icon":"white"},{"position":{"lat":30.90969,"lng":-97.477387},"address":"\"148575 ARMSTRONG LOOP\"","zip":"76571","state":"TX","city":"SALADO","title":"\"148575 ARMSTRONG LOOP\"","rcType":"Loan","icon":"white"},{"position":{"lat":31.040431,"lng":-97.372597},"address":"\"803 RIVINGTON DR\"","zip":"76502","state":"TX","city":"TEMPLE","title":"\"803 RIVINGTON DR\"","rcType":"Loan","icon":"white"},{"position":{"lat":31.182263,"lng":-97.456066},"address":"\"5282 QUAIL HOLLOW DR\"","zip":"76502","state":"TX","city":"TEMPLE","title":"\"5282 QUAIL HOLLOW DR\"","rcType":"Loan","icon":"white"},{"position":{"lat":31.079331,"lng":-97.766747},"address":"\"1502 W STAN SCHLUETER LOOP\"","zip":"76549","state":"TX","city":"KILLEEN","title":"\"1502 W STAN SCHLUETER LOOP\"","rcType":"Loan","icon":"white"},{"position":{"lat":30.890182,"lng":-97.442031},"address":"\"15760 ROMBERG RD\"","zip":"76534","state":"TX","city":"HOLLAND","title":"\"15760 ROMBERG RD\"","rcType":"Loan","icon":"white"},{"position":{"lat":31.13068,"lng":-97.932725},"address":"\"310 SKYLINE DR\"","zip":"76522","state":"TX","city":"\"COPPERAS COVE\"","title":"\"310 SKYLINE DR\"","rcType":"Loan","icon":"white"},{"position":{"lat":31.133729,"lng":-97.931522},"address":"\"281 SKYLINE DR\"","zip":"76522","state":"TX","city":"\"COPPERAS COVE\"","title":"\"281 SKYLINE DR\"","rcType":"Loan","icon":"white"},{"position":{"lat":31.00986,"lng":-97.789393},"address":"\"2990 PECAN CREEK RD\"","zip":"76549","state":"TX","city":"KILLEEN","title":"\"2990 PECAN CREEK RD\"","rcType":"Loan","icon":"white"},{"position":{"lat":31.131522,"lng":-97.93025},"address":"\"2704 SUN POINT CIR\"","zip":"76522","state":"TX","city":"\"COPPERAS COVE\"","title":"\"2704 SUN POINT CIR\"","rcType":"Loan","icon":"white"},{"position":{"lat":31.039325,"lng":-97.685249},"address":"\"8304 MONEY PIT RD\"","zip":"76542","state":"TX","city":"KILLEEN","title":"\"8304 MONEY PIT RD\"","rcType":"Loan","icon":"white"},{"position":{"lat":31.099452,"lng":-97.396494},"address":"\"4116 SUNFLOWER LN\"","zip":"76502","state":"TX","city":"TEMPLE","title":"\"4116 SUNFLOWER LN\"","rcType":"Loan","icon":"white"},{"position":{"lat":31.0818,"lng":-97.807499},"address":"\"5200 CAUSEWAY CT\"","zip":"76549","state":"TX","city":"KILLEEN","title":"\"5200 CAUSEWAY CT\"","rcType":"Loan","icon":"white"},{"position":{"lat":31.44259,"lng":-97.725801},"address":"\"100 SUNNY LN\"","zip":"76528","state":"TX","city":"GATESVILLE","title":"\"100 SUNNY LN\"","rcType":"Loan","icon":"white"},{"position":{"lat":31.038775,"lng":-97.686052},"address":"\"8303 MONEY PIT RD\"","zip":"76542","state":"TX","city":"KILLEEN","title":"\"8303 MONEY PIT RD\"","rcType":"Loan","icon":"white"},{"position":{"lat":31.505818,"lng":-97.551321},"address":"\"HIGH RDG\"","zip":"76561","state":"TX","city":"OGLESBY","title":"\"HIGH RDG\"","rcType":"Loan","icon":"white"},{"position":{"lat":31.142997,"lng":-97.909709},"address":"\"1461 NEFF DR\"","zip":"76522","state":"TX","city":"\"COPPERAS COVE\"","title":"\"1461 NEFF DR\"","rcType":"Loan","icon":"white"},{"position":{"lat":31.04811,"lng":-97.398823},"address":"\"3305 CESENA DR\"","zip":"76502","state":"TX","city":"TEMPLE","title":"\"3305 CESENA DR\"","rcType":"Loan","icon":"white"},{"position":{"lat":31.048185,"lng":-97.399089},"address":"\"3309 CESENA DR\"","zip":"76502","state":"TX","city":"TEMPLE","title":"\"3309 CESENA DR\"","rcType":"Loan","icon":"white"},{"position":{"lat":31.127201,"lng":-97.420199},"address":"\"1125 SPRING TERRACE LOOP\"","zip":"76502","state":"TX","city":"TEMPLE","title":"\"1125 SPRING TERRACE LOOP\"","rcType":"Loan","icon":"white"},{"position":{"lat":31.056244,"lng":-97.365384},"address":"\"808 KENDRA DR\"","zip":"76502","state":"TX","city":"TEMPLE","title":"\"808 KENDRA DR\"","rcType":"Loan","icon":"white"},{"position":{"lat":30.925917,"lng":-97.376366},"address":"\"11730 LANDFILL RD\"","zip":"76534","state":"TX","city":"HOLLAND","title":"\"11730 LANDFILL RD\"","rcType":"Loan","icon":"white"},{"position":{"lat":31.07999,"lng":-97.602904},"address":"\"406 N 4TH ST\"","zip":"76559","state":"TX","city":"NOLANVILLE","title":"\"406 N 4TH ST\"","rcType":"Loan","icon":"white"},{"position":{"lat":31.033898,"lng":-97.386369},"address":"\"TROYAN LN\"","zip":"76502","state":"TX","city":"TEMPLE","title":"\"TROYAN LN\"","rcType":"Loan","icon":"white"},{"position":{"lat":31.186559,"lng":-97.958627},"address":"\"1205 HOLDEN LOOP\"","zip":"76522","state":"TX","city":"\"COPPERAS COVE\"","title":"\"1205 HOLDEN LOOP\"","rcType":"Loan","icon":"white"},{"position":{"lat":31.18138,"lng":-97.96194},"address":"\"1141 HOLDEN LOOP\"","zip":"76522","state":"TX","city":"\"COPPERAS COVE\"","title":"\"1141 HOLDEN LOOP\"","rcType":"Loan","icon":"white"},{"position":{"lat":31.123925,"lng":-97.710636},"address":"\"1213 MIDDLETON ST\"","zip":"76541","state":"TX","city":"KILLEEN","title":"\"1213 MIDDLETON ST\"","rcType":"Loan","icon":"white"},{"position":{"lat":31.048356,"lng":-97.400367},"address":"\"6015 TIVOLI RD\"","zip":"76502","state":"TX","city":"TEMPLE","title":"\"6015 TIVOLI RD\"","rcType":"Loan","icon":"white"},{"position":{"lat":30.988051,"lng":-97.291644},"address":"\"9319 PRITCHARD RD\"","zip":"76501","state":"TX","city":"TEMPLE","title":"\"9319 PRITCHARD RD\"","rcType":"Loan","icon":"white"},{"position":{"lat":31.184902,"lng":-97.958356},"address":"\"1210 HOLDEN LOOP\"","zip":"76522","state":"TX","city":"\"COPPERAS COVE\"","title":"\"1210 HOLDEN LOOP\"","rcType":"Loan","icon":"white"},{"position":{"lat":31.069773,"lng":-97.335385},"address":"\"1417 ZETSCHE CT\"","zip":"76504","state":"TX","city":"TEMPLE","title":"\"1417 ZETSCHE CT\"","rcType":"Loan","icon":"white"},{"position":{"lat":31.073818,"lng":-97.792074},"address":"\"3507 BREEDER LN\"","zip":"76549","state":"TX","city":"KILLEEN","title":"\"3507 BREEDER LN\"","rcType":"Loan","icon":"white"},{"position":{"lat":31.063861,"lng":-97.707977},"address":"\"4004 SHUMARD DR\"","zip":"76542","state":"TX","city":"KILLEEN","title":"\"4004 SHUMARD DR\"","rcType":"Loan","icon":"white"},{"position":{"lat":31.434145,"lng":-97.764929},"address":"\"1035 HIGHLAND DR\"","zip":"76528","state":"TX","city":"GATESVILLE","title":"\"1035 HIGHLAND DR\"","rcType":"Loan","icon":"white"},{"position":{"lat":31.085565,"lng":-97.390156},"address":"\"2301 BIRDCREEK DR\"","zip":"76502","state":"TX","city":"TEMPLE","title":"\"2301 BIRDCREEK DR\"","rcType":"Loan","icon":"white"},{"position":{"lat":31.427056,"lng":-97.632109},"address":"\"204 CEDAR LN\"","zip":"76528","state":"TX","city":"GATESVILLE","title":"\"204 CEDAR LN\"","rcType":"Loan","icon":"white"},{"position":{"lat":31.070034,"lng":-97.614896},"address":"\"1119 REDLEAF DR\"","zip":"76559","state":"TX","city":"NOLANVILLE","title":"\"1119 REDLEAF DR\"","rcType":"Loan","icon":"white"},{"position":{"lat":31.016797,"lng":-97.696925},"address":"\"SLAWSON LN\"","zip":"76542","state":"TX","city":"KILLEEN","title":"\"SLAWSON LN\"","rcType":"Loan","icon":"white"},{"position":{"lat":31.119746,"lng":-97.905175},"address":"\"206 VETERANS AVE\"","zip":"76522","state":"TX","city":"\"COPPERAS COVE\"","title":"\"206 VETERANS AVE\"","rcType":"Loan","icon":"white"},{"position":{"lat":30.917337,"lng":-97.615549},"address":"\"8285 FM 2843\"","zip":"76571","state":"TX","city":"SALADO","title":"\"8285 FM 2843\"","rcType":"Loan","icon":"white"},{"position":{"lat":31.035896,"lng":-97.47784},"address":"\"2218 JUSTICE DR\"","zip":"76513","state":"TX","city":"BELTON","title":"\"2218 JUSTICE DR\"","rcType":"Loan","icon":"white"},{"position":{"lat":31.06829,"lng":-97.478381},"address":"\"556 CREEKSIDE DR\"","zip":"76513","state":"TX","city":"BELTON","title":"\"556 CREEKSIDE DR\"","rcType":"Loan","icon":"white"},{"position":{"lat":31.182185,"lng":-97.957139},"address":"\"1244 HADLEY LN\"","zip":"76522","state":"TX","city":"\"COPPERAS COVE\"","title":"\"1244 HADLEY LN\"","rcType":"Loan","icon":"white"},{"position":{"lat":31.13212,"lng":-97.450416},"address":"\"822 STONEHOUSE LN\"","zip":"76502","state":"TX","city":"TEMPLE","title":"\"822 STONEHOUSE LN\"","rcType":"Loan","icon":"white"},{"position":{"lat":31.438098,"lng":-97.722163},"address":"\"2525 JACKSON DR\"","zip":"76528","state":"TX","city":"GATESVILLE","title":"\"2525 JACKSON DR\"","rcType":"Loan","icon":"white"},{"position":{"lat":31.089808,"lng":-97.792152},"address":"\"4504 SYLVIA DR\"","zip":"76549","state":"TX","city":"KILLEEN","title":"\"4504 SYLVIA DR\"","rcType":"Loan","icon":"white"},{"position":{"lat":31.01616,"lng":-97.380628},"address":"\"824 LA PARRA BND\"","zip":"76502","state":"TX","city":"TEMPLE","title":"\"824 LA PARRA BND\"","rcType":"Loan","icon":"white"},{"position":{"lat":31.015941,"lng":-97.379958},"address":"\"808 LA PARRA BND\"","zip":"76502","state":"TX","city":"TEMPLE","title":"\"808 LA PARRA BND\"","rcType":"Loan","icon":"white"},{"position":{"lat":31.108258,"lng":-97.432111},"address":"\"7918 KENDALL HILL DR\"","zip":"76502","state":"TX","city":"TEMPLE","title":"\"7918 KENDALL HILL DR\"","rcType":"Loan","icon":"white"},{"position":{"lat":31.186998,"lng":-97.937076},"address":"\"927 TWIN MOUNTAIN RD\"","zip":"76522","state":"TX","city":"\"COPPERAS COVE\"","title":"\"927 TWIN MOUNTAIN RD\"","rcType":"Loan","icon":"white"},{"position":{"lat":31.045494,"lng":-97.396906},"address":"\"6135 PARMA LN\"","zip":"76502","state":"TX","city":"TEMPLE","title":"\"6135 PARMA LN\"","rcType":"Loan","icon":"white"},{"position":{"lat":31.148464,"lng":-97.42317},"address":"\"2843 FOX RIVER DR\"","zip":"76502","state":"TX","city":"TEMPLE","title":"\"2843 FOX RIVER DR\"","rcType":"Loan","icon":"white"},{"position":{"lat":31.037369,"lng":-97.365925},"address":"\"6121 ALEXANDRIA DR\"","zip":"76502","state":"TX","city":"TEMPLE","title":"\"6121 ALEXANDRIA DR\"","rcType":"Loan","icon":"white"},{"position":{"lat":31.058938,"lng":-97.992936},"address":"\"1101 COUNTY ROAD 4620\"","zip":"76539","state":"TX","city":"KEMPNER","title":"\"1101 COUNTY ROAD 4620\"","rcType":"Loan","icon":"white"},{"position":{"lat":31.221156,"lng":-98.003634},"address":"\"730 PRIVATE ROAD 3642\"","zip":"76522","state":"TX","city":"\"COPPERAS COVE\"","title":"\"730 PRIVATE ROAD 3642\"","rcType":"Loan","icon":"white"},{"position":{"lat":31.045638,"lng":-97.398036},"address":"\"3110 PISTOIA TRL\"","zip":"76502","state":"TX","city":"TEMPLE","title":"\"3110 PISTOIA TRL\"","rcType":"Loan","icon":"white"},{"position":{"lat":30.950243,"lng":-97.514123},"address":"\"1900 HIGHLAND DR\"","zip":"76571","state":"TX","city":"SALADO","title":"\"1900 HIGHLAND DR\"","rcType":"Loan","icon":"white"},{"position":{"lat":31.087155,"lng":-97.699258},"address":"\"3512 MALIBU LN\"","zip":"76543","state":"TX","city":"KILLEEN","title":"\"3512 MALIBU LN\"","rcType":"Loan","icon":"white"},{"position":{"lat":31.055625,"lng":-97.560944},"address":"\"8123 JERICHO BLF\"","zip":"76513","state":"TX","city":"BELTON","title":"\"8123 JERICHO BLF\"","rcType":"Loan","icon":"white"},{"position":{"lat":31.047339,"lng":-97.644986},"address":"\"1436 LOBLOLLY DR\"","zip":"76548","state":"TX","city":"\"HARKER HEIGHTS\"","title":"\"1436 LOBLOLLY DR\"","rcType":"Loan","icon":"white"},{"position":{"lat":31.277741,"lng":-97.549766},"address":"\"3465 CR\"","zip":"76528","state":"TX","city":"GATESVILLE","title":"\"3465 CR\"","rcType":"Loan","icon":"white"},{"position":{"lat":31.127423,"lng":-97.481844},"address":"\"251 WOODLAND TRL\"","zip":"76513","state":"TX","city":"BELTON","title":"\"251 WOODLAND TRL\"","rcType":"Loan","icon":"white"},{"position":{"lat":30.955673,"lng":-97.502959},"address":"\"1271 AMBROSE DR\"","zip":"76571","state":"TX","city":"SALADO","title":"\"1271 AMBROSE DR\"","rcType":"Loan","icon":"white"},{"position":{"lat":31.238634,"lng":-97.366723},"address":"\"FRANKLIN RD\"","zip":"76557","state":"TX","city":"MOODY","title":"\"FRANKLIN RD\"","rcType":"Loan","icon":"white"},{"position":{"lat":31.124643,"lng":-97.715334},"address":"\"1201 ALEXANDER ST\"","zip":"76541","state":"TX","city":"KILLEEN","title":"\"1201 ALEXANDER ST\"","rcType":"Loan","icon":"white"},{"position":{"lat":30.952876,"lng":-97.505025},"address":"\"1302 KYLEIGH DR\"","zip":"76571","state":"TX","city":"SALADO","title":"\"1302 KYLEIGH DR\"","rcType":"Loan","icon":"white"},{"position":{"lat":31.095351,"lng":-97.453188},"address":"\"1007 RIVER EDGE DR\"","zip":"76513","state":"TX","city":"BELTON","title":"\"1007 RIVER EDGE DR\"","rcType":"Loan","icon":"white"},{"position":{"lat":31.048437,"lng":-97.341468},"address":"\"4803 BELLFALLS CT\"","zip":"76502","state":"TX","city":"TEMPLE","title":"\"4803 BELLFALLS CT\"","rcType":"Loan","icon":"white"},{"position":{"lat":31.047272,"lng":-97.340604},"address":"\"1903 ZABCIKVILLE DR\"","zip":"76502","state":"TX","city":"TEMPLE","title":"\"1903 ZABCIKVILLE DR\"","rcType":"Loan","icon":"white"},{"position":{"lat":31.089148,"lng":-97.674578},"address":"\"6112 STILLWOOD DR\"","zip":"76543","state":"TX","city":"KILLEEN","title":"\"6112 STILLWOOD DR\"","rcType":"Loan","icon":"white"},{"position":{"lat":31.014924,"lng":-97.379093},"address":"\"704 KILLAM DR\"","zip":"76502","state":"TX","city":"TEMPLE","title":"\"704 KILLAM DR\"","rcType":"Loan","icon":"white"},{"position":{"lat":31.118718,"lng":-97.923789},"address":"\"2506 MOUNTAIN AVE\"","zip":"76522","state":"TX","city":"\"COPPERAS COVE\"","title":"\"2506 MOUNTAIN AVE\"","rcType":"Loan","icon":"white"},{"position":{"lat":31.115231,"lng":-97.365271},"address":"\"1112 JAMESTOWN DR\"","zip":"76504","state":"TX","city":"TEMPLE","title":"\"1112 JAMESTOWN DR\"","rcType":"Loan","icon":"white"},{"position":{"lat":30.95444,"lng":-97.483265},"address":"\"1621 SULPHUR WELLS RD\"","zip":"76571","state":"TX","city":"SALADO","title":"\"1621 SULPHUR WELLS RD\"","rcType":"Loan","icon":"white"},{"position":{"lat":30.953896,"lng":-97.475965},"address":"\"3013 ROLLLING MDW\"","zip":"76571","state":"TX","city":"SALADO","title":"\"3013 ROLLLING MDW\"","rcType":"Loan","icon":"white"},{"position":{"lat":31.176481,"lng":-97.319132},"address":"\"641 JAYLINE DR\"","zip":"76501","state":"TX","city":"TEMPLE","title":"\"641 JAYLINE DR\"","rcType":"Loan","icon":"white"},{"position":{"lat":31.193975,"lng":-97.491822},"address":"\"5255 COMANCHE DR\"","zip":"76502","state":"TX","city":"TEMPLE","title":"\"5255 COMANCHE DR\"","rcType":"Loan","icon":"white"},{"position":{"lat":30.984236,"lng":-97.549866},"address":"\"W AMITY RD\"","zip":"76571","state":"TX","city":"SALADO","title":"\"W AMITY RD\"","rcType":"Loan","icon":"white"},{"position":{"lat":31.119589,"lng":-97.727216},"address":"\"324 E AVENUE D\"","zip":"76541","state":"TX","city":"KILLEEN","title":"\"324 E AVENUE D\"","rcType":"Loan","icon":"white"},{"position":{"lat":31.048873,"lng":-97.651965},"address":"\"2425 FREDDIE L. NICHOLS SR. DR\"","zip":"76548","state":"TX","city":"\"HARKER HEIGHTS\"","title":"\"2425 FREDDIE L. NICHOLS SR. DR\"","rcType":"Loan","icon":"white"},{"position":{"lat":31.055116,"lng":-97.598073},"address":"\"RUMMEL RD\"","zip":"76548","state":"TX","city":"\"HARKER HEIGHTS\"","title":"\"RUMMEL RD\"","rcType":"Loan","icon":"white"},{"position":{"lat":31.005438,"lng":-97.775771},"address":"\"652 DEER RUN\"","zip":"76549","state":"TX","city":"KILLEEN","title":"\"652 DEER RUN\"","rcType":"Loan","icon":"white"},{"position":{"lat":31.042498,"lng":-97.367258},"address":"\"509 DANDRIDGE DR\"","zip":"76502","state":"TX","city":"TEMPLE","title":"\"509 DANDRIDGE DR\"","rcType":"Loan","icon":"white"},{"position":{"lat":30.808844,"lng":-97.313463},"address":"\"20900 POST OAK RD\"","zip":"76511","state":"TX","city":"BARTLETT","title":"\"20900 POST OAK RD\"","rcType":"Loan","icon":"white"},{"position":{"lat":30.992516,"lng":-97.203714},"address":"\"15516 STRINGTOWN RD\"","zip":"76569","state":"TX","city":"ROGERS","title":"\"15516 STRINGTOWN RD\"","rcType":"Loan","icon":"white"},{"position":{"lat":31.085937,"lng":-97.665858},"address":"\"105 E RUBY RD\"","zip":"76548","state":"TX","city":"\"HARKER HEIGHTS\"","title":"\"105 E RUBY RD\"","rcType":"Loan","icon":"white"},{"position":{"lat":31.113147,"lng":-97.337545},"address":"\"1602 N 3RD ST\"","zip":"76501","state":"TX","city":"TEMPLE","title":"\"1602 N 3RD ST\"","rcType":"Loan","icon":"white"},{"position":{"lat":31.038052,"lng":-97.684435},"address":"\"8314 MONEY PIT RD\"","zip":"76542","state":"TX","city":"KILLEEN","title":"\"8314 MONEY PIT RD\"","rcType":"Loan","icon":"white"},{"position":{"lat":30.915043,"lng":-97.216931},"address":"\"1930 ROGERS CEMETERY RD\"","zip":"76569","state":"TX","city":"ROGERS","title":"\"1930 ROGERS CEMETERY RD\"","rcType":"Loan","icon":"white"},{"position":{"lat":31.078068,"lng":-98.220388},"address":"\"172 HILLSIDE\"","zip":"76550","state":"TX","city":"LAMPASAS","title":"\"172 HILLSIDE\"","rcType":"Loan","icon":"white"},{"position":{"lat":31.069555,"lng":-97.394205},"address":"\"3601 IVANHOE DR\"","zip":"76502","state":"TX","city":"TEMPLE","title":"\"3601 IVANHOE DR\"","rcType":"Loan","icon":"white"},{"position":{"lat":31.14163,"lng":-97.430477},"address":"\"9007 SASSAFRAS ST\"","zip":"76502","state":"TX","city":"TEMPLE","title":"\"9007 SASSAFRAS ST\"","rcType":"Loan","icon":"white"},{"position":{"lat":30.946576,"lng":-97.597651},"address":"\"1704 INDIAN PASS\"","zip":"76571","state":"TX","city":"SALADO","title":"\"1704 INDIAN PASS\"","rcType":"Loan","icon":"white"},{"position":{"lat":31.143544,"lng":-97.430194},"address":"\"2039 YARROW RD\"","zip":"76502","state":"TX","city":"TEMPLE","title":"\"2039 YARROW RD\"","rcType":"Loan","icon":"white"},{"position":{"lat":31.143361,"lng":-97.430262},"address":"\"2035 YARROW RD\"","zip":"76502","state":"TX","city":"TEMPLE","title":"\"2035 YARROW RD\"","rcType":"Loan","icon":"white"},{"position":{"lat":31.143184,"lng":-97.430328},"address":"\"2031 YARROW RD\"","zip":"76502","state":"TX","city":"TEMPLE","title":"\"2031 YARROW RD\"","rcType":"Loan","icon":"white"},{"position":{"lat":31.115691,"lng":-97.408408},"address":"\"6270 W ADAMS AVE\"","zip":"76502","state":"TX","city":"TEMPLE","title":"\"6270 W ADAMS AVE\"","rcType":"Loan","icon":"white"},{"position":{"lat":31.225241,"lng":-97.511028},"address":"\"8112 OWL CREEK PARK RD\"","zip":"76528","state":"TX","city":"GATESVILLE","title":"\"8112 OWL CREEK PARK RD\"","rcType":"Loan","icon":"white"},{"position":{"lat":31.03707,"lng":-97.366034},"address":"\"6133 ALEXANDRIA DR\"","zip":"76502","state":"TX","city":"TEMPLE","title":"\"6133 ALEXANDRIA DR\"","rcType":"Loan","icon":"white"},{"position":{"lat":31.027332,"lng":-97.448134},"address":"\"2608 COWGIRL TRL\"","zip":"76513","state":"TX","city":"BELTON","title":"\"2608 COWGIRL TRL\"","rcType":"Loan","icon":"white"},{"position":{"lat":31.070335,"lng":-97.340337},"address":"\"927 MCLELLAN DR\"","zip":"76504","state":"TX","city":"TEMPLE","title":"\"927 MCLELLAN DR\"","rcType":"Loan","icon":"white"},{"position":{"lat":31.026401,"lng":-97.447304},"address":"\"2636 COWGIRL TRL\"","zip":"76513","state":"TX","city":"BELTON","title":"\"2636 COWGIRL TRL\"","rcType":"Loan","icon":"white"},{"position":{"lat":31.026667,"lng":-97.447541},"address":"\"2628 COWGIRL TRL\"","zip":"76513","state":"TX","city":"BELTON","title":"\"2628 COWGIRL TRL\"","rcType":"Loan","icon":"white"},{"position":{"lat":31.097199,"lng":-97.483535},"address":"\"3104 AMBER FOREST TRL\"","zip":"76513","state":"TX","city":"BELTON","title":"\"3104 AMBER FOREST TRL\"","rcType":"Loan","icon":"white"},{"position":{"lat":31.081227,"lng":-97.642233},"address":"\"740 E CENTRAL TEXAS EXPY\"","zip":"76548","state":"TX","city":"\"HARKER HEIGHTS\"","title":"\"740 E CENTRAL TEXAS EXPY\"","rcType":"Loan","icon":"white"},{"position":{"lat":31.42471,"lng":-97.668635},"address":"\"230 MOUNTAIN RD\"","zip":"76528","state":"TX","city":"GATESVILLE","title":"\"230 MOUNTAIN RD\"","rcType":"Loan","icon":"white"},{"position":{"lat":31.154533,"lng":-97.479139},"address":"\"3 N BOWMAN DR\"","zip":"76513","state":"TX","city":"BELTON","title":"\"3 N BOWMAN DR\"","rcType":"Loan","icon":"white"},{"position":{"lat":30.928405,"lng":-97.502653},"address":"\"850 GREAT OAKS\"","zip":"76571","state":"TX","city":"SALADO","title":"\"850 GREAT OAKS\"","rcType":"Loan","icon":"white"},{"position":{"lat":31.284437,"lng":-97.987644},"address":"\"4930 HARMON RD\"","zip":"76522","state":"TX","city":"\"COPPERAS COVE\"","title":"\"4930 HARMON RD\"","rcType":"Loan","icon":"white"},{"position":{"lat":31.131064,"lng":-97.908345},"address":"\"702 W LINCOLN AVE\"","zip":"76522","state":"TX","city":"\"COPPERAS COVE\"","title":"\"702 W LINCOLN AVE\"","rcType":"Loan","icon":"white"},{"position":{"lat":30.961096,"lng":-97.507914},"address":"\"10729 STINNETT MILL RD\"","zip":"76571","state":"TX","city":"SALADO","title":"\"10729 STINNETT MILL RD\"","rcType":"Loan","icon":"white"},{"position":{"lat":31.113692,"lng":-97.66516},"address":"\"1303 MONROE LOOP\"","zip":"76543","state":"TX","city":"KILLEEN","title":"\"1303 MONROE LOOP\"","rcType":"Loan","icon":"white"},{"position":{"lat":31.0836,"lng":-97.350693},"address":"\"1416 S 7TH ST\"","zip":"76504","state":"TX","city":"TEMPLE","title":"\"1416 S 7TH ST\"","rcType":"Loan","icon":"white"},{"position":{"lat":31.102904,"lng":-97.747864},"address":"\"1055 W JASPER DR\"","zip":"76542","state":"TX","city":"KILLEEN","title":"\"1055 W JASPER DR\"","rcType":"Loan","icon":"white"},{"position":{"lat":31.065255,"lng":-98.16919},"address":"\"1205 E 4TH ST\"","zip":"76550","state":"TX","city":"LAMPASAS","title":"\"1205 E 4TH ST\"","rcType":"Loan","icon":"white"},{"position":{"lat":31.024823,"lng":-97.667799},"address":"\"CHAPARRAL RD\"","zip":"76542","state":"TX","city":"KILLEEN","title":"\"CHAPARRAL RD\"","rcType":"Loan","icon":"white"},{"position":{"lat":30.93977,"lng":-97.238492},"address":"\"W MESQUITE AVE\"","zip":"76569","state":"TX","city":"ROGERS","title":"\"W MESQUITE AVE\"","rcType":"Loan","icon":"white"},{"position":{"lat":31.423242,"lng":-97.725225},"address":"\"902 S LOVERS LN\"","zip":"76528","state":"TX","city":"GATESVILLE","title":"\"902 S LOVERS LN\"","rcType":"Loan","icon":"white"}]